club_ID,club_Name,address,city,state,country,zip_code,timestampUpdated,course_ID,course_Name,num_Holes,has_GPS
1.69E+15,Grand Beach Golf Course,48200 Perkins Blvd,New Buffalo,MI,USA,49117,1693404029,1.22E+17,18-hole course,18,1
1.42E+17,Grand Traverse Resort ,100 Grand Traverse Village Blvd,Acme,MI,USA,49610,1693319175,1.21E+19,Spruce Run ,18,1
1.42E+17,Grand Traverse Resort ,100 Grand Traverse Village Blvd,Acme,MI,USA,49610,1693319639,1.21E+19,The Bear ,18,1
1.42E+17,Grand Traverse Resort ,100 Grand Traverse Village Blvd,Acme,MI,USA,49610,1693320153,1.21E+19,Wolverine ,18,1
1.42E+17,Egypt Valley  Country Club,7333 Knapp St NE,Ada,MI,USA,49301,1682158443,1.21E+19,Valley,18,1
1.42E+17,Egypt Valley  Country Club,7333 Knapp St NE,Ada,MI,USA,49301,1682158221,1.21E+19,Ridge,18,1
1.42E+17,Quail Ridge Golf Club,8375 36th St SE,Ada,MI,USA,49301,1618417179,1.21E+19,Quail Ridge,18,0
1.42E+17,Centerview Golf Course,5640 N Adrian Hwy,Adrian,MI,USA,49221,1668488569,1.21E+19,Centerview,18,1
1.42E+17,Lenawee Country Club,4110 Country Club Rd,Adrian,MI,USA,49221,1730957686,1.21E+19,Lenawee,18,1
1.34E+15,wolf creek golf club,6363 Burton Road,Adrian,MI,USA,49221,1618417148,1.21E+14,wolf creek golf course,18,1
1.42E+17,Tomac Woods Golf Course,14827 26 1/2 Mile Rd,Albion,MI,USA,49224,1618417180,1.21E+19,Tomac Woods,18,0
1.42E+17,Cheshire Hills Golf Club,3829 102nd Ave,Allegan,MI,USA,49010,1677064044,1.11E+19,Blue Bird + Blue Bird,18,1
1.42E+17,Cheshire Hills Golf Club,3829 102nd Ave,Allegan,MI,USA,49010,1677064044,1.21E+19,Blue Bird + Red Fox,18,1
1.42E+17,Cheshire Hills Golf Club,3829 102nd Ave,Allegan,MI,USA,49010,1677064044,1.31E+19,Blue Bird + White Tail,18,1
1.42E+17,Cheshire Hills Golf Club,3829 102nd Ave,Allegan,MI,USA,49010,1677064044,2.11E+19,Red Fox + Blue Bird,18,1
1.42E+17,Cheshire Hills Golf Club,3829 102nd Ave,Allegan,MI,USA,49010,1677064044,2.21E+19,Red Fox + Red Fox,18,1
1.42E+17,Cheshire Hills Golf Club,3829 102nd Ave,Allegan,MI,USA,49010,1677064044,2.31E+19,Red Fox + White Tail,18,1
1.42E+17,Cheshire Hills Golf Club,3829 102nd Ave,Allegan,MI,USA,49010,1677064044,3.11E+19,White Tail + Blue Bird,18,1
1.42E+17,Cheshire Hills Golf Club,3829 102nd Ave,Allegan,MI,USA,49010,1677064044,3.21E+19,White Tail + Red Fox,18,1
1.42E+17,Cheshire Hills Golf Club,3829 102nd Ave,Allegan,MI,USA,49010,1677064044,3.31E+19,White Tail + White Tail,18,1
1.42E+17,The Meadows at Grand Valley State,4645 W Campus Dr,Allendale,MI,USA,49401,1695152961,1.21E+18,18-hole course,18,0
1.42E+17,Pine River Country Club,1400 W Superior St,Alma,MI,USA,48801,1726587805,1.21E+19,Pine River,18,1
1.42E+17,Alpena Country Club,1135 Golf Course Road,Alpena,MI,USA,49707,1655979878,1.21E+19,Alpena,18,1
1.42E+17,Saskatoon Golf Club,9038 92nd St,Alto,MI,USA,49302,1618417179,1.11E+17,Gold,9,0
1.42E+17,Saskatoon Golf Club,9038 92nd St,Alto,MI,USA,49302,1713093524,1.12E+17,Silver,9,0
1.42E+17,Saskatoon Golf Club,9038 92nd St,Alto,MI,USA,49302,1618417179,1.21E+18,Red/Blue,18,0
1.42E+17,Saskatoon Golf Club,9038 92nd St,Alto,MI,USA,49302,1618417179,1.21E+19,Blue/White,18,0
1.42E+17,Saskatoon Golf Club,9038 92nd St,Alto,MI,USA,49302,1618417208,1.21E+19,Gold/Red,18,0
1.42E+17,Saskatoon Golf Club,9038 92nd St,Alto,MI,USA,49302,1618417179,1.11E+19,3 Hole,9,0
1.42E+17,Saskatoon Golf Club,9038 92nd St,Alto,MI,USA,49302,1618417179,1.11E+19,Blue,9,0
1.42E+17,Saskatoon Golf Club,9038 92nd St,Alto,MI,USA,49302,1618417179,1.11E+19,White,9,0
1.42E+17,Saskatoon Golf Club,9038 92nd St,Alto,MI,USA,49302,1618417179,1.11E+19,Red,9,0
1.42E+17,Tyler Creek Golf Club,13495 92nd St SE,Alto,MI,USA,49302,1618417180,1.21E+19,Tyler Creek,18,0
1.42E+17,Lake Forest Golf Club,3110 W Ellsworth Rd,Ann Arbor,MI,USA,48103,1618417208,1.21E+18,Lake Forest,18,0
1.42E+17,Polo Fields Golf & Country Club,5200 Polo Fields Dr,Ann Arbor,MI,USA,48103,1730313012,1.21E+19,Ann Arbor,18,1
1.42E+17,Polo Fields Golf & Country Club,5200 Polo Fields Dr,Ann Arbor,MI,USA,48103,1618417179,1.21E+19,Washtenaw,18,0
1.42E+17,Huron Hills Golf Course,3465 Huron River Dr,Ann Arbor,MI,USA,48104,1713033805,1.21E+19,18-hole course,18,1
1.42E+17,University of Michigan Golf Club,500 E Stadium Blvd,Ann Arbor,MI,USA,48104,1712611185,1.21E+14,18-hole course,18,1
1.42E+17,​​​​​Leslie Park Golf Course,2120 Traver Road,Ann Arbor,MI,USA,48105,1714753937,1.21E+19,18-hole course,18,1
1.42E+17,Radrick Farms Golf Club,4875 Geddes Rd,Ann Arbor,MI,USA,48105,1618417179,1.21E+19,Radrick Farms,18,1
1.42E+17,Stonebridge Golf Club,1955 Stonebridge Dr S,Ann Arbor,MI,USA,48108,1662492951,1.21E+19,Stonebridge,18,1
1.42E+17,Travis Pointe Country Club,2829 Travis Pointe Rd,Ann Arbor,MI,USA,48108,1618417180,1.21E+19,Travis Pointe,18,0
1.42E+17,Arcadia Bluffs,14710 Northwood Hwy,Arcadia,MI,USA,49613,1657009993,1.22E+17,South Course,18,1
1.42E+17,Arcadia Bluffs,14710 Northwood Hwy,Arcadia,MI,USA,49613,1657006132,1.21E+19,Arcadia Bluffs,18,1
1.42E+17,Elk Ridge Golf Course,9400 Rouse Rd,Atlanta,MI,USA,49709,1682495454,1.21E+19,Elk Ridge,18,1
1.42E+17,Huron Breeze Golf & Country Club,5200 Huron Breeze Dr,Au Gres,MI,USA,48703,1695353566,1.21E+19,Huron Breeze,18,1
1.42E+17,Fieldstone Golf Club of Auburn Hills,1984 Taylor Rd,Auburn Hills,MI,USA,48326,1687433274,1.21E+14,Fieldstone,18,1
1.42E+17,Gull Lake View Resort,7417 N 38th St,Augusta,MI,USA,49012,1687843036,1.21E+14,Bedford Valley,18,1
1.42E+17,Gull Lake View Resort,7417 N 38th St,Augusta,MI,USA,49012,1687844460,1.21E+19,East,18,1
1.42E+17,Gull Lake View Resort,7417 N 38th St,Augusta,MI,USA,49012,1692557041,1.21E+19,West,18,1
1.42E+17,Gull Lake View Resort,7417 N 38th St,Augusta,MI,USA,49012,1687845426,1.21E+19,Stonehedge North,18,1
1.42E+17,Gull Lake View Resort,7417 N 38th St,Augusta,MI,USA,49012,1687846384,1.21E+19,Stonehedge South,18,1
1.57E+15,Stoatin Brae Golf Club,15579 East Augusta Drive,Augusta,MI,USA,49012,1618417209,1.22E+17,18-hole course,18,0
1.42E+17,Stonehedge Golf Club,15530 East M-89,Augusta,MI,USA,49012,1618417179,1.21E+19,North,18,0
1.42E+17,Stonehedge Golf Club,15530 East M-89,Augusta,MI,USA,49012,1618417179,1.21E+19,South,18,0
1.42E+17,Yarrow Golf & Conference Resort,10499 N 48th St,Augusta,MI,USA,49012,1618417180,1.21E+19,Yarrow,18,0
1.42E+17,Verona Hills Golf Course,3175 Sand Beach Rd,Bad Axe,MI,USA,48413,1618417180,1.21E+19,Verona Hills,18,0
1.42E+17,Marquette Trails Golf Club,6409 West 76th St,Baldwin,MI,USA,49304,1729743165,1.21E+19,Marquette Trails,18,1
1.60E+15,Sage Run Golf Course,W1824 County Road 400,Bark River,MI,USA,49807,1618417211,1.22E+17,18-hole course,18,0
1.42E+17,Chardell Golf Course,4646 E Howe Rd,Bath,MI,USA,48808,1673955733,1.11E+19,Chardell,9,1
1.26E+12,Eagle Eye Golf Club,1550 Chandler Road,Bath,Mi,USA,48808,1688542239,1.21E+14,18-hole course,18,1
1.25E+12,Hawk Hollow Golf Course,15101 Chandler Road,Bath Township,MI,USA,48808,1707328315,1.11E+14,1-9 + 1-9,18,1
1.25E+12,Hawk Hollow Golf Course,15101 Chandler Road,Bath Township,MI,USA,48808,1707328315,1.21E+14,1-9 + 10-18,18,1
1.25E+12,Hawk Hollow Golf Course,15101 Chandler Road,Bath Township,MI,USA,48808,1707328315,1.31E+14,1-9 + 19-27,18,1
1.25E+12,Hawk Hollow Golf Course,15101 Chandler Road,Bath Township,MI,USA,48808,1707328315,2.11E+14,10-18 + 1-9,18,1
1.25E+12,Hawk Hollow Golf Course,15101 Chandler Road,Bath Township,MI,USA,48808,1707328315,2.21E+14,10-18 + 10-18,18,1
1.25E+12,Hawk Hollow Golf Course,15101 Chandler Road,Bath Township,MI,USA,48808,1707328315,2.31E+14,10-18 + 19-27,18,1
1.25E+12,Hawk Hollow Golf Course,15101 Chandler Road,Bath Township,MI,USA,48808,1707328315,3.11E+14,19-27 + 1-9,18,1
1.25E+12,Hawk Hollow Golf Course,15101 Chandler Road,Bath Township,MI,USA,48808,1707328315,3.21E+14,19-27 + 10-18,18,1
1.25E+12,Hawk Hollow Golf Course,15101 Chandler Road,Bath Township,MI,USA,48808,1707328315,3.31E+14,19-27 + 19-27,18,1
1.31E+12,Binder Park Golf Course,7255 B Drive South,Battle Creek,MI,USA,49014,1665317307,1.11E+14,Preserve + Preserve,18,1
1.31E+12,Binder Park Golf Course,7255 B Drive South,Battle Creek,MI,USA,49014,1665317307,1.21E+14,Preserve + Marsh,18,1
1.31E+12,Binder Park Golf Course,7255 B Drive South,Battle Creek,MI,USA,49014,1665317307,1.31E+14,Preserve + Natural,18,1
1.31E+12,Binder Park Golf Course,7255 B Drive South,Battle Creek,MI,USA,49014,1665317307,2.11E+14,Marsh + Preserve,18,1
1.31E+12,Binder Park Golf Course,7255 B Drive South,Battle Creek,MI,USA,49014,1665317307,2.21E+14,Marsh + Marsh,18,1
1.31E+12,Binder Park Golf Course,7255 B Drive South,Battle Creek,MI,USA,49014,1665317307,2.31E+14,Marsh + Natural,18,1
1.31E+12,Binder Park Golf Course,7255 B Drive South,Battle Creek,MI,USA,49014,1665317307,3.11E+14,Natural + Preserve,18,1
1.31E+12,Binder Park Golf Course,7255 B Drive South,Battle Creek,MI,USA,49014,1665317307,3.21E+14,Natural + Marsh,18,1
1.31E+12,Binder Park Golf Course,7255 B Drive South,Battle Creek,MI,USA,49014,1665317307,3.31E+14,Natural + Natural,18,1
1.42E+17,Marywood Golf Club,21310 N Ave,Battle Creek,MI,USA,49014,1705527432,1.21E+19,Marywood,18,1
1.42E+17,Battle Creek Country Club,318 Country Club Dr,Battle Creek,MI,USA,49015,1658814979,1.21E+19,Battle Creek,18,1
1.42E+17,Cedar Creek Golf Course,14000 Renton Rd,Battle Creek,MI,USA,49015,1668058817,1.21E+19,Cedar Creek,18,1
1.42E+17,Cedar Farms Golf Club ,12111 S Helmer Rd,Battle Creek,MI,USA,49015,1668073992,1.21E+19,Cedar Farm,18,1
1.42E+17,Riverside Country Club,245 E Columbia,Battle Creek,MI,USA,49015,1618417145,1.21E+17,18-hole course,18,0
1.42E+17,Riverside Country Club,245 E Columbia,Battle Creek,MI,USA,49015,1618417179,1.21E+18,Riverside,18,0
1.69E+15,Squirrel Hollow Golf Course,12111 Helmer Road South,Battle Creek,MI,USA,49015,1686606116,1.22E+17,18-hole course,18,0
1.42E+17,Bedford Valley Golf Course,23161 Waubascon Road,Battle Creek,MI,USA,49017,1660729500,1.21E+19,Bedford Valley,18,1
1.18E+12,Bay Valley,2470 Old Bridge Road,Bay City,Mi,USA,48706,1659083571,1.21E+14,Bay Valley,18,1
1.56E+15,Saginaw Valley Public Golf Course,7255 3 Mile Road,Bay City,MI,USA,48706,1618417207,1.22E+17,Saginaw Valley,18,0
1.42E+17,Bay Harbor Golf Club,5800 Coastal Ridge Drive,Bay Harbor,MI,USA,48435,1662892694,1.11E+19,Links + Links,18,1
1.42E+17,Bay Harbor Golf Club,5800 Coastal Ridge Drive,Bay Harbor,MI,USA,48435,1662892694,1.21E+19,Links + Quarry,18,1
1.42E+17,Bay Harbor Golf Club,5800 Coastal Ridge Drive,Bay Harbor,MI,USA,48435,1662892694,1.31E+19,Links + Preserve,18,1
1.42E+17,Bay Harbor Golf Club,5800 Coastal Ridge Drive,Bay Harbor,MI,USA,48435,1662892694,2.11E+19,Quarry + Links,18,1
1.42E+17,Bay Harbor Golf Club,5800 Coastal Ridge Drive,Bay Harbor,MI,USA,48435,1662892694,2.21E+19,Quarry + Quarry,18,1
1.42E+17,Bay Harbor Golf Club,5800 Coastal Ridge Drive,Bay Harbor,MI,USA,48435,1662892694,2.31E+19,Quarry + Preserve,18,1
1.42E+17,Bay Harbor Golf Club,5800 Coastal Ridge Drive,Bay Harbor,MI,USA,48435,1662892694,3.11E+19,Preserve + Links,18,1
1.42E+17,Bay Harbor Golf Club,5800 Coastal Ridge Drive,Bay Harbor,MI,USA,48435,1662892694,3.21E+19,Preserve + Quarry,18,1
1.42E+17,Bay Harbor Golf Club,5800 Coastal Ridge Drive,Bay Harbor,MI,USA,48435,1662892694,3.31E+19,Preserve + Preserve,18,1
1.50E+15,Chestnut Hills,7700 Glovers Lake Road,Bear Lake,MI,USA,49614,1669877013,1.21E+17,18-hole course,18,1
1.42E+17,County Highlands Golf Course,11903 Chippewa Hwy,Bear Lake,MI,USA,49614,1677223775,1.21E+19,Bear Lake Highlands,18,1
1.42E+17,Candlestone Inn Golf & Resort,8100 N Storey Rd,Belding,MI,USA,48809,1666430547,1.21E+19,Candlestone Inn,18,1
1.59E+15,Bellaire Centennial Golf Club,3388 West Eddy School Road,Bellaire,MI,USA,49615,1618417210,1.22E+17,18-hole course,18,0
1.42E+17,Shanty Creek Golf Club ,*One Shanty Creek Rd,Bellaire,MI,USA,49615,1694386153,1.21E+17,The Summit ,18,1
1.42E+17,Shanty Creek Golf Club ,*One Shanty Creek Rd,Bellaire,MI,USA,49615,1689438928,1.21E+19,Hawks Eye,18,1
1.42E+17,Shanty Creek Golf Club ,*One Shanty Creek Rd,Bellaire,MI,USA,49615,1618417179,1.21E+19,Cedar River ,18,0
1.42E+17,Shanty Creek Golf Club ,*One Shanty Creek Rd,Bellaire,MI,USA,49615,1618417179,1.21E+19,Legend ,18,0
1.42E+17,Shanty Creek Golf Club ,*One Shanty Creek Rd,Bellaire,MI,USA,49615,1659619913,1.21E+19,Schuss Mountain ,18,1
1.50E+15,The Chief,5085 Shanty Creek Rd.,Bellaire,MI,USA,49615,1618417211,1.22E+17,The Chief,18,1
1.42E+17,The Farm Golf Club,3388 Eddy School Rd,Bellaire,MI,USA,49615,1618417179,1.21E+19,The Farm,18,0
1.42E+17,Blythefield Country Club,5801 Northland Dr,Belmont,MI,USA,49306,1663125100,1.21E+19,Blythefield,18,1
1.42E+17,Boulder Creek Golf Club,5750 Brewer Ave NE,Belmont,MI,USA,49306,1663656764,1.21E+19,Boulder Creek,18,1
1.42E+17,Berrien Hills Golf Club,690 W Napier Ave,Benton Harbor,MI,USA,49022,1661586837,1.21E+18,Berrien Hills,18,1
1.42E+17,Blossom Trails Golf Club,1565 Britain Ave,Benton Harbor,MI,USA,49022,1662798086,1.21E+19,Blossom Trails,18,1
1.34E+14,Harbor Shores Golf Club,201 Graham Avenue,Benton Harbor,MI,USA,49022,1719353929,1.21E+16,18-hole course,18,1
1.42E+17,Lake Michigan Hills Golf Club,2520 Kerlikowski Rd,Benton Harbor,MI,USA,49022,1700853243,1.21E+19,Lake Michigan Hills,18,1
1.42E+17,Point O Woods Country Club,1516 Roslin Rd,Benton Harbor,MI,USA,49022,1730222048,1.21E+19,Point O' Woods,18,1
1.42E+17,Pinecroft Golf Plantation,8260 Henry Rd,Benzonia,MI,USA,49617,1726846118,1.21E+19,Pinecroft Golf Plantation,18,1
1.42E+17,Champion Hill Golf Club,501 N Marshall Rd,Beulah,MI,USA,49617,1674121416,1.21E+19,Champion Hill,18,1
1.42E+17,Crystal Lake Golf Club,8493 Fairway Dr,Beulah,MI,USA,49617,1679308895,1.21E+18,Crystal Lake,18,1
1.66E+15,Crystal Lake Golf Course,8493 Fairway Dr,Beulah,MI,USA,49617,1660487715,1.22E+17,18-hole course,18,1
1.42E+17,Clear Lake Golf Club,14777 150th Ave,Big Rapids,MI,USA,49307,1671429324,1.21E+18,Clear Lake,18,1
1.42E+17,Falcon Head Golf Course,13120 Northland Dr,Big Rapids,MI,USA,49307,1618417179,1.21E+19,Falcon Head,18,0
1.42E+17,Katke Golf Club ,1003 Perry Avenue,Big Rapids,MI,USA,49307,1722241193,1.21E+19,Katke Golf,18,1
1.42E+17,Birmingham Country Club,1750 Saxon Dr,Birmingham,MI,USA,48009,1664604144,1.21E+19,Birmingham,18,1
1.42E+17,Lincoln Hills Golf Course,2666 West 14 Mile Road,Birmingham,MI,USA,48009,1698849890,1.11E+18,Lincoln Hills,9,1
1.42E+17,Oakland Hills Country Club,3951 W Maple,Bloomfield Hills,MI,USA,48301,1709303564,1.21E+19,North,18,1
1.42E+17,Oakland Hills Country Club,3951 W Maple,Bloomfield Hills,MI,USA,48301,1709304051,1.21E+19,South,18,1
1.42E+17,Forest Lake Country Club,1401 Club Dr,Bloomfield Hills,MI,USA,48302,1695915333,1.21E+14,18-hole course,18,1
1.42E+17,Wabeek Country Club,4000 Clubgate Dr,Bloomfield Hills,MI,USA,48302,1618417180,1.21E+19,Wabeek,18,0
1.42E+17,Bloomfield Hills Country Club,350 W Long Lake Rd,Bloomfield Hills,MI,USA,48304,1662778169,1.21E+19,18-hole course,18,1
1.73E+15,Springdale Golf Course,316 Strathmore Road,Bloomfield Hills,MI,USA,48304,1733498176,1.11E+19,9-hole course,9,0
1.42E+17,Boyne Mountain Resort,1 Boyne Mountain Rd,Boyne Falls,MI,USA,49713,1663858387,1.21E+19,Alpine,18,1
1.42E+17,Boyne Mountain Resort,1 Boyne Mountain Rd,Boyne Falls,MI,USA,49713,1663859396,1.21E+19,Monument,18,1
1.42E+17,Springbrook Golf Course,6151 Springvale Road,Boyne Falls,MI,USA,49713,1729198935,1.21E+19,18-hole course,18,1
1.42E+17,Green Acres Golf Course,7323 Dixie Hwy,Bridgeport,MI,USA,48722,1693657118,1.21E+19,18-hole course,18,1
1.42E+17,Lost Dunes Golf Club,9300 Red Arrow Hwy,Bridgman,MI,USA,49106,1721752207,1.21E+19,Lost Dunes,18,1
1.42E+17,Pebblewood Country Club,9794 Jericho Rd,Bridgman,MI,USA,49106,1722265166,1.21E+19,Pebblewood,18,1
1.42E+17,Huntmore Golf Club,9595 Estancia Rd,Brighton,MI,USA,48114,1729512228,1.21E+18,18-hole course,18,1
1.42E+17,Huron Meadows Metropark Golf Club,8765 Hammel Rd,Brighton,MI,USA,48116,1618417179,1.21E+18,Huron Meadows,18,1
1.42E+17,Lakelands Golf & Country Club,8760 Chilson Rd,Brighton,MI,USA,48116,1716392342,1.21E+19,Lakelands,18,1
1.42E+17,Oak Pointe Country Club,4500 Club Dr,Brighton,MI,USA,48116,1708942977,1.21E+18,Honors,18,1
1.42E+17,Oak Pointe Country Club,4500 Club Dr,Brighton,MI,USA,48116,1720457696,1.21E+19,Championship,18,1
1.42E+17,The Jackal Golf Club at Mt Brighton,4141 Bauer Rd,Brighton,MI,USA,48116,1618417179,1.21E+19,18-hole course,18,0
1.34E+15,Wild Bluff Golf Course,11386 West Lakeshore Drive,Brimley,MI,USA,49715,1724354601,1.21E+17,18-hole course,18,1
1.42E+17,Prarie River Golf Club,1015 Brink Rd,Bronson,MI,USA,49028,1618417179,1.21E+19,Bronson,18,0
1.42E+17,Greenbriar Golf Club,14820 Wellwood Rd,Brooklyn,MI,USA,49230,1686998842,1.21E+19,Greenbriar,18,1
1.42E+17,Hills Heart of the Lakes Golf Club,500 Case Rd,Brooklyn,MI,USA,49230,1713205205,1.21E+19,Hills Heart of the Lakes,18,1
1.42E+17,Hidden River Golf & Casting Club,7688 Maple River Rd,Brutus,MI,USA,49716,1691666042,1.21E+19,Hidden River,18,1
1.42E+17,Brookwood Golf Course,1339 Rynearson Rd,Buchanan,MI,USA,49107,1665211165,1.21E+19,Brookwood,18,1
1.42E+17,Orchard Hills Country Club,2841 Niles Buchanan Rd,Buchanan,MI,USA,49107,1726770994,1.21E+19,Orchard Hills,18,1
1.42E+17,Turtle Creek Golf Club,9044 R Dr S,Burlington,MI,USA,49029,1685398272,1.22E+17,18-hole course,18,0
1.42E+17,Turtle Creek Golf Club,9044 R Dr S,Burlington,MI,USA,49029,1618417180,1.21E+19,Regulation,18,0
1.42E+17,Brookwood Golf Club,6045 Davison Rd,Burton,MI,USA,48509,1665210100,1.21E+19,Brookwood,18,1
1.44E+15,IMA Brookwood,6045 Davison Rd,Burton,MI,USA,48509,1695712718,1.21E+17,IMA Brookwood,18,1
1.42E+17,Southmoor Golf Course,G-4312 S Dort Hwy,Burton,MI,USA,48529,1618417179,1.21E+19,Southmoor,18,0
1.40E+15,Southmoore Golf Course,G-4312 S Dort Hwy,Burton,mi,USA,48529,1618417154,1.21E+17,Southmoore Golf Course,18,0
1.42E+17,Willow Brook Golf Club,311 W Maple Rd,Byron,MI,USA,48418,1724352869,1.21E+19,Willow Brook,18,1
1.21E+12,Brewer Park,399 84th Street Southeast,Byron Center,MI,USA,49315,1618417134,1.21E+14,18-hole course,18,1
1.42E+17,Ironwood Golf Course,3750 64th St,Byron Center,MI,USA,49315,1714375453,1.21E+19,Ironwood,18,1
1.42E+17,Railside Golf Club,2500 76th St SW,Byron Center,MI,USA,49315,1618417179,1.21E+19,Railside,18,0
1.42E+17,Cadillac Country Club,5510 M-55,Cadillac,MI,USA,49601,1666159787,1.21E+19,Cadillac,18,1
1.42E+17,El Dorado Golf Club,7839 E 46 1/2 Rd,Cadillac,MI,USA,49601,1682342328,1.21E+19,El Dorado Golf,18,1
1.32E+12,Lakewood on the Green,128 Lakewood Dr.,Cadillac,MI,USA,49601,1725546484,1.21E+14,Briar south,18,1
1.42E+17,McGuires Resort,7880 Mackinaw Trl,Cadillac,MI,USA,49601,1726221438,1.21E+19,Spruce 18 Hole,18,1
1.42E+17,McGuires Resort,7880 Mackinaw Trl,Cadillac,MI,USA,49601,1726221634,1.11E+19,Norway 9 Hole,9,1
1.42E+17,Briarwood Golf Club,2900 92nd St SE,Caledonia,MI,USA,49316,1668080261,1.11E+19,Front + Front,18,1
1.42E+17,Briarwood Golf Club,2900 92nd St SE,Caledonia,MI,USA,49316,1668080261,1.21E+19,Front + Back,18,1
1.42E+17,Briarwood Golf Club,2900 92nd St SE,Caledonia,MI,USA,49316,1668080261,1.31E+19,Front + East,18,1
1.42E+17,Briarwood Golf Club,2900 92nd St SE,Caledonia,MI,USA,49316,1668080261,2.11E+19,Back + Front,18,1
1.42E+17,Briarwood Golf Club,2900 92nd St SE,Caledonia,MI,USA,49316,1668080261,2.21E+19,Back + Back,18,1
1.42E+17,Briarwood Golf Club,2900 92nd St SE,Caledonia,MI,USA,49316,1668080261,2.31E+19,Back + East,18,1
1.42E+17,Briarwood Golf Club,2900 92nd St SE,Caledonia,MI,USA,49316,1668080261,3.11E+19,East + Front,18,1
1.42E+17,Briarwood Golf Club,2900 92nd St SE,Caledonia,MI,USA,49316,1668080261,3.21E+19,East + Back,18,1
1.42E+17,Briarwood Golf Club,2900 92nd St SE,Caledonia,MI,USA,49316,1668080261,3.31E+19,East + East,18,1
1.42E+17,Broadmoor Country Club,7725 Kraft Ave SE,Caledonia,MI,USA,49316,1664778824,1.21E+19,Broadmoor,18,1
1.42E+17,Crystal Springs Country Club,7177 Kalamazoo Ave SE,Caledonia,MI,USA,49316,1684839599,1.21E+19,StoneWater,18,1
1.42E+17,Calumet Golf Club,54270 Golf Course Rd,Calumet,MI,USA,49913,1666254392,1.11E+18,Calumet,9,1
1.42E+17,Canadian Lakes Country Club,10690 Pierce Road,Canadian Lakes,MI,USA,48187,1666404436,1.11E+18,Highlands,9,1
1.42E+17,Canadian Lakes Country Club,10690 Pierce Road,Canadian Lakes,MI,USA,48187,1666404913,1.11E+19,Pines,9,1
1.42E+17,Canadian Lakes Country Club,10690 Pierce Road,Canadian Lakes,MI,USA,48187,1666418389,1.21E+19,Royal,18,1
1.42E+17,Fellows Creek Golf Club,2936 Lotz Rd,Canton,MI,USA,48188,1694009541,1.11E+19,East + East,18,0
1.42E+17,Fellows Creek Golf Club,2936 Lotz Rd,Canton,MI,USA,48188,1694009541,1.21E+19,East + South,18,0
1.42E+17,Fellows Creek Golf Club,2936 Lotz Rd,Canton,MI,USA,48188,1694009541,1.31E+19,East + West,18,0
1.42E+17,Fellows Creek Golf Club,2936 Lotz Rd,Canton,MI,USA,48188,1694009541,2.11E+19,South + East,18,0
1.42E+17,Fellows Creek Golf Club,2936 Lotz Rd,Canton,MI,USA,48188,1694009541,2.21E+19,South + South,18,0
1.42E+17,Fellows Creek Golf Club,2936 Lotz Rd,Canton,MI,USA,48188,1694009541,2.31E+19,South + West,18,0
1.42E+17,Fellows Creek Golf Club,2936 Lotz Rd,Canton,MI,USA,48188,1694009541,3.11E+19,West + East,18,0
1.42E+17,Fellows Creek Golf Club,2936 Lotz Rd,Canton,MI,USA,48188,1694009541,3.21E+19,West + South,18,0
1.42E+17,Fellows Creek Golf Club,2936 Lotz Rd,Canton,MI,USA,48188,1694009541,3.31E+19,West + West,18,0
1.42E+17,Pheasant Run Golf Club,46500 Summit Pkwy,Canton,MI,USA,48188,1695196843,1.11E+19,North + North,18,1
1.42E+17,Pheasant Run Golf Club,46500 Summit Pkwy,Canton,MI,USA,48188,1695196843,1.21E+19,North + South,18,1
1.42E+17,Pheasant Run Golf Club,46500 Summit Pkwy,Canton,MI,USA,48188,1695196843,1.31E+19,North + West,18,1
1.42E+17,Pheasant Run Golf Club,46500 Summit Pkwy,Canton,MI,USA,48188,1695196843,2.11E+19,South + North,18,1
1.42E+17,Pheasant Run Golf Club,46500 Summit Pkwy,Canton,MI,USA,48188,1695196843,2.21E+19,South + South,18,1
1.42E+17,Pheasant Run Golf Club,46500 Summit Pkwy,Canton,MI,USA,48188,1695196843,2.31E+19,South + West,18,1
1.42E+17,Pheasant Run Golf Club,46500 Summit Pkwy,Canton,MI,USA,48188,1695196843,3.11E+19,West + North,18,1
1.42E+17,Pheasant Run Golf Club,46500 Summit Pkwy,Canton,MI,USA,48188,1695196843,3.21E+19,West + South,18,1
1.42E+17,Pheasant Run Golf Club,46500 Summit Pkwy,Canton,MI,USA,48188,1695196843,3.31E+19,West + West,18,1
1.42E+17,Holly Meadows Golf Course,4855 Capac Rd,Capac,MI,USA,48014,1729619315,1.21E+14,18-hole course,18,1
1.42E+17,Carleton Glen Golf Club,13470 Grafton Rd,Carleton,MI,USA,48117,1667279522,1.21E+18,Carleton Glen,18,1
1.42E+17,Thorne Hills Golf Course,12915 Sumpter Rd,Carleton,MI,USA,48117,1618417180,1.21E+19,Thorne Hills,18,0
1.42E+17,The Mackinaw Club,8700 Mackinaw Club Dr,Carp Lake,MI,USA,49718,1618417180,1.21E+19,The Mackinaw,18,0
1.42E+17,Michigan Meadows Country Club,4575 County Line Rd,Casco,MI,USA,48064,1706022210,1.21E+19,Michigan Meadows,18,1
1.42E+17,Golden Hawk Golf Club,9861 Meisner Ln,Casco Township,MI,USA,48064,1686304739,1.21E+19,18-hole course,18,1
1.42E+17,Rolling Hills Golf Course,6586 Milligan Road,Cass City,MI,USA,48726,1618417179,1.11E+19,Rolling Hills,9,0
1.42E+17,Park Shore Golf Club,610 Park Shore Dr,Cassopolis,MI,USA,49031,1618417179,1.21E+19,Park Shore,18,0
1.53E+14,Diamond Lake Golf Club,M-60 East,Cassopolis,MI,USA,49031,1681202930,1.12E+16,9-hole course,9,1
1.42E+17,Sugar Loaf Mountain Resort ,4512 S Townline Rd,Cedar,MI,USA,49621,1618417179,1.21E+19,Old,18,0
1.42E+17,Kings Challenge Golf Club,4600 CLUB DRIVE,Cedar,MI,USA,49621,1722438364,1.21E+18,Manitou Passage,18,1
1.46E+15,Manitou Passage Golf Club,4600 Club Drive,Cedar,MI,USA,49621,1722709577,1.21E+17,Manitou Passage Golf Club,18,1
1.42E+17,Cedar Chase Golf Club,7551 - 17 Mile Rd NE,Cedar Springs,MI,USA,49318,1668086482,1.21E+19,Cedar Chase,18,1
1.42E+17,Island Hills Golf Club,23510 Island Hills Dr,Centreville,MI,USA,49032,1695142446,1.21E+19,18 Hole Championship,18,1
1.42E+17,Island Hills Golf Club,23510 Island Hills Dr,Centreville,MI,USA,49032,1695144213,1.21E+19,18 Hole Junior,18,1
1.42E+17,Island Hills Golf Club,23510 Island Hills Dr,Centreville,MI,USA,49032,1721820348,1.21E+19,12 Hole Premier,18,1
1.42E+17,Island Hills Golf Club,23510 Island Hills Dr,Centreville,MI,USA,49032,1695146228,1.11E+19,7 Hole East,9,1
1.42E+17,Island Hills Golf Club,23510 Island Hills Dr,Centreville,MI,USA,49032,1695146880,1.11E+19,7 Hole West,9,1
1.42E+17,Island Hills Golf Club,23510 Island Hills Dr,Centreville,MI,USA,49032,1695145228,1.11E+19,5 Hole Begineer/Short,9,1
1.47E+15,Belvedere Golf Club,5731 Marion Center Road,Charlevoix,MI,USA,49665,1661249138,1.21E+17,Belvedere Golf Club,18,1
1.42E+17,Dunmaglas Golf Course,9031 Boyne City Rd,Charlevoix,MI,USA,49712,1688360300,1.21E+19,Dunmaglas,18,1
1.42E+17,Charlevoix Country Club,9600 Clubhouse Dr,Charlevoix,MI,USA,49720,1674206199,1.21E+19,Charlevoix,18,1
1.47E+15,Charlevoix Golf Club,400 Fairway Drive,Charlevoix,MI,USA,49720,1674310501,1.11E+17,9-hole course,9,1
1.59E+15,Maple Brook Golf Course,681 Lansing Street,Charlotte,MI,USA,48813,1704546409,1.22E+17,18-hole course,18,1
1.42E+17,Cheboygan Golf & Country Club,1431 Old Mackinaw Rd,Cheboygan,MI,USA,49721,1669436826,1.21E+19,Cheboygan,18,1
1.42E+17,Pierce Lake Golf Course,1175 S Main,Chelsea,MI,USA,48118,1724661503,1.21E+19,Pierce Lake,18,1
1.42E+17,Reddeman Farms Golf Club,555 S Dancer Rd,Chelsea,MI,USA,48118,1618417134,1.21E+14,18-hole course,18,0
1.42E+17,Reddeman Farms Golf Club,555 S Dancer Rd,Chelsea,MI,USA,48118,1618417179,1.21E+19,Reddeman Farms,18,0
1.42E+17,Inverness Country Club,12893 N Territorial Rd,Chelsea,MI,USA,48130,1730192485,1.21E+19,Inverness,18,1
1.42E+17,Twin Brooks Golf Course,1005 N McKeighan Rd,Chesaning,MI,USA,48616,1618417180,1.21E+19,Twin Brooks,18,0
1.42E+17,Boulder Lakes Country Club,52100 Fairchild Rd,Chesterfield,MI,USA,48616,1663655808,1.21E+19,Scalawags,18,0
1.67E+14,Oakhurst Golf & Country Club,7000 Oakhurst Lane,City of the Village of Clarkst,MI,USA,48348,1709200671,1.22E+17,18-hole course,18,1
1.42E+17,Firefly Golf Links,7795 S Clare Ave,Clare,MI,USA,48617,1693732415,1.21E+19,Firefly,18,1
1.42E+17,Fountains Golf & Banquet,6060 Maybee Rd,Clarkston,MI,USA,48346,1689925839,1.21E+17,18-hole course,18,1
1.42E+17,Shepherds Hollow Golf Club,9085 Big Lake Rd,Clarkston,MI,USA,48346,1618417179,1.21E+18,18-Jan,18,0
1.42E+17,Shepherds Hollow Golf Club,9085 Big Lake Rd,Clarkston,MI,USA,48346,1618417179,1.21E+19,27-Oct,18,0
1.42E+17,Shepherds Hollow Golf Club,9085 Big Lake Rd,Clarkston,MI,USA,48346,1618417179,1.21E+19,19-9,18,0
1.42E+17,Oakhurst Golf & Country Club,7000 Oakhurst Ln,Clarkston,MI,USA,48348,1618417179,1.21E+19,Oakhurst,18,0
1.42E+17,Pine Knob Golf Club,5580 Waldon Rd,Clarkston,MI,USA,48348,1692527585,1.11E+19,Eagle + Eagle,18,0
1.42E+17,Pine Knob Golf Club,5580 Waldon Rd,Clarkston,MI,USA,48348,1692527585,1.21E+19,Eagle + Falcon,18,0
1.42E+17,Pine Knob Golf Club,5580 Waldon Rd,Clarkston,MI,USA,48348,1692527585,1.31E+19,Eagle + Hawk,18,0
1.42E+17,Pine Knob Golf Club,5580 Waldon Rd,Clarkston,MI,USA,48348,1692527585,2.11E+19,Falcon + Eagle,18,0
1.42E+17,Pine Knob Golf Club,5580 Waldon Rd,Clarkston,MI,USA,48348,1692527585,2.21E+19,Falcon + Falcon,18,0
1.42E+17,Pine Knob Golf Club,5580 Waldon Rd,Clarkston,MI,USA,48348,1692527585,2.31E+19,Falcon + Hawk,18,0
1.42E+17,Pine Knob Golf Club,5580 Waldon Rd,Clarkston,MI,USA,48348,1692527585,3.11E+19,Hawk + Eagle,18,0
1.42E+17,Pine Knob Golf Club,5580 Waldon Rd,Clarkston,MI,USA,48348,1692527585,3.21E+19,Hawk + Falcon,18,0
1.42E+17,Pine Knob Golf Club,5580 Waldon Rd,Clarkston,MI,USA,48348,1692527585,3.31E+19,Hawk + Hawk,18,0
1.42E+17,Fernhill Golf & Country Club,17600 Clinton River Rd,Clinton Township,MI,USA,48038,1686898071,1.21E+14,18-hole course,18,1
1.42E+17,Clio Country Club,13141 N Linden Rd,Clio,MI,USA,48420,1672126110,1.21E+19,Clio,18,1
1.42E+17,Vienna Greens Golf Club,1184 E Tobias Rd,Clio,MI,USA,48420,1618417180,1.21E+18,Vienna Greens,18,1
1.28E+12,Bella Vista,608 One Straight Drive,Coldwater,MI,USA,49036,1660973598,1.21E+17,18-hole course,18,1
1.42E+17,Golf Club of Coldwater,270 Narrows Rd,Coldwater,MI,USA,49036,1692866482,1.21E+19,Coldwater,18,0
1.43E+15,Iyopawa Island Golf Course,13004 Iyopawa Island Rd,Coldwater,MI,USA,49036,1720870997,1.11E+17,Iyopawa Island Golf Course,9,1
1.42E+17,Cedar Valley Golf Course,3757 N Weaver Rd,Comins,MI,USA,48619,1668249042,1.21E+19,Cedar Valley,18,1
1.42E+17,Beacon Hill Golf Course,6011 Majestic Oaks Dr,Commerce Township,MI,USA,48382,1659427730,1.21E+19,Beacon Hill,18,1
1.42E+17,Edgewood Country Club,8399 Commerce Rd,Commerce Township,MI,USA,48382,1688629000,1.21E+19,Edgewood,18,1
1.42E+17,Alpine Golf Club,6320 Alpine NW,Comstock Park,MI,USA,49321,1656061547,1.21E+19,Alpine,18,1
1.42E+17,Scott Lake Country Club,911 Hayes Rd NE,Comstock Park,MI,USA,49321,1618417179,1.21E+19,Gold/White,18,0
1.42E+17,Scott Lake Country Club,911 Hayes Rd NE,Comstock Park,MI,USA,49321,1618417179,1.21E+19,Gold/Red,18,0
1.42E+17,Scott Lake Country Club,911 Hayes Rd NE,Comstock Park,MI,USA,49321,1618417179,1.21E+19,Red/White,18,0
1.42E+17,Scott Lake Country Club,911 Hayes Rd NE,Comstock Park,MI,USA,49321,1618417179,1.11E+19,Gold,9,0
1.42E+17,Scott Lake Country Club,911 Hayes Rd NE,Comstock Park,MI,USA,49321,1618417179,1.11E+19,Red,9,0
1.42E+17,Scott Lake Country Club,911 Hayes Rd NE,Comstock Park,MI,USA,49321,1618417179,1.11E+19,White,9,0
1.42E+17,Concord Hills Golf Course,7331 Pulaski Rd,Concord,MI,USA,49237,1683267623,1.21E+18,Concord Hills,18,1
1.66E+15,Whiffletree Hill Golf Course,15730 Homer Road,Concord,MI,USA,49237,1660613417,1.22E+17,18-hole course,18,0
1.69E+15,Corunna Hills Golf Course,1840 Cornell Road,Corunna,MI,USA,48867,1692109246,1.12E+17,9-hole course,9,0
1.42E+17,Springfield Oaks Golf Course,12450 Andersonville Rd,Davisburg,MI,USA,48350,1618417179,1.21E+19,Springfield Oaks,18,0
1.42E+17,Copper Ridge Golf Club,8475 Atherton Rd,Davison,MI,USA,48423,1675069693,1.21E+19,Copper Ridge,18,1
1.42E+17,Davison Country Club,9512 Lippincott,Davison,MI,USA,48423,1680687817,1.21E+19,Davison,18,1
1.42E+17,Sugarbush Golf Club,One Sugarbush Dr,Davison,MI,USA,48423,1618417139,1.21E+14,18-hole course,18,0
1.42E+17,Sugarbush Golf Club,One Sugarbush Dr,Davison,MI,USA,48423,1618417179,1.21E+19,Sugarbush,18,1
1.42E+17,TPC of Michigan,1 Nicklaus Dr,Dearborn,MI,USA,48120,1618417180,1.21E+19,TPC of Michigan,18,0
1.42E+17,Dearborn Country Club,800 N Military St,Dearborn,MI,USA,48124,1680787284,1.21E+19,Dearborn,18,1
1.42E+17,Dearborn Hills Golf Course,1300 S Telegraph Rd,Dearborn,MI,USA,48124,1680787117,1.21E+19,Dearborn Hills,18,1
1.42E+17,Warren Valley Golf Club,26116 W Warren St,Dearborn,MI,USA,48127,1618417180,1.21E+19,East,18,0
1.42E+17,Warren Valley Golf Club,26116 W Warren St,Dearborn,MI,USA,48127,1618417180,1.21E+19,West,18,0
1.42E+17,Mullenhurst Golf Course,9810 Mullen Rd,Delton,MI,USA,49046,1618417179,1.21E+19,Mullenhurst,18,0
1.42E+17,Detroit Golf Club,17911 Hamilton Rd,Detroit,MI,USA,48203,1681193466,1.21E+19,North,18,1
1.42E+17,Detroit Golf Club,17911 Hamilton Rd,Detroit,MI,USA,48203,1681194079,1.21E+19,South,18,1
1.42E+17,Palmer Park Golf Course,19013 Woodward Ave,Detroit,MI,USA,48203,1618417179,1.21E+19,Palmer Park,18,0
1.42E+17,Chandler Park Golf Course,12801 Chandler Park Dr,Detroit,MI,USA,48213,1674495284,1.21E+14,18-hole course,18,1
1.42E+17,Rogell Golf Course,18601 Berg Rd,Detroit,MI,USA,48219,1618417179,1.21E+19,Rogell,18,0
1.42E+17,Rouge Park Golf Course,11701 Burt Rd,Detroit,MI,USA,48228,1618417179,1.21E+19,Rouge Park,18,0
1.42E+17,Prairie Creek Golf Course,800 E Webb Rd,DeWitt,MI,USA,48820,1733933688,1.21E+19,Prairie Creek,18,1
1.42E+17,Hudson Mills Metro Park,4800 Dexter Pinckney Rd,Dexter,MI,USA,48130,1694740355,1.21E+19,18-hole course,18,1
1.42E+17,Lake Monterey Golf Course,2808 Fairway Dr,Dorr,MI,USA,49323,1724408855,1.21E+19,Lake Monterey,18,1
1.42E+17,Hampshire Country Club,29592 Pokagon Hwy,Dowagiac,MI,USA,49047,1688466889,1.21E+19,Hampshire,18,1
1.42E+17,Hampshire Country Club,29592 Pokagon Hwy,Dowagiac,MI,USA,49047,1717967090,1.21E+19,Dogwood,18,1
1.42E+17,Spruce Ridge Golf Club,26831 Dutch Settlement Rd,Dowagiac,MI,USA,49047,1618417179,1.21E+19,Spruce Ridge,18,0
1.42E+17,The Rock at Woodmoor,26 Maxton Rd,Drummond Island,MI,USA,49726,1618417180,1.21E+19,The Rock at Woodmoor,18,0
1.42E+17,Dutch Hollow Golf Club,8500 E Lansing Rd,Durand,MI,USA,48429,1688374653,1.21E+19,Dutch Hollow,18,1
1.42E+17,Rattle Run Golf Course,7163 Saint Clair Hwy,East China,MI,USA,48054,1618417179,1.21E+19,Rattle Run,18,0
1.43E+15,Mallard Golf Club,9569 Bailey Road,East Jordan,MI,USA,49727,1716487882,1.11E+17,The Mallard ,9,1
1.59E+15,Ye Nyne Olde Holles,6386 Ferry Rd.,East Jordan,MI,USA,49727,1618417211,1.22E+17,18-hole course,18,1
1.31E+12,Forest Akers East Golf Course,2231 South Harrison Road,East Lansing,MI,USA,48823,1618417149,1.21E+14,Forest Akers East,18,0
1.42E+17,Forest Akers MSU Golf Club,3535 Forest Rd Lansing,East Lansing,MI,USA,48823,1694590374,1.21E+19,East,18,1
1.42E+17,Forest Akers MSU Golf Club,3535 Forest Rd Lansing,East Lansing,MI,USA,48823,1692856782,1.21E+19,West,18,1
1.42E+17,Timber Ridge Golf Club,16339 Park Lake Rd,East Lansing,MI,USA,48823,1618417180,1.21E+19,Timber Ridge,18,1
1.42E+17,Walnut Hills Country Club,2874 Lake Lansing Rd,East Lansing,MI,USA,48823,1618417180,1.21E+19,Walnut Hills,18,0
1.42E+17,Red Hawk Golf Club,350 W Davison Rd,East Tawas,MI,USA,48730,1618417179,1.21E+19,Red Hawk,18,0
1.42E+17,Indian Lake Hills Golf Course,55321 Brush Lake Road,Eau Claire,MI,USA,49111,1733607364,1.11E+19,East + East,18,1
1.42E+17,Indian Lake Hills Golf Course,55321 Brush Lake Road,Eau Claire,MI,USA,49111,1733607364,1.21E+19,East + West,18,1
1.42E+17,Indian Lake Hills Golf Course,55321 Brush Lake Road,Eau Claire,MI,USA,49111,1733607364,1.31E+19,East + North,18,1
1.42E+17,Indian Lake Hills Golf Course,55321 Brush Lake Road,Eau Claire,MI,USA,49111,1733607364,2.11E+19,West + East,18,1
1.42E+17,Indian Lake Hills Golf Course,55321 Brush Lake Road,Eau Claire,MI,USA,49111,1733607364,2.21E+19,West + West,18,1
1.42E+17,Indian Lake Hills Golf Course,55321 Brush Lake Road,Eau Claire,MI,USA,49111,1733607364,2.31E+19,West + North,18,1
1.42E+17,Indian Lake Hills Golf Course,55321 Brush Lake Road,Eau Claire,MI,USA,49111,1733607364,3.11E+19,North + East,18,1
1.42E+17,Indian Lake Hills Golf Course,55321 Brush Lake Road,Eau Claire,MI,USA,49111,1733607364,3.21E+19,North + West,18,1
1.42E+17,Indian Lake Hills Golf Course,55321 Brush Lake Road,Eau Claire,MI,USA,49111,1733607364,3.31E+19,North + North,18,1
1.48E+15,Pipestone creek,6768 Naomi Rd,Eau Claire,MI,USA,49111,1727246782,1.21E+17,Pipestone creek,18,1
1.42E+17,Four Lakes Country Club,22786 US Hwy 12 E,Edwardsburg,MI,USA,49112,1689062293,1.21E+19,Four Lakes,18,1
1.42E+17,Elk Rapids Golf Club,724 Ames St,Elk Rapids,MI,USA,49629,1682494345,1.11E+19,Elk Rapids Golf Club,9,1
1.42E+17,Dunes Golf Club,6489 W Empire Hwy,Empire,MI,USA,49630,1688214380,1.21E+19,Dunes,18,1
1.42E+17,Escanaba Country Club,1800 10th Ave S,Escanaba,MI,USA,49829,1685543092,1.21E+19,Escanaba,18,1
1.47E+15,Woody's Run Golf Course,4004 18th Rd,Escanaba,MI,USA,49829,1618417199,1.11E+17,9-hole course,9,1
1.42E+17,Highland Golf Club,US Hwy 2 & 41,Escanaba,MI,USA,49829,1713022098,1.21E+19,Highland,18,1
1.42E+17,Copper Creek Golf Club at Farmington Hills,27925 Golf Pointe Blvd,Farmington Hills,MI,USA,48331,1683339595,1.11E+19,Copper Creek at Farmington Hills,9,1
1.42E+17,Glen Oaks Golf Course,30500 W 13 Mile Rd,Farmington Hills,MI,USA,48334,1692008097,1.21E+19,Glen Oaks,18,1
1.47E+15,Farmington Hills golf Club - Farmington Hills - MI,37777 Eleven mile court ,Farmington Hills ,Mi,USA,48331,1690342340,1.21E+17,Farmington Hills golf club,18,1
1.42E+17,Eagle Glen Golf Club,1251 Clubhouse Dr,Farwell,MI,USA,48622,1688546186,1.21E+19,Eagle Glen,18,1
1.42E+17,Coyote Preserve Golf Club,9218 Preserve Dr,Fenton,MI,USA,48430,1677315799,1.21E+19,Coyote Preserve,18,1
1.42E+17,Fenton Farms Golf Club,12312 S Torrey Rd,Fenton,MI,USA,48430,1688425936,1.21E+19,Fenton Farms,18,1
1.42E+17,Tyrone Hills Golf Course,8449 US Hwy 23,Fenton,MI,USA,48430,1618417180,1.21E+19,Tyrone Hills,18,0
1.42E+17,Pierce Park Golf Course ,2302 Brookside Dr,Flint,MI,USA,48503,1618417179,1.11E+19,Par 3,9,0
1.42E+17,Kearsley Lake Golf Course,4266 E Pierson Rd,Flint,MI,USA,48506,1713889434,1.21E+18,Kearsley Lake,18,1
1.42E+17,Flint Golf Club,3100 Lakewood Dr,Flint,MI,USA,48507,1695185958,1.21E+19,Flint,18,1
1.42E+17,Swartz Creek Golf Club,1902 Hammerberg Rd,Flint,MI,USA,48507,1618417179,1.21E+19,Eighteen,18,0
1.42E+17,Flushing Valley Country Club,1124 E Main St,Flushing,MI,USA,48433,1712949089,1.21E+19,Flushing Valley,18,1
1.42E+17,Port Huron Golf Club,4101 Fairway Dr,Fort Gratiot,MI,USA,48059,1733161998,1.21E+19,Port Huron,18,1
1.42E+17,The Fortress,950 Flint St,Frankenmuth,MI,USA,48734,1694464485,1.21E+14,18-hole course,18,1
1.42E+17,The Fortress,950 Flint St,Frankenmuth,MI,USA,48734,1694464777,1.21E+19,The Fortress,18,1
1.42E+17,Franklin Hills Country Club,31675 Inkster Rd,Franklin,MI,USA,48025,1689251560,1.21E+19,Franklin Hills,18,1
1.59E+14,Warfield Greens Golf Club,34255 Utica Road,Fraser,MI,USA,48026,1618417210,1.12E+16,9 Hole,9,0
1.28E+12,BAYOU GOLF CLUB,4600 N River Rd,Freeland,MI,USA,48623,1663401749,1.11E+14,BAYOU GOLF CLUB,9,1
1.42E+17,Beech Hollow Golf Course,7494 Hospital Rd,Freeland,MI,USA,48623,1660733874,1.21E+19,Beech Hollow,18,1
1.42E+17,Golf Club at Apple Mountain,4519 N River Rd,Freeland,MI,USA,48623,1692847813,1.21E+19,Apple Mountain,18,1
1.42E+17,Twin Oaks Golf Club,6710 W Freeland Rd,Freeland,MI,USA,48623,1618417203,1.21E+19,Front/Back,18,0
1.42E+17,Twin Oaks Golf Club,6710 W Freeland Rd,Freeland,MI,USA,48623,1618417203,1.11E+19,East Nine,9,0
1.42E+17,Briar Hill Golf Course,950 W 40th St,Fremont,MI,USA,49412,1618417178,1.21E+19,Briar Hill,18,0
1.42E+17,Northwood Golf Course,2888 S ComStock Ave,Fremont,MI,USA,49412,1618417209,1.22E+17,Northwood Seniors,18,0
1.42E+17,Northwood Golf Course,2888 S ComStock Ave,Fremont,MI,USA,49412,1723915346,1.21E+19,18-hole course,18,1
1.42E+17,Ramshorn Country Club,1100 Ramshorn Dr,Fremont,MI,USA,49412,1618417179,1.21E+19,Waters Edge,18,0
1.42E+17,George Young Recreation,Counry Rd 424 - 159 Youngs Ln,Gaastra,MI,USA,49935,1691652164,1.21E+19,George Young Recreation,18,1
1.42E+17,Hickory Ridge Golf Club,65 N 30th St,Galesburg,MI,USA,49053,1721641508,1.11E+19,Blue + Blue,18,1
1.42E+17,Hickory Ridge Golf Club,65 N 30th St,Galesburg,MI,USA,49053,1721641508,1.21E+19,Blue + White,18,1
1.42E+17,Hickory Ridge Golf Club,65 N 30th St,Galesburg,MI,USA,49053,1721641508,1.31E+19,Blue + Red,18,1
1.42E+17,Hickory Ridge Golf Club,65 N 30th St,Galesburg,MI,USA,49053,1721641508,2.11E+19,White + Blue,18,1
1.42E+17,Hickory Ridge Golf Club,65 N 30th St,Galesburg,MI,USA,49053,1721641508,2.21E+19,White + White,18,1
1.42E+17,Hickory Ridge Golf Club,65 N 30th St,Galesburg,MI,USA,49053,1721641508,2.31E+19,White + Red,18,1
1.42E+17,Hickory Ridge Golf Club,65 N 30th St,Galesburg,MI,USA,49053,1721641508,3.11E+19,Red + Blue,18,1
1.42E+17,Hickory Ridge Golf Club,65 N 30th St,Galesburg,MI,USA,49053,1721641508,3.21E+19,Red + White,18,1
1.42E+17,Hickory Ridge Golf Club,65 N 30th St,Galesburg,MI,USA,49053,1721641508,3.31E+19,Red + Red,18,1
1.42E+17,Green Trees Golf,262 N Townline Rd,Gaylord,MI,USA,49735,1687180851,1.21E+19,Green Trees,18,1
1.42E+17,Marsh Ridge Golf Club & Resort,4815 Old 27 S Rd,Gaylord,MI,USA,49735,1717090003,1.21E+19,Marsh Ridge,18,0
1.42E+17,Michawye Hills Golf Club,1535 Opal Lake Rd,Gaylord,MI,USA,49735,1705951712,1.21E+19,Michawye Hills,18,1
1.42E+17,Mountain Lake Golf Club,1233 Opal Lake Rd,Gaylord,MI,USA,49735,1618417179,1.21E+19,Lake Golf,18,0
1.42E+17,Mountain Lake Golf Club,1233 Opal Lake Rd,Gaylord,MI,USA,49735,1618417179,1.21E+19,Loon Golf,18,0
1.42E+17,Otsego Golf Club,696 M-32,Gaylord,MI,USA,49735,1727977127,1.21E+19,Tribute,18,1
1.42E+17,Otsego Golf Club,696 M-32,Gaylord,MI,USA,49735,1727975826,1.21E+19,Classic,18,1
1.42E+17,The Loon Golf Club ,4400 Championship Dr,Gaylord,MI,USA,49735,1678174754,1.22E+17,The Ridge ,18,0
1.42E+17,The Loon Golf Club ,4400 Championship Dr,Gaylord,MI,USA,49735,1618417180,1.21E+19,The Loon,18,0
1.42E+17,The Loon Golf Club ,4400 Championship Dr,Gaylord,MI,USA,49735,1678172996,1.21E+19,The Lake,18,0
1.42E+17,The Natural at Beaver Creek Resort,5004 W Otsego Lake Dr,Gaylord,MI,USA,49735,1618417180,1.21E+19,The Natural at Beaver Creek,18,0
1.42E+17,Treetops Resort ,3962 Wilkinson Rd,Gaylord,MI,USA,49735,1618417147,1.21E+17,tradition,18,0
1.42E+17,Treetops Resort ,3962 Wilkinson Rd,Gaylord,MI,USA,49735,1618417200,1.21E+19,Fazio Premier ,18,1
1.42E+17,Treetops Resort ,3962 Wilkinson Rd,Gaylord,MI,USA,49735,1618417200,1.21E+19,Jones Masterpiece ,18,0
1.42E+17,Treetops Resort ,3962 Wilkinson Rd,Gaylord,MI,USA,49735,1618417180,1.21E+19,Smith Signature ,18,0
1.42E+17,Treetops Resort ,3962 Wilkinson Rd,Gaylord,MI,USA,49735,1618417200,1.21E+19,The Tradition ,18,1
1.42E+17,Treetops Resort ,3962 Wilkinson Rd,Gaylord,MI,USA,49735,1618417200,1.11E+19,Threetops Par 3,9,0
1.42E+17,Black Forest at Wilderness Valley,6500 Nicklaus Dr,Gaylord,MI,USA,49735,1662475207,1.22E+17, WILDERNESS VALLEY,18,1
1.42E+17,Black Forest at Wilderness Valley,6500 Nicklaus Dr,Gaylord,MI,USA,49735,1662474486,1.21E+19,BLACK FOREST,18,1
1.42E+17,Gaylord Country Club,M 32 W,Gaylord,MI,USA,49735,1691999182,1.21E+19,Gaylord,18,1
1.42E+17,Terrace Bluff Golf Club,7527 Lake Bluff Rd,Gladstone,MI,USA,49655,1676450681,1.21E+19,18-hole course,18,0
1.42E+17,Gladstone Golf Course,6514 Days River 24 1/2 Rd,Gladstone,MI,USA,49837,1691844894,1.21E+19,Gladstone,18,1
1.42E+17,Gladwin Heights Golf Course,3551 W M 61,Gladwin,MI,USA,48624,1691845603,1.21E+19,Gladwin Heights,18,1
1.42E+17,Sugar Springs Golf Course,1930 W Sugar River Rd,Gladwin,MI,USA,48624,1618417179,1.21E+19,Sugar Springs,18,0
1.53E+14,Eagle Ridge Golf Club,3501 State Road,Glennie,MI,USA,48737,1688629074,1.22E+16,Eagle Ridge,18,1
1.42E+17,Shamrock Hills Golf Course,31071 County Rd 390,Gobles,MI,USA,49055,1618417179,1.21E+19,Shamrock Hills,18,0
1.52E+14,White oaks golf course,8480 Sparling Rd,Goodells,MI,USA,48027,1618417204,1.12E+16,White oaks golf course ,9,0
1.42E+17,Goodrich Country Club,10080 Hegel Rd,Goodrich,MI,USA,48438,1693838880,1.21E+14,18-hole course,18,1
1.42E+17,The Links at Bowen Lake,12990 Bradshaw Rd,Gowen,MI,USA,49326,1618417209,1.21E+19,Bowen Lake,18,0
1.42E+17,Captains Club at Woodfield,1000 Woodfield Dr,Grand Blanc,MI,USA,48439,1666967999,1.21E+19,Captains,18,1
1.42E+17,Flint Elks Country Club,7177 E Maple Ave,Grand Blanc,MI,USA,48439,1695185787,1.21E+14,Elks,18,1
1.42E+17,The Jewel of Grand Blanc,5270 Perry Rd,Grand Blanc,MI,USA,48439,1618417145,1.21E+14,Jewel,18,0
1.42E+17,The Jewel of Grand Blanc,5270 Perry Rd,Grand Blanc,MI,USA,48439,1618417179,1.21E+19,Diamond (North),18,0
1.42E+17,The Jewel of Grand Blanc,5270 Perry Rd,Grand Blanc,MI,USA,48439,1618417179,1.21E+19,Onyx (South),18,0
1.42E+17,Warwick Hills Golf & Country Club,G-9057 S Saginaw Rd,Grand Blanc,MI,USA,48439,1618417180,1.21E+19,Warwick Hills,18,0
1.42E+17,Evergreen Golf Course,10125 Osborn St,Grand Haven,MI,USA,49417,1685702800,1.21E+14,18-hole course,18,1
1.42E+17,Grand Haven Golf Club,17000 Lincoln St,Grand Haven,MI,USA,49417,1687246407,1.21E+19,Grand Haven,18,1
1.42E+17,Grand Ledge Country Club,5811 E Saint Joseph Hwy,Grand Ledge,MI,USA,48837,1693388162,1.21E+18,Grand Ledge,18,1
1.42E+17,Ledge Meadows Golf Course,1801 Grand Ledge Hwy,Grand Ledge,MI,USA,48837,1698059183,1.21E+19,Ledge Meadows,18,1
1.15E+12,Mines Golf Club,330 Covell Avenue Southwest,Grand Rapids,MI,USA,49504,1707580402,1.21E+14,18-hole course,18,1
1.42E+17,The Highlands,2715 Leonard St NW,Grand Rapids,MI,USA,49504,1618417179,1.21E+19,The Highlands,18,0
1.42E+17,Kent Country Club,1600 College Ave NE,Grand Rapids,MI,USA,49505,1696946319,1.21E+19,Kent,18,1
1.42E+17,Indian Trails Golf Course,2776 Kalamazoo Ave SE,Grand Rapids,MI,USA,49507,1696466652,1.21E+19,Indian Trails,18,1
1.42E+17,Golf Club at Thornapple Pointe,7211 48th St. SE,Grand Rapids,MI,USA,49512,1618417143,1.21E+14,18-hole course,18,0
1.42E+17,Grand Rapids Country Club,4300 Leonard St N,Grand Rapids,MI,USA,49525,1694080667,1.21E+19,Red + White,18,0
1.42E+17,Grand Rapids Country Club,4300 Leonard St N,Grand Rapids,MI,USA,49525,1694080590,1.11E+19,Blue,9,0
1.42E+17,Thousand Oaks Golf Club,4100 Thousand Oaks Dr,Grand Rapids,MI,USA,49525,1618417180,1.21E+19,Thousand Oaks,18,0
1.42E+17,Gracewil Country Club,2597 4 Mile Rd NW,Grand Rapids,MI,USA,49544,1693042680,1.21E+19,East,18,1
1.42E+17,Gracewil Country Club,2597 4 Mile Rd NW,Grand Rapids,MI,USA,49544,1687156527,1.21E+19,West,18,1
1.42E+17,Cascade Hills Country Club,3725 Cascade Rd SE,Grand Rapids,MI,USA,49546,1674209974,1.11E+19,East + East,18,1
1.42E+17,Cascade Hills Country Club,3725 Cascade Rd SE,Grand Rapids,MI,USA,49546,1674209974,1.21E+19,East + West,18,1
1.42E+17,Cascade Hills Country Club,3725 Cascade Rd SE,Grand Rapids,MI,USA,49546,1674209974,1.31E+19,East + South,18,1
1.42E+17,Cascade Hills Country Club,3725 Cascade Rd SE,Grand Rapids,MI,USA,49546,1674209974,2.11E+19,West + East,18,1
1.42E+17,Cascade Hills Country Club,3725 Cascade Rd SE,Grand Rapids,MI,USA,49546,1674209974,2.21E+19,West + West,18,1
1.42E+17,Cascade Hills Country Club,3725 Cascade Rd SE,Grand Rapids,MI,USA,49546,1674209974,2.31E+19,West + South,18,1
1.42E+17,Cascade Hills Country Club,3725 Cascade Rd SE,Grand Rapids,MI,USA,49546,1674209974,3.11E+19,South + East,18,1
1.42E+17,Cascade Hills Country Club,3725 Cascade Rd SE,Grand Rapids,MI,USA,49546,1674209974,3.21E+19,South + West,18,1
1.42E+17,Cascade Hills Country Club,3725 Cascade Rd SE,Grand Rapids,MI,USA,49546,1674209974,3.31E+19,South + South,18,1
1.42E+17,Watermark Country Club,1600 Galbraith Ave SE,Grand Rapids,MI,USA,49546,1618417180,1.21E+19,Watermark,18,0
1.15E+12,Maple Hill Golf,5555 Ivanrest Avenue Southwest,Grandville,MI,USA,49418,1704605792,1.21E+14,18-hole course,18,1
1.42E+17,Maple Hill Golf Course,5555 Ivanrest Ave SW,Grandville,MI,USA,49418,1677484512,1.21E+19,Maple Hill,18,0
1.42E+17,Sunnybrook Country Club,624 Port Sheldon Rd SW,Grandville,MI,USA,49418,1618417179,1.21E+19,Sunnybrook,18,0
1.42E+17,Brigadoon Golf Club,12559 Bagley Ave,Grant,MI,USA,49327,1618417178,1.21E+19,Blue/Yellow,18,0
1.42E+17,Brigadoon Golf Club,12559 Bagley Ave,Grant,MI,USA,49327,1618417178,1.21E+19,Red/Blue,18,0
1.42E+17,Brigadoon Golf Club,12559 Bagley Ave,Grant,MI,USA,49327,1618417178,1.21E+19,Red/Gold,18,0
1.42E+17,Calderone Golf Club,4490 WIllis Rd,Grass Lake,MI,USA,49240,1666183039,1.21E+19,Calderone,18,1
1.42E+17,Waterloo Golf Course,11800 Trist Rd,Grass Lake,MI,USA,49240,1618417180,1.21E+19,Waterloo,18,0
1.42E+17,Grayling Country Club,100 Charles St,Grayling,MI,USA,49738,1693593679,1.21E+19,Grayling,18,1
1.42E+17,Fox Run Country Club,5825 W 4 Mile Rd,Grayling,MI,USA,49756,1682956388,1.21E+19,Fox Run,18,1
1.42E+17,GlenKerry Golf Course,1413 E Kent,Greenville,MI,USA,48838,1685969744,1.21E+19,18-hole course,18,1
1.42E+17,Grosse Ile Golf & Country Club,9339 Bellevue Rd,Grosse Ile,MI,USA,48138,1687610394,1.21E+19,Grosse Ile,18,1
1.31E+12,West Shore Golf & Country Club,22843 West River Road,Grosse Ile Township,MI,USA,48138,1618417142,1.21E+14,West Shore C.C.,18,0
1.42E+17,Country Club of Detroit,220 Country Club Dr,Grosse Pointe Farms,MI,USA,48236,1677560220,1.12E+17,Par 3,9,1
1.42E+17,Country Club of Detroit,220 Country Club Dr,Grosse Pointe Farms,MI,USA,48236,1679578916,1.21E+18,Regulation,18,1
1.42E+17,Lochmoor Country Club,1018 Sunningdale Dr,Grosse Pointe Woods,MI,USA,48236,1701581581,1.21E+19,Lochmoor,18,1
1.42E+17,Red Fox Run Golf Course,217 5th St,Gwinn,MI,USA,49841,1618417179,1.21E+19,Red Fox Run,18,0
1.42E+17,Hadley Acres Golf Club,3797 S Hadley Rd,Hadley,MI,USA,48462,1687942067,1.21E+19,Hadley Acres,18,1
1.72E+15,Wicker Hills Golf Course,7287 Wickert Rd,Hale,MI,USA,48739,1724354824,1.22E+17,18-hole course,18,1
1.44E+15,Diamond Springs Golf Course,3400 34th Street,Hamilton,MI,USA,49419,1681206139,1.21E+17,Diamond Springs Golf Course,18,1
1.42E+17,Birchwood Farms Golf & Country Club,600 Birchwood Dr,Harbor Springs,MI,USA,49740,1662113453,1.11E+19,Briches + Briches,18,1
1.42E+17,Birchwood Farms Golf & Country Club,600 Birchwood Dr,Harbor Springs,MI,USA,49740,1662113453,1.21E+19,Briches + Woods,18,1
1.42E+17,Birchwood Farms Golf & Country Club,600 Birchwood Dr,Harbor Springs,MI,USA,49740,1662113453,1.31E+19,Briches + Farms,18,1
1.42E+17,Birchwood Farms Golf & Country Club,600 Birchwood Dr,Harbor Springs,MI,USA,49740,1662113453,2.11E+19,Woods + Briches,18,1
1.42E+17,Birchwood Farms Golf & Country Club,600 Birchwood Dr,Harbor Springs,MI,USA,49740,1662113453,2.21E+19,Woods + Woods,18,1
1.42E+17,Birchwood Farms Golf & Country Club,600 Birchwood Dr,Harbor Springs,MI,USA,49740,1662113453,2.31E+19,Woods + Farms,18,1
1.42E+17,Birchwood Farms Golf & Country Club,600 Birchwood Dr,Harbor Springs,MI,USA,49740,1662113453,3.11E+19,Farms + Briches,18,1
1.42E+17,Birchwood Farms Golf & Country Club,600 Birchwood Dr,Harbor Springs,MI,USA,49740,1662113453,3.21E+19,Farms + Woods,18,1
1.42E+17,Birchwood Farms Golf & Country Club,600 Birchwood Dr,Harbor Springs,MI,USA,49740,1662113453,3.31E+19,Farms + Farms,18,1
1.42E+17,Boyne Highlands Resort ,600 Highlands Dr,Harbor Springs,MI,USA,49740,1667207806,1.21E+14,Donald Ross,18,1
1.42E+17,Boyne Highlands Resort ,600 Highlands Dr,Harbor Springs,MI,USA,49740,1663850880,1.21E+19,The Heather,18,1
1.42E+17,Boyne Highlands Resort ,600 Highlands Dr,Harbor Springs,MI,USA,49740,1663850062,1.21E+19,The Moor,18,1
1.42E+17,Boyne Highlands Resort ,600 Highlands Dr,Harbor Springs,MI,USA,49740,1667206929,1.21E+19,Arthur Hills,18,1
1.42E+17,Chestnut Valley Golf Course,1875 Clubhouse Dr,Harbor Springs,MI,USA,49740,1669886794,1.21E+19,18-hole course,18,1
1.42E+17,Harbor Point Golf Club,Lakeshore Dr,Harbor Springs,MI,USA,49740,1689067422,1.21E+19,Harbor Point,18,1
1.72E+15,True North Golf Club,2500 True North Dr.,Harbor Springs,MI,USA,49740,1720449315,1.22E+17,18-hole course,18,0
1.42E+17,Wequetonsing Golf Club,5543 M-119,Harbor Springs,MI,USA,49740,1618417180,1.21E+19,Wequetonsing,18,0
1.60E+15,Sweetgrass Golf Club,W399 Hwy 2,Harris,MI,USA,49845,1618417211,1.22E+17,18-hole course,18,1
1.42E+17,Snow Snake Ski & Golf,3407 E Mansiding Rd,Harrison,MI,USA,48625,1618417179,1.21E+19,Snow Snake,18,0
1.42E+17,The Tamaracks Golf Course,8900 N Clare Ave,Harrison,MI,USA,48625,1618417180,1.21E+18,The Tamaracks,18,0
1.42E+17,Selfridge Golf Course,Bldg 599 Selfridge ANG Base,Harrison Township,MI,USA,48625,1618417135,1.21E+14,18-hole course,18,0
1.42E+17,Selfridge Golf Course,Bldg 599 Selfridge ANG Base,Harrison Township,MI,USA,48625,1618417137,1.21E+14,Selfridge Golf Course,18,0
1.42E+17,Selfridge Golf Course,Bldg 599 Selfridge ANG Base,Harrison Township,MI,USA,48625,1618417179,1.21E+19,Selfridge,18,0
1.42E+17,Loggers Trace at Springport Hills,5184 E Springport Rd,Harrisville,MI,USA,48740,1701749227,1.21E+19,Loggers Trace,18,1
1.42E+17,Loggers Trace at Springport Hills,5184 E Springport Rd,Harrisville,MI,USA,48740,1701750364,1.11E+19,Springport Hills,9,1
1.42E+17,The Colonial Golf Course,2763 N 72nd Ave,Hart,MI,USA,49420,1618417179,1.21E+19,The Colonial,18,0
1.42E+17,Dunham Hills Golf Club,13561 Dunham Rd,Hartland,MI,USA,48353,1688216621,1.21E+14,18-hole course,18,1
1.42E+17,Hartland Glen Golf Course,12400 Highland Road,Hartland,MI,USA,48353,1718175845,1.21E+19,North,18,1
1.42E+17,Hartland Glen Golf Course,12400 Highland Road,Hartland,MI,USA,48353,1718178174,1.21E+19,South,18,1
1.42E+17,The Majestic at Lake Walden,9600 Crouse Road,Hartland,MI,USA,48855,1733175721,1.11E+19,1-9 + 1-9,18,0
1.42E+17,The Majestic at Lake Walden,9600 Crouse Road,Hartland,MI,USA,48855,1733175721,1.21E+19,1-9 + 10-18,18,0
1.42E+17,The Majestic at Lake Walden,9600 Crouse Road,Hartland,MI,USA,48855,1733175721,1.31E+19,1-9 + 19-27,18,0
1.42E+17,The Majestic at Lake Walden,9600 Crouse Road,Hartland,MI,USA,48855,1733175721,2.11E+19,10-18 + 1-9,18,0
1.42E+17,The Majestic at Lake Walden,9600 Crouse Road,Hartland,MI,USA,48855,1733175721,2.21E+19,10-18 + 10-18,18,0
1.42E+17,The Majestic at Lake Walden,9600 Crouse Road,Hartland,MI,USA,48855,1733175721,2.31E+19,10-18 + 19-27,18,0
1.42E+17,The Majestic at Lake Walden,9600 Crouse Road,Hartland,MI,USA,48855,1733175721,3.11E+19,19-27 + 1-9,18,0
1.42E+17,The Majestic at Lake Walden,9600 Crouse Road,Hartland,MI,USA,48855,1733175721,3.21E+19,19-27 + 10-18,18,0
1.42E+17,The Majestic at Lake Walden,9600 Crouse Road,Hartland,MI,USA,48855,1733175721,3.31E+19,19-27 + 19-27,18,0
1.42E+17,Meridian Sun Golf Club,1018 Haslett Rd,Haslett,MI,USA,48840,1729447176,1.21E+17,18-hole course,18,0
1.42E+17,Hastings Country Club,1550 N Broadway St,Hastings,MI,USA,49058,1728574458,1.21E+19,18-hole course,18,1
1.42E+17,Spring Valley Golf Course,18396 W US 10,Hersey,MI,USA,49639,1618417179,1.11E+19,Spring Valley,9,0
1.42E+17,Hessel Ridge Golf Course,2061 N. Three Mile Rd.,Hessel,MI,USA,49745,1706479464,1.21E+19,18-hole course,18,1
1.42E+17,Highland Hills Golf Club,2075 Oakland Dr,Highland,MI,USA,48356,1713024043,1.21E+19,Highland Hills,18,1
1.42E+17,Prestwick Village Golf Club,136 Inverness,Highland,MI,USA,48357,1734614521,1.21E+19,Prestwick Village,18,1
1.42E+17,Thunder Bay Golf Resort,27800 M 32 E,Hillman,MI,USA,49746,1618417180,1.21E+18,Thunder Bay,18,0
1.44E+15,The Links at Rolling Meadows,380 W 48th street ,Holland,MI,USA,49423,1618417197,1.11E+17,The Links at Rolling Meadows,9,0
1.42E+17,Winding Creek Golf Club,4514 E Ottogan St,Holland,MI,USA,49423,1618417180,1.21E+19,Blue/Gold,18,0
1.42E+17,Winding Creek Golf Club,4514 E Ottogan St,Holland,MI,USA,49423,1618417180,1.21E+19,Gold/White,18,0
1.42E+17,Winding Creek Golf Club,4514 E Ottogan St,Holland,MI,USA,49423,1724186061,1.21E+19,White/Blue,18,1
1.47E+15,Macatawa Golf Club,4600 Macatawa Legends Boulevard,Holland,MI,USA,49424,1703391139,1.21E+17,18-hole course,18,1
1.56E+15,Three Fires Golf Club,6045 136th Avenue,Holland,MI,USA,49424,1618417208,1.22E+17,Blue Red Course,18,0
1.56E+15,Three Fires Golf Club,6045 136th Avenue,Holland,MI,USA,49424,1618417208,1.22E+17,Blue White,18,0
1.56E+15,Three Fires Golf Club,6045 136th Avenue,Holland,MI,USA,49424,1618417208,1.22E+17,Red White,18,0
1.42E+17,Bramblewood Golf Course,2154 Bramblewood Dr,Holly,MI,USA,48442,1663988838,1.21E+19,Bramblewood,18,0
1.42E+17,Heather Highlands Golf Club,11450 E Holly Rd,Holly,MI,USA,48442,1728915558,1.21E+19,Championship,18,1
1.42E+17,Heather Highlands Golf Club,11450 E Holly Rd,Holly,MI,USA,48442,1688477570,1.11E+19,Executive,9,0
1.42E+17,Michigan Tech University Golf Club,46789 US 41,Houghton,MI,USA,49931,1706026687,1.21E+19,Piligram/Portage,18,1
1.42E+17,Portage Lake Golf Club,46789 US 41,Houghton,MI,USA,49931,1733246230,1.21E+19,Portage Lake,18,1
1.42E+17,Pine View Highlands Golf Club,4761 Houghton Lake Dr,Houghton Lake,MI,USA,48629,1726692770,1.21E+19,18-hole course,18,1
1.42E+17,The Quest at Houghton Lake,116 Quest View Dr,Houghton Lake,MI,USA,48629,1618417180,1.21E+19,The Quest at Houghton Lake,18,0
1.42E+17,Chemung Hills Country Club,3125 Golf Club Rd,Howell,MI,USA,48843,1669459789,1.21E+14,18-hole course,18,1
1.42E+17,Faulkwood Shores Golf Course,300 S Hughes Rd,Howell,MI,USA,48843,1690344241,1.21E+18,Faulkwood Shores,18,1
1.42E+17,Ironwood Golf Club,6902 Highland Rd,Howell,MI,USA,48843,1730297711,1.21E+19,Ironwood,18,1
1.42E+17,Hawk Meadows at Dama Farms,410 E Marr Rd,Howell,MI,USA,48855,1689413743,1.21E+19,Hawk Meadows at Dama Farms,18,1
1.42E+17,Hunters Ridge Golf Course,8101 Byron Rd,Howell,MI,USA,48855,1712309700,1.21E+19,Hunters Ridge,18,1
1.42E+17,Gleneagle Golf Club,6150 14th Ave,Hudsonville,MI,USA,49426,1685794432,1.21E+19,18-hole course,18,1
1.26E+12,Rackham Golf Course,10100 W. 10 Mile Road,Huntington Woods,Mi,USA,48070,1618417145,1.21E+14,18-hole course,18,1
1.26E+12,Rackham Golf Course,10100 W. 10 Mile Road,Huntington Woods,Mi,USA,48070,1618417145,1.21E+16,Rackham,18,0
1.42E+17,Indian River Golf Club,3301 Cippewa Beach Rd,Indian River,MI,USA,49749,1713872659,1.21E+19,Indian River,18,1
1.42E+17,Inkster Valley Golf Club,2150 Middlebelt Rd,Inkster,MI,USA,48141,1697171898,1.21E+19,Inkster Valley,18,1
1.42E+17,Interlochen Golf Club,10586 US Hwy 31 S,Interlochen,MI,USA,49643,1697264988,1.21E+19,Interlochen,18,1
1.42E+17,Rolling Hills Golf Course - Ionia,1431 Kelsey Highway,Ionia,MI,USA,48846,1618417179,1.11E+19,Rolling Hills Estates,9,0
1.42E+17,Pine Grove Country Club,1520 Hughitt St,Iron Mountain,MI,USA,49801,1725376819,1.21E+19,Pine Grove,18,1
1.42E+17,TimberStone Golf Course,1 TimberStone Dr,Iron Mountain,MI,USA,49801,1618417180,1.21E+19,TimberStone,18,1
1.42E+17,Gogebic Country Club,200 Country Club Rd,Ironwood,MI,USA,49938,1692345341,1.21E+19,Gogebic,18,1
1.42E+17,Gratiot Country Club,1508 N State Rd,Ithaca,MI,USA,48847,1687626465,1.21E+19,The Fields,18,1
1.42E+17,North Star Golf & Country Club,4550 S Bagley Rd,Ithaca,MI,USA,48847,1707372988,1.21E+19,North Star,18,1
1.26E+12,North Star Golf Course,4550 South Bagley Road,Ithaca,MI,USA,48847,1735285363,1.21E+14,North Star Golf Course,18,1
1.42E+17,Arbor Hills Country Club,1426 Arbor Hills Rd,Jackson,MI,USA,49201,1677748430,1.21E+14,18-hole course,18,1
1.42E+17,Hickory Hills Golf Club,2537 Parview Drive,Jackson,MI,USA,49201,1721395645,1.11E+18,Blue,9,1
1.42E+17,Hickory Hills Golf Club,2537 Parview Drive,Jackson,MI,USA,49201,1676865931,1.21E+19,Blue/Maize,18,0
1.42E+17,Hickory Hills Golf Club,2537 Parview Drive,Jackson,MI,USA,49201,1618417179,1.21E+19,Green/White,18,0
1.42E+17,Hickory Hills Golf Club,2537 Parview Drive,Jackson,MI,USA,49201,1721637569,1.11E+19,Maize,9,1
1.42E+17,Hickory Hills Golf Club,2537 Parview Drive,Jackson,MI,USA,49201,1721636681,1.11E+19,Green,9,1
1.42E+17,Hickory Hills Golf Club,2537 Parview Drive,Jackson,MI,USA,49201,1721637459,1.11E+19,White,9,1
1.42E+17,Lakeland Hills Golf Course,5119 Page Ave,Jackson,MI,USA,49201,1716391633,1.21E+18,Lakeland Hills,18,1
1.42E+17,Pine Hollow Golf Club,5400 Trailer Park Dr,Jackson,MI,USA,49201,1725570954,1.21E+18,Pine Hollow,18,1
1.42E+17,The Grande Golf Club,1579 Floyd Ave,Jackson,MI,USA,49201,1618417179,1.21E+19,The Grande,18,0
1.42E+17,Cascades Golf Club,1992 Warren Ave,Jackson,MI,USA,49203,1667569011,1.21E+14,18-hole course,18,1
1.42E+17,Country Club of Jackson,3135 Horton Rd,Jackson,MI,USA,49203,1681822021,1.11E+19,Marsh + Marsh,18,1
1.42E+17,Country Club of Jackson,3135 Horton Rd,Jackson,MI,USA,49203,1681822021,1.21E+19,Marsh + Pines,18,1
1.42E+17,Country Club of Jackson,3135 Horton Rd,Jackson,MI,USA,49203,1681822021,1.31E+19,Marsh + Woods,18,1
1.42E+17,Country Club of Jackson,3135 Horton Rd,Jackson,MI,USA,49203,1681822021,2.11E+19,Pines + Marsh,18,1
1.42E+17,Country Club of Jackson,3135 Horton Rd,Jackson,MI,USA,49203,1681822021,2.21E+19,Pines + Pines,18,1
1.42E+17,Country Club of Jackson,3135 Horton Rd,Jackson,MI,USA,49203,1681822021,2.31E+19,Pines + Woods,18,1
1.42E+17,Country Club of Jackson,3135 Horton Rd,Jackson,MI,USA,49203,1681822021,3.11E+19,Woods + Marsh,18,1
1.42E+17,Country Club of Jackson,3135 Horton Rd,Jackson,MI,USA,49203,1681822021,3.21E+19,Woods + Pines,18,1
1.42E+17,Country Club of Jackson,3135 Horton Rd,Jackson,MI,USA,49203,1681822021,3.31E+19,Woods + Woods,18,1
1.42E+17,Sharp Park Golf Course,2800 4th St,Jackson,MI,USA,49203,1618417179,1.21E+19,Sharp Park,18,0
1.42E+17,Wallinwood Springs Golf Club,8152 Weather Wax Dr,Jenison,MI,USA,49428,1618417180,1.21E+19,Wallinwood Springs,18,0
1.47E+15,Lake Leann Golf Course,10339 Fairway Drive,Jerome,MI,USA,49249,1723196812,1.11E+17,9-hole course,9,1
1.42E+17,Milham Park Municipal Golf Club,4200 Lovers Ln,Kalamazoo,MI,USA,49001,1706543045,1.21E+19,Milham Park Municipal,18,1
1.42E+17,Red Arrow Golf Course,1041 King Highway,Kalamazoo,MI,USA,49001,1618417180,1.11E+19,Red Arrow,9,0
1.42E+17,Eastern Hills Golf Club,6075 E G Ave,Kalamazoo,MI,USA,49004,1681794483,1.11E+18,9-Hole,9,1
1.42E+17,Eastern Hills Golf Club,6075 E G Ave,Kalamazoo,MI,USA,49004,1681794414,1.21E+19,18-Hole,18,1
1.42E+17,Kalamazoo Country Club,1609 Whites Rd,Kalamazoo,MI,USA,49008,1696511781,1.21E+19,Kalamazoo,18,1
1.42E+17,Kalamazoo Country Club,1609 Whites Rd,Kalamazoo,MI,USA,49008,1618417179,1.11E+19,Executive Short,9,0
1.72E+15,Crestview Golf Club,900 D Avenue West,Kalamazoo,MI,USA,49009,1720080414,1.22E+17,18-hole course,18,1
1.42E+17,Prairies Golf Club,5303 W Main St,Kalamazoo,MI,USA,49009,1734111888,1.21E+19,The Prairies,18,1
1.42E+17,Ridge View Golf Course,10360 W Main St,Kalamazoo,MI,USA,49009,1618417179,1.21E+19,Ridge View,18,0
1.56E+15,Ridgeview Golf Course,10360 West Main Street,Kalamazoo,MI,USA,49009,1618417208,1.22E+17,Ridgeview Golf Course,18,0
1.42E+17,Thornapple Creek Golf Club,6415 W F Ave,Kalamazoo,MI,USA,49009,1618417144,1.21E+17,Thornapple Creek,18,1
1.42E+17,Grandview Golf Club,3003 Hagni Rd,Kalkaska,MI,USA,49646,1693392646,1.21E+19,Grandview,18,1
1.42E+17,Twin Birch Golf Club,1030 Hwy 612,Kalkaska,MI,USA,49646,1618417180,1.21E+19,Twin Birch,18,0
1.42E+17,Timber Wolf Golf Club,5646 M-72 SE,Kalkaska,MI,USA,49738,1618417180,1.21E+19,Timber Wolf,18,0
1.42E+17,Spring Valley Golf Course,2635 E Beaver Rd,Kawkawlin,MI,USA,48631,1618417179,1.21E+19,Beeches,18,0
1.44E+15,The Falls at Barber Creek,16030 Barber Creek,Kent City,MI,USA,49330,1618417208,1.21E+17,The Falls of Barber Creek,18,0
1.34E+15,A-Ga-Ming Golf Resort,627 Ag A Ming Drive,Kewadin,MI,USA,49648,1656849946,1.21E+17,Torch,18,1
1.34E+15,A-Ga-Ming Golf Resort,627 Ag A Ming Drive,Kewadin,MI,USA,49648,1644951777,1.21E+17,Sundance,18,1
1.34E+15,A-Ga-Ming Golf Resort,627 Ag A Ming Drive,Kewadin,MI,USA,49648,1640769541,1.21E+19,Antrim Dells,18,1
1.42E+17,Solitude Links Golf,5810 Flinchbaugh Rd,Kimball,MI,USA,48074,1618417141,1.21E+14,Fore Lakes GC,18,1
1.42E+17,Solitude Links Golf,5810 Flinchbaugh Rd,Kimball,MI,USA,48074,1631668646,1.22E+17,18-hole course,18,0
1.42E+17,Kincheloe Memorial Public Golf Club,50 Woodside Dr,Kincheloe,MI,USA,49788,1713983555,1.21E+19,The Oaks,18,1
1.46E+15,Kingsley Club,600 Niblick Trail,Kingsley,MI,USA,49649,1714069012,1.21E+17,18-hole course,18,1
1.42E+17,Pine Hills Golf Course,6603 N Woodbury Rd,Laingsburg,MI,USA,48848,1725551601,1.21E+19,Pine Hills,18,1
1.42E+17,Mistwood Golf Club,7568 Sweet Lake Rd,Lake Ann,MI,USA,49650,1732094744,1.11E+19,Blue + Blue,18,1
1.42E+17,Mistwood Golf Club,7568 Sweet Lake Rd,Lake Ann,MI,USA,49650,1732094744,1.21E+19,Blue + Red,18,1
1.42E+17,Mistwood Golf Club,7568 Sweet Lake Rd,Lake Ann,MI,USA,49650,1732094744,1.31E+19,Blue + White,18,1
1.42E+17,Mistwood Golf Club,7568 Sweet Lake Rd,Lake Ann,MI,USA,49650,1732094744,2.11E+19,Red + Blue,18,1
1.42E+17,Mistwood Golf Club,7568 Sweet Lake Rd,Lake Ann,MI,USA,49650,1732094744,2.21E+19,Red + Red,18,1
1.42E+17,Mistwood Golf Club,7568 Sweet Lake Rd,Lake Ann,MI,USA,49650,1732094744,2.31E+19,Red + White,18,1
1.42E+17,Mistwood Golf Club,7568 Sweet Lake Rd,Lake Ann,MI,USA,49650,1732094744,3.11E+19,White + Blue,18,1
1.42E+17,Mistwood Golf Club,7568 Sweet Lake Rd,Lake Ann,MI,USA,49650,1732094744,3.21E+19,White + Red,18,1
1.42E+17,Mistwood Golf Club,7568 Sweet Lake Rd,Lake Ann,MI,USA,49650,1732094744,3.31E+19,White + White,18,1
1.42E+17,Mistwood Golf Club,7568 Sweet Lake Rd,Lake Ann,MI,USA,49650,1618417179,1.11E+19,Little Nine,9,0
1.42E+17,Missaukee Golf Course,5300 S Morey Rd,Lake City,MI,USA,49651,1709236236,1.21E+19,Missaukee,18,1
1.42E+17,The Pines at Lake Isabella,1022 Clubhouse Dr,"Lake Isabella, Michigan",MI,USA,48893,1618417208,1.21E+19,The Pines,18,0
1.42E+17,Bald Mountain Golf Club,3350 Kern Rd,Lake Orion,MI,USA,48360,1660906465,1.11E+17,9-hole course,9,0
1.42E+17,Bald Mountain Golf Club,3350 Kern Rd,Lake Orion,MI,USA,48360,1618417178,1.21E+19,Championship,18,0
1.42E+17,Indianwood G & Country Club,1081 Indianwood Rd,Lake Orion,MI,USA,48362,1696577232,1.21E+19,New,18,1
1.42E+17,Indianwood G & Country Club,1081 Indianwood Rd,Lake Orion,MI,USA,48362,1730124576,1.21E+19,Old,18,1
1.42E+17,Paint Creek Country Club,2375 Stanton Rd,Lake Orion,MI,USA,48362,1728588394,1.21E+19,Paint Creek,18,1
1.42E+17,Chickaming Country Club,15029 Lakeside Rd,Lakeside,MI,USA,49116,1669953522,1.21E+19,Chickaming,18,1
1.42E+17,Maple Grove Golf Club,6360 Secor Rd,Lambertville,MI,USA,48144,1618417137,1.21E+14,18-hole course,18,0
1.42E+17,Maple Grove Golf Club,6360 Secor Rd,Lambertville,MI,USA,48144,1722878582,1.21E+19,Regulation,18,1
1.42E+17,Maple Grove Golf Club,6360 Secor Rd,Lambertville,MI,USA,48144,1722877670,1.11E+19,Executive 9 Hole,9,1
1.42E+17,Groesbeck Golf Course,1600 Ormond St,Lansing,MI,USA,48906,1687600249,1.21E+19,Groesbeck,18,1
1.42E+17,Royal Scot Golf Club ,4722 W Grand River Ave,Lansing,MI,USA,48906,1618417179,1.21E+19,1~9/10~18,18,0
1.42E+17,Royal Scot Golf Club ,4722 W Grand River Ave,Lansing,MI,USA,48906,1618417179,1.11E+19,19~27,9,0
1.69E+15,Woodside Golf Course,14400 Wood Road,Lansing,MI,USA,48906,1723666132,1.12E+17,9-hole course,9,1
1.42E+17,Chisholm Hills Golf Club,2395 S Washington Rd,Lansing,MI,USA,48911,1670559421,1.21E+19,Chisholm Hills,18,1
1.42E+17,Country Club of Lansing,2200 Moores River Dr,Lansing,MI,USA,48911,1676631224,1.21E+19,Lansing,18,1
1.42E+17,Lapeer Country Club,3786 Hunt Rd,Lapeer,MI,USA,48446,1728819491,1.21E+19,18-hole course,18,1
1.42E+17,Rolling Hills Golf Course,3274 Davison Rd,Lapeer,MI,USA,48446,1618417179,1.21E+19,Rolling Hills,18,0
1.42E+17,Leland Country Club,184 N 5th St,Leland,MI,USA,49654,1698374127,1.21E+19,Leland,18,1
1.42E+17,The Rose Golf Course,61264 18 Mile Rd,Leroy,MI,USA,49655,1618417180,1.21E+18,The Rose,18,0
1.42E+17,Garland Resort ,4700 N Red Oak Rd,Lewiston,MI,USA,49756,1691149906,1.21E+19,Fountains ,18,1
1.42E+17,Garland Resort ,4700 N Red Oak Rd,Lewiston,MI,USA,49756,1684753418,1.21E+19,Reflections,18,1
1.42E+17,Garland Resort ,4700 N Red Oak Rd,Lewiston,MI,USA,49756,1684754895,1.21E+19,Swampfire ,18,1
1.42E+17,Garland Resort ,4700 N Red Oak Rd,Lewiston,MI,USA,49756,1691150439,1.21E+19,Monarch ,18,1
1.42E+17,Lakeview Hills Golf Club,6560 Peck Rd,Lexington,MI,USA,48450,1706542066,1.21E+19,North,18,1
1.42E+17,Lakeview Hills Golf Club,6560 Peck Rd,Lexington,MI,USA,48450,1716576957,1.21E+19,South,18,1
1.42E+17,Lost Lake Woods Club,2855 Fox Rd,Lincoln,MI,USA,48742,1732024746,1.21E+19,Lost Lake Woods,18,1
1.42E+17,Spring Meadows Country Club,1129 Ripley Rd,Linden,MI,USA,48451,1618417179,1.21E+19,Spring Meadows,18,0
1.42E+17,Maple Leaf Golf Course,158 North Mackinaw Road,Linwood,MI,USA,48634,1733176104,1.11E+19,East + East,18,0
1.42E+17,Maple Leaf Golf Course,158 North Mackinaw Road,Linwood,MI,USA,48634,1733176104,1.21E+19,East + North,18,0
1.42E+17,Maple Leaf Golf Course,158 North Mackinaw Road,Linwood,MI,USA,48634,1733176104,1.31E+19,East + West,18,0
1.42E+17,Maple Leaf Golf Course,158 North Mackinaw Road,Linwood,MI,USA,48634,1733176104,2.11E+19,North + East,18,0
1.42E+17,Maple Leaf Golf Course,158 North Mackinaw Road,Linwood,MI,USA,48634,1733176104,2.21E+19,North + North,18,0
1.42E+17,Maple Leaf Golf Course,158 North Mackinaw Road,Linwood,MI,USA,48634,1733176104,2.31E+19,North + West,18,0
1.42E+17,Maple Leaf Golf Course,158 North Mackinaw Road,Linwood,MI,USA,48634,1733176104,3.11E+19,West + East,18,0
1.42E+17,Maple Leaf Golf Course,158 North Mackinaw Road,Linwood,MI,USA,48634,1733176104,3.21E+19,West + North,18,0
1.42E+17,Maple Leaf Golf Course,158 North Mackinaw Road,Linwood,MI,USA,48634,1733176104,3.31E+19,West + West,18,0
1.42E+17,Fox Creek Golf Course,36000 Seven Mile Rd,Livonia,MI,USA,48152,1618417138,1.21E+14,Fox Creek,18,1
1.19E+12,Whispering Willows,20500 Newburgh Rd,Livonia,MI,USA,48152,1733050061,1.21E+14,18-hole course,18,1
1.42E+17,Idyl Wyld Municipal Golf Club,35780 Five Mile Rd,Livonia,MI,USA,48154,1733607281,1.21E+19,Idyl Wyld Municipal,18,1
1.42E+17,Arrowhead Golf Course,2170 Alden Nash NE,Lowell,MI,USA,49331,1662011687,1.21E+19,Arrowhead,18,1
1.42E+17,Deer Run Golf Course,13955 Cascade SE,Lowell,MI,USA,49331,1685098707,1.21E+19,Deer Run,18,1
1.42E+17,Hemlock Golf Club,5105 W Decker Rd,Ludington,MI,USA,49431,1704707716,1.21E+19,Hemlock,18,1
1.42E+17,Lakeside Links,5369 West Chauvez Road,Ludington,MI,USA,49431,1725099802,1.11E+19,South + South,18,1
1.42E+17,Lakeside Links,5369 West Chauvez Road,Ludington,MI,USA,49431,1725099802,1.21E+19,South + East,18,1
1.42E+17,Lakeside Links,5369 West Chauvez Road,Ludington,MI,USA,49431,1725099802,1.31E+19,South + West,18,1
1.42E+17,Lakeside Links,5369 West Chauvez Road,Ludington,MI,USA,49431,1725099802,2.11E+19,East + South,18,1
1.42E+17,Lakeside Links,5369 West Chauvez Road,Ludington,MI,USA,49431,1725099802,2.21E+19,East + East,18,1
1.42E+17,Lakeside Links,5369 West Chauvez Road,Ludington,MI,USA,49431,1725099802,2.31E+19,East + West,18,1
1.42E+17,Lakeside Links,5369 West Chauvez Road,Ludington,MI,USA,49431,1725099802,3.11E+19,West + South,18,1
1.42E+17,Lakeside Links,5369 West Chauvez Road,Ludington,MI,USA,49431,1725099802,3.21E+19,West + East,18,1
1.42E+17,Lakeside Links,5369 West Chauvez Road,Ludington,MI,USA,49431,1725099802,3.31E+19,West + West,18,1
1.42E+17,Lincoln Hills Golf Club,1527 N Lakeshore Dr,Ludington,MI,USA,49431,1731141724,1.21E+19,Lincoln Hills,18,1
1.42E+17,Castle Creek Golf Club,5191 Lum Rd,Lum,MI,USA,48412,1667640111,1.21E+19,18-hole course,18,1
1.42E+17,Green Briar Golf Course,3379 Sage Lake Rd,Lupton,MI,USA,48635,1687948189,1.21E+19,Green Briar,18,1
1.42E+17,Wawashkamo Golf Club,British Landing Rd,Mackinac Island,MI,USA,49757,1618417180,1.21E+19,Wawashkamo,18,0
1.42E+17,Grand Hotel - The Jewel Golf Course,1 Grand Dr,Mackinac Island,MI,USA,49836,1687248050,1.21E+19,The Jewel,18,1
1.42E+17,Bello Woods Golf Club,23650 23 Mile Rd,Macomb,MI,USA,48042,1665232561,1.11E+19,Gold + Gold,18,1
1.42E+17,Bello Woods Golf Club,23650 23 Mile Rd,Macomb,MI,USA,48042,1665232561,1.21E+19,Gold + Red,18,1
1.42E+17,Bello Woods Golf Club,23650 23 Mile Rd,Macomb,MI,USA,48042,1665232561,1.31E+19,Gold + White,18,1
1.42E+17,Bello Woods Golf Club,23650 23 Mile Rd,Macomb,MI,USA,48042,1665232561,2.11E+19,Red + Gold,18,1
1.42E+17,Bello Woods Golf Club,23650 23 Mile Rd,Macomb,MI,USA,48042,1665232561,2.21E+19,Red + Red,18,1
1.42E+17,Bello Woods Golf Club,23650 23 Mile Rd,Macomb,MI,USA,48042,1665232561,2.31E+19,Red + White,18,1
1.42E+17,Bello Woods Golf Club,23650 23 Mile Rd,Macomb,MI,USA,48042,1665232561,3.11E+19,White + Gold,18,1
1.42E+17,Bello Woods Golf Club,23650 23 Mile Rd,Macomb,MI,USA,48042,1665232561,3.21E+19,White + Red,18,1
1.42E+17,Bello Woods Golf Club,23650 23 Mile Rd,Macomb,MI,USA,48042,1665232561,3.31E+19,White + White,18,1
1.42E+17,Cracklewood Golf Club,18215 24 Mile Rd,Macomb,MI,USA,48042,1677488080,1.21E+19,Cracklewood,18,1
1.42E+17,Hickory Hollow Golf Course,49001 N Ave,Macomb,MI,USA,48042,1716542168,1.21E+14,Hickory Hollow,18,1
1.42E+17,Sycamore Hills Golf Club,48787 N Ave,Macomb,MI,USA,48042,1695241096,1.11E+19,North + North,18,0
1.42E+17,Sycamore Hills Golf Club,48787 N Ave,Macomb,MI,USA,48042,1695241096,1.21E+19,North + West,18,0
1.42E+17,Sycamore Hills Golf Club,48787 N Ave,Macomb,MI,USA,48042,1695241096,1.31E+19,North + South,18,0
1.42E+17,Sycamore Hills Golf Club,48787 N Ave,Macomb,MI,USA,48042,1695241096,2.11E+19,West + North,18,0
1.42E+17,Sycamore Hills Golf Club,48787 N Ave,Macomb,MI,USA,48042,1695241096,2.21E+19,West + West,18,0
1.42E+17,Sycamore Hills Golf Club,48787 N Ave,Macomb,MI,USA,48042,1695241096,2.31E+19,West + South,18,0
1.42E+17,Sycamore Hills Golf Club,48787 N Ave,Macomb,MI,USA,48042,1695241096,3.11E+19,South + North,18,0
1.42E+17,Sycamore Hills Golf Club,48787 N Ave,Macomb,MI,USA,48042,1695241096,3.21E+19,South + West,18,0
1.42E+17,Sycamore Hills Golf Club,48787 N Ave,Macomb,MI,USA,48042,1695241096,3.31E+19,South + South,18,0
1.42E+17,Burning Tree Golf & Country Club,22871 21 Mile Rd,Macomb,MI,USA,48044,1665995202,1.21E+19,Burning Tree,18,1
1.42E+17,Lakes of the North,8151 Pineview Dr,Mancelona,MI,USA,49659,1701882567,1.21E+19,Deer Run,18,1
1.42E+17,Manistee Golf & Country Club,500 Cherry St,Manistee,MI,USA,49660,1722708963,1.21E+19,Manistee,18,1
1.42E+17,Manistee National Golf Club ,4797 US 31 S,Manistee,MI,USA,49660,1704351269,1.21E+19,Canthooke Valley,18,0
1.42E+17,Manistee National Golf Club ,4797 US 31 S,Manistee,MI,USA,49660,1704351926,1.21E+19,Cutters Ridge ,18,0
1.42E+17,Indian Lake Golf & Country Club,Route 1,Manistique,MI,USA,49854,1696057964,1.21E+19,18-hole course,18,1
1.42E+17,Devils Lake Golf Course,14600 US 223,Manitou Beach,MI,USA,49253,1681195794,1.21E+19,Devils Lake,18,1
1.42E+17,Emerald Vale Golf Club,6867 E M-42,Manton,MI,USA,49663,1685282010,1.21E+19,18-hole course,18,1
1.12E+12,Sand Creek Golf,1831 Johnson Street,Marne,MI,USA,49435,1618417130,1.21E+14,18-hole course,18,0
1.12E+12,Western Greens Golf Course,2475 Johnson Street,Marne,MI,USA,49435,1697047634,1.21E+14,18-hole course,18,0
1.42E+17,Chocolay Downs Golf Course,125 Chocolay Downs Dr,Marquette,MI,USA,49855,1670563491,1.21E+19,Chocolay Downs,18,1
1.42E+17,Marquette Golf & Country Club,1075 W Grove St,Marquette,MI,USA,49855,1733263353,1.21E+14,Heritage,18,0
1.42E+17,Marquette Golf & Country Club,1075 W Grove St,Marquette,MI,USA,49855,1705149305,1.21E+19,GreyWalls,18,1
1.27E+12,Alwyn Downs,1225 S Kalamazoo Ave,Marshall,MI,USA,49068,1656143133,1.21E+14,Alwyn Downs,18,1
1.42E+17,Marshall Country Club,151 Lyon Lake Rd,Marshall,MI,USA,49068,1723139448,1.21E+19,Marshall,18,1
1.42E+17,The Medalist Golf Club,15701 N Dr N,Marshall,MI,USA,49068,1618417180,1.21E+19,The Medalist,18,0
1.42E+17,Marysville Golf Course,2080 River Rd,Marysville,MI,USA,48040,1618417135,1.21E+14,18-hole course,18,1
1.42E+17,Marysville Golf Course,2080 River Rd,Marysville,MI,USA,48040,1705488940,1.21E+19,Marysville,18,1
1.42E+17,Branson Bay Golf Course,215 Branson Bay Dr,Mason,MI,USA,48854,1664004968,1.21E+19,Branson Bay,18,1
1.42E+17,El Dorado Golf Club,3750 W Howell Rd,Mason,MI,USA,48854,1689665636,1.11E+19,Red + Red,18,1
1.42E+17,El Dorado Golf Club,3750 W Howell Rd,Mason,MI,USA,48854,1689665636,1.21E+19,Red + Blue,18,1
1.42E+17,El Dorado Golf Club,3750 W Howell Rd,Mason,MI,USA,48854,1689665636,1.31E+19,Red + White,18,1
1.42E+17,El Dorado Golf Club,3750 W Howell Rd,Mason,MI,USA,48854,1689665636,2.11E+19,Blue + Red,18,1
1.42E+17,El Dorado Golf Club,3750 W Howell Rd,Mason,MI,USA,48854,1689665636,2.21E+19,Blue + Blue,18,1
1.42E+17,El Dorado Golf Club,3750 W Howell Rd,Mason,MI,USA,48854,1689665636,2.31E+19,Blue + White,18,1
1.42E+17,El Dorado Golf Club,3750 W Howell Rd,Mason,MI,USA,48854,1689665636,3.11E+19,White + Red,18,1
1.42E+17,El Dorado Golf Club,3750 W Howell Rd,Mason,MI,USA,48854,1689665636,3.21E+19,White + Blue,18,1
1.42E+17,El Dorado Golf Club,3750 W Howell Rd,Mason,MI,USA,48854,1689665636,3.31E+19,White + White,18,1
1.36E+14,Eldorado Golf Course,3750 West Howell Road,Mason,MI,USA,48854,1722809511,1.11E+16,Red + Red,18,1
1.36E+14,Eldorado Golf Course,3750 West Howell Road,Mason,MI,USA,48854,1722809511,1.21E+16,Red + White,18,1
1.36E+14,Eldorado Golf Course,3750 West Howell Road,Mason,MI,USA,48854,1722809511,1.31E+16,Red + Blue,18,1
1.36E+14,Eldorado Golf Course,3750 West Howell Road,Mason,MI,USA,48854,1722809511,2.11E+16,White + Red,18,1
1.36E+14,Eldorado Golf Course,3750 West Howell Road,Mason,MI,USA,48854,1722809511,2.21E+16,White + White,18,1
1.36E+14,Eldorado Golf Course,3750 West Howell Road,Mason,MI,USA,48854,1722809511,2.31E+16,White + Blue,18,1
1.36E+14,Eldorado Golf Course,3750 West Howell Road,Mason,MI,USA,48854,1722809511,3.11E+16,Blue + Red,18,1
1.36E+14,Eldorado Golf Course,3750 West Howell Road,Mason,MI,USA,48854,1722809511,3.21E+16,Blue + White,18,1
1.36E+14,Eldorado Golf Course,3750 West Howell Road,Mason,MI,USA,48854,1722809511,3.31E+16,Blue + Blue,18,1
1.69E+15,ironwood links,742 N Eifert Rd,Mason,MI,USA,48854,1694860249,1.22E+16,Ironwood Links 18,18,1
1.42E+17,Greenbrier Golf Club,9350 N Lapeer Rd,Mayville,MI,USA,48423,1687152358,1.21E+19,Greenbrier,18,1
1.42E+17,Belle River Golf Course,12564 Belle River Road  ,Memphis,MI,USA,48041,1661143302,1.21E+19,Belle River,18,1
1.42E+17,North Shore Golf Club,N3215 St Hwy M35,Menominee,MI,USA,49858,1719855455,1.21E+19,North Shore,18,1
1.42E+17,Riverside Country Club,3001 14th Ave,Menominee,MI,USA,49858,1618417179,1.21E+19,Riverside,18,0
1.42E+17,Twin Bridges Golf Course,3260 S Fenmore Rd,Merrill,MI,USA,48637,1618417180,1.21E+18,Twin Bridges,18,0
1.47E+15,Antioch Hills Golf Club,5441 W. M-115,Mesick,MI,USA,49649,1664361551,1.21E+17,Briar Creek,18,1
1.42E+17,Metamora Golf & Country Club,1600 Club Dr,Metamora,MI,USA,48455,1719954047,1.21E+19,Metamora,18,1
1.37E+15,Overbrook Golf Course,6234 Grant Road,Middleton,MI,USA,48856,1618417150,1.11E+17,9-hole course,9,1
1.42E+17,Currie Municipal Golf Club,1006 Currie Pkwy,Midland,MI,USA,48640,1679637921,1.12E+16,Par-3,9,1
1.42E+17,Currie Municipal Golf Club,1006 Currie Pkwy,Midland,MI,USA,48640,1680472018,1.11E+18,East,9,1
1.42E+17,Currie Municipal Golf Club,1006 Currie Pkwy,Midland,MI,USA,48640,1679637389,1.21E+19,West,18,1
1.42E+17,Midland Country Club,1120 W Saint Andrews Rd,Midland,MI,USA,48640,1720202004,1.21E+18,Midland,18,1
1.42E+17,Sandy Ridge Golf Course,2750 W Lauria Rd,Midland,MI,USA,48642,1618417179,1.21E+19,Sandy Ridge,18,0
1.42E+17,Kensington Metropark,2240 W Buno Rd,Milford,MI,USA,48380,1714758959,1.21E+19,Kensington Metropark,18,1
1.42E+17,Mystic Creek Golf Club,1 Champions Circle,Milford,MI,USA,48381,1618417179,1.21E+19,Lakes/Woods,18,0
1.42E+17,Mystic Creek Golf Club,1 Champions Circle,Milford,MI,USA,48381,1618417179,1.21E+19,Woods/Meadows,18,0
1.42E+17,Mystic Creek Golf Club,1 Champions Circle,Milford,MI,USA,48381,1618417179,1.21E+19,Meadows/Lakes,18,0
1.42E+17,Mystic Creek Golf Club,1 Champions Circle,Milford,MI,USA,48381,1618417179,1.11E+19,Meadows 9,9,0
1.42E+17,Carrington Golf Club,911 St James Park Ave,Monroe,MI,USA,48161,1667458748,1.21E+19,Carrington,18,1
1.42E+17,Green Meadows Golf Course,1555 Strasburg Rd,Monroe,MI,USA,48161,1688197019,1.21E+14,18-hole course,18,1
1.42E+17,Links at Lake Erie,14727 La Pleisance Rd,Monroe,MI,USA,48162,1618417179,1.21E+19,Lake Erie,18,0
1.42E+17,Monroe Golf & Country Club,611 Cole Rd,Monroe,MI,USA,48162,1734181334,1.21E+19,18-hole course,18,1
1.42E+17,Raisin River Golf Club,1500 N Dixie Hwy,Monroe,MI,USA,48162,1618417137,1.21E+14,18-hole course,18,1
1.42E+17,Raisin River Golf Club,1500 N Dixie Hwy,Monroe,MI,USA,48162,1618417179,1.21E+18,West,18,0
1.42E+17,Raisin River Golf Club,1500 N Dixie Hwy,Monroe,MI,USA,48162,1618417179,1.21E+19,East,18,0
1.42E+17,Sandy Creek Golf Club,3177 Heiss Rd,Monroe,MI,USA,48162,1618417179,1.21E+19,Sandy Creek,18,0
1.42E+17,Old Channel Trail Golf Club,8325 N Old Channel Trl,Montague,MI,USA,49437,1618417179,1.21E+19,Meadow/ Woods,18,0
1.42E+17,Old Channel Trail Golf Club,8325 N Old Channel Trl,Montague,MI,USA,49437,1618417179,1.21E+19,Valley/Meadow,18,0
1.42E+17,Old Channel Trail Golf Club,8325 N Old Channel Trl,Montague,MI,USA,49437,1618417179,1.21E+19,Woods/Valley,18,0
1.42E+17,Briar Ridge Golf & Country Club,11099 W Dodge Rd,Montrose,MI,USA,48457,1664367816,1.21E+19,Briar Ridge,18,1
1.42E+17,Gowanie Golf Club,24770 S River Rd,Mount Clemens,MI,USA,48045,1693205892,1.21E+18,Gowanie,18,1
1.42E+17,Metro Beach Metropark,31300 Metropolitan Pkwy,Mount Clemens,MI,USA,48045,1728295527,1.21E+18,Metro Beach Metropark,18,1
1.56E+15,Waabooz Run Golf Course,5665 East Pickard Street,Mount Pleasant,MI,USA,48858,1618417208,1.22E+17,Waabooz Run,18,0
1.42E+17,Bucks Run Golf Club,1559 S Chipewa Rd,Mt. Pleasant,MI,USA,48858,1665585779,1.21E+14,Bucks Run,18,1
1.42E+17,Mount Pleasant Country Club,3686 E River Rd,Mt. Pleasant,MI,USA,48858,1618417179,1.21E+19,Mount Pleasant,18,0
1.42E+17,Pleasant Hills Golf Course,4452 E Millbrook Rd,Mt. Pleasant,MI,USA,48858,1727795319,1.21E+19,Pleasant Hills,18,1
1.42E+17,Riverwood Resort,1313 E Broomfield Rd,Mt. Pleasant,MI,USA,48858,1618417179,1.11E+19,Blue 9,9,0
1.42E+17,Riverwood Resort,1313 E Broomfield Rd,Mt. Pleasant,MI,USA,48858,1618417179,1.21E+19,White/Red,18,0
1.42E+17,The Pohlcat,5665 Pickard Rd,Mt. Pleasant,MI,USA,48858,1618417180,1.21E+19,The Pohlcat,18,0
1.63E+15,Mullett Lake Country Club,7475 Mullett Lake Road,Mullett Lake,MI,USA,49761,1625095528,1.12E+17,Mullet lake country club ,9,0
1.42E+17,Pictured Rocks Golf & Country Club,Hwy 58 E,Munising,MI,USA,49862,1618417179,1.21E+19,Pictured Rocks,18,0
1.42E+17,Muskegon Country Club,2801 Lakeshore Dr,Muskegon,MI,USA,49441,1618417143,1.21E+14,Muskegon Country Club,18,0
1.42E+17,Muskegon Country Club,2801 Lakeshore Dr,Muskegon,MI,USA,49441,1618417179,1.21E+19,Muskegon,18,0
1.42E+17,Eagle Island Golf Club,800 S Milliron Rd,Muskegon,MI,USA,49442,1681116663,1.11E+19,Eagle Island,9,1
1.42E+17,Fruitport Country Club,6334 S Harvey St,Muskegon,MI,USA,49444,1690783398,1.21E+19,Fruitport,18,0
1.42E+17,Oak Ridge Golf Club,513 W Pontaluna Rd,Muskegon,MI,USA,49444,1708985047,1.21E+19,18-hole course,18,1
1.42E+17,Chase Hammond Golf Course,2454 Putnam Rd,Muskegon,MI,USA,49445,1668835199,1.21E+19,Chase Hammond,18,1
1.42E+17,Lincoln Golf Club,4907 Whitehall Rd,Muskegon,MI,USA,49445,1714974759,1.21E+19,Lincoln,18,1
1.42E+17,Mulberry Fore Golf Course,955 N Main,Nashville,MI,USA,49073,1618417179,1.21E+19,Mulberry Fore,18,0
1.42E+17,Cedar Glen Golf Club,36860 Twenty Five Mile Rd,New Baltimore,MI,USA,48047,1673341160,1.21E+19,Cedar Glen,18,1
1.42E+17,Salt River Golf Course,33633 23 Mile Rd,New Baltimore,MI,USA,48047,1618417179,1.21E+19,Salt River,18,0
1.33E+15,Willow Metropark,22900 huron river drive,new boston,mi,USA,48164,1689556506,1.21E+14,18-hole course,18,0
1.41E+15,Whittaker Woods Golf Club,12578 Wilson Roaf,New Buffalo,MI,USA,49117,1618417155,1.21E+17,18-hole course,18,1
1.42E+17,Grand View Golf Course,5464 68th Ave,New Era,MI,USA,49446,1693371407,1.21E+19,Grand View,18,1
1.42E+17,Oak Ridge Golf Club,35035 26 Mile Rd,New Haven,MI,USA,48048,1710400815,1.21E+19,Marsh Oaks,18,1
1.42E+17,Oak Ridge Golf Club,35035 26 Mile Rd,New Haven,MI,USA,48048,1709016746,1.21E+19,Old Oaks,18,0
1.42E+17,Coyote Golf Club,28700 Milford Rd,New Hudson,MI,USA,48165,1677312864,1.21E+19,Coyote,18,1
1.42E+17,Newberry Country Club,M123 & M28 S,Newberry,MI,USA,49728,1706252610,1.21E+19,Newberry,18,1
1.42E+17,Thorne Brothers at Lilac Golf Course,9090 Armstrong Road,Newport,MI,USA,48166,1618417179,1.21E+19,Lilac,18,0
1.58E+15,Signal Point Club,1475 West River Road,Niles,MI,USA,49120,1618417209,1.22E+17,Signal Point by Blackthorn ,18,0
1.42E+17,Washakie Golf & RV Resort,3461 Burnside Rd,North Branch,MI,USA,48461,1618417180,1.21E+19,Washakie,18,0
1.42E+17,Downing Farms Golf Course,8145 W 7 Mile Rd,Northville,MI,USA,48167,1687930266,1.21E+19,Downing Farms,18,1
1.42E+17,Meadowbrook Country Club,40941 W 8 Mile Rd,Northville,MI,USA,48167,1726642342,1.21E+19,Meadowbrook,18,1
1.42E+17,Northville Hills Golf Club,15565 Bay Hill Dr,Northville,MI,USA,48168,1720026297,1.21E+19,Northville Hills,18,1
1.42E+17,Salem Hills Golf Club,8810 W 6 Mile Rd,Northville,MI,USA,48168,1618417139,1.21E+14,18-hole course,18,0
1.42E+17,Salem Hills Golf Club,8810 W 6 Mile Rd,Northville,MI,USA,48168,1618417179,1.21E+19,Salem Hills,18,0
1.42E+17,Oak Crest Golf Club,N1475 US Hwy 8,Norway,MI,USA,49870,1708409656,1.21E+18,Oak Crest,18,1
1.31E+12,Links of Novi,50395 West 10 Mile Road,Novi,MI,USA,48374,1733058718,1.12E+17,East + East,18,0
1.31E+12,Links of Novi,50395 West 10 Mile Road,Novi,MI,USA,48374,1733058718,1.22E+17,East + South,18,0
1.31E+12,Links of Novi,50395 West 10 Mile Road,Novi,MI,USA,48374,1733058718,1.32E+17,East + West,18,0
1.31E+12,Links of Novi,50395 West 10 Mile Road,Novi,MI,USA,48374,1733058718,2.12E+17,South + East,18,0
1.31E+12,Links of Novi,50395 West 10 Mile Road,Novi,MI,USA,48374,1733058718,2.22E+17,South + South,18,0
1.31E+12,Links of Novi,50395 West 10 Mile Road,Novi,MI,USA,48374,1733058718,2.32E+17,South + West,18,0
1.31E+12,Links of Novi,50395 West 10 Mile Road,Novi,MI,USA,48374,1733058718,3.12E+17,West + East,18,0
1.31E+12,Links of Novi,50395 West 10 Mile Road,Novi,MI,USA,48374,1733058718,3.22E+17,West + South,18,0
1.31E+12,Links of Novi,50395 West 10 Mile Road,Novi,MI,USA,48374,1733058718,3.32E+17,West + West,18,0
1.42E+17,The Links at Novi,50395 W 10 Mile Rd,Novi,MI,USA,48374,1618417179,1.21E+18,East/South,18,0
1.42E+17,The Links at Novi,50395 W 10 Mile Rd,Novi,MI,USA,48374,1618417179,1.21E+19,South/West,18,0
1.42E+17,The Links at Novi,50395 W 10 Mile Rd,Novi,MI,USA,48374,1618417179,1.21E+19,West/East,18,0
1.42E+17,Terra Verde Golf Course,11741 W Leonard Rd,Nunica,MI,USA,49448,1618417179,1.21E+19,Terra Verde,18,0
1.42E+17,Beaver Creek Golf Links,850 Stoney Creek Rd,Oakland,MI,USA,48363,1660634142,1.21E+19,Myth,18,1
1.42E+17,Twin Lakes Golf Club,455 Twin Lakes Dr,Oakland,MI,USA,48363,1618417180,1.21E+19,Woods/Links,18,0
1.42E+17,Twin Lakes Golf Club,455 Twin Lakes Dr,Oakland,MI,USA,48363,1618417180,1.21E+19,Links/Estates,18,0
1.42E+17,Twin Lakes Golf Club,455 Twin Lakes Dr,Oakland,MI,USA,48363,1618417180,1.21E+19,Estates/Woods,18,0
1.41E+15,Myth Public Golf Course & Banquets,850 Stoney Creek Road,Oakland charter Township,MI,USA,48363,1618417154,1.21E+17,Myth Golf Course,18,1
1.46E+15,Black Lake Golf Club,2800 Maxon Road,Onaway,MI,USA,49765,1662527692,1.21E+17,Black Lake,18,1
1.42E+17,Stoney Links Golf Club,19011 E M-68 Hwy,Onaway,MI,USA,49765,1618417179,1.21E+19,Stoney,18,0
1.42E+17,Heathlands Golf Course,6444 Farr Rd,Onekama,MI,USA,49675,1715871826,1.21E+19,Heathlands,18,1
1.42E+17,Orchard Lake Country Club,5000 W Shore Dr,Orchard Lake,MI,USA,48632,1726851697,1.21E+18,Orchard Lake,18,1
1.42E+17,Pine Lake Country Club,3300 Pine Lake Rd,Orchard Lake,MI,USA,49677,1726114750,1.21E+19,Pine Lake,18,1
1.42E+17,Lakewood Shores Golf Club ,7751 Cedar Lake Rd,Oscoda,MI,USA,48750,1702573784,1.21E+19,The Gailes,18,1
1.42E+17,Lakewood Shores Golf Club ,7751 Cedar Lake Rd,Oscoda,MI,USA,48750,1702571944,1.21E+19,Serradella,18,1
1.42E+17,Lakewood Shores Golf Club ,7751 Cedar Lake Rd,Oscoda,MI,USA,48750,1716870240,1.21E+19,Blackshire ,18,1
1.42E+17,Lakewood Shores Golf Club ,7751 Cedar Lake Rd,Oscoda,MI,USA,48750,1725547369,1.21E+19,Wee Par 3 ,18,1
1.15E+12,LYNX GC,900 Lincoln Road,Otsego,MI,USA,49078,1722009219,1.21E+14,18-hole course,18,1
1.42E+17,Prairiewood Golf Course,315 Prairiewood Dr,Otsego,MI,USA,49078,1618417140,1.21E+14,Prairiewood Golf Course,18,0
1.42E+17,Prairiewood Golf Course,315 Prairiewood Dr,Otsego,MI,USA,49078,1618417179,1.21E+19,Prairiewood,18,0
1.42E+17,The Lynx of Allegan,900 Lincoln Rd,Otsego,MI,USA,49078,1618417180,1.21E+19,The Lynx of Allegan,18,0
1.42E+17,Cherrywood Golf Club,7910 Whiteford Center Rd,Ottawa Lake,MI,USA,49267,1677038176,1.11E+19,Cherrywood,9,1
1.42E+17,Crooked Creek Golf Course,5123 St Anthony Rd,Ottawa Lake,MI,USA,49267,1679391256,1.21E+19,Crooked Creek,18,1
1.42E+17,The Legacy Golf Club,7677 US 223,Ottawa Lake,MI,USA,49267,1618417179,1.21E+19,The Legacy,18,1
1.65E+15,Whiteford Valley Golf Club,7980 Beck Road,Ottawa Lake,MI,USA,49267,1677743631,1.22E+17,North,18,0
1.65E+15,Whiteford Valley Golf Club,7980 Beck Road,Ottawa Lake,MI,USA,49267,1724355530,1.12E+17,East 9,9,1
1.65E+15,whiteford valley north golf club ottawa lake mich,7980 beck rd.,ottawa lake,MI,USA,49267,1653754333,1.22E+17,18-hole course,18,0
1.65E+15,whiteford valley north golf club ottawa lake mich,7980 beck rd.,ottawa lake,MI,USA,49267,1658060734,1.22E+17,18-hole course,18,1
1.65E+15,whiteford valley north golf club ottawa lake mich,7980 beck rd.,ottawa lake,MI,USA,49267,1724355495,1.22E+17,Whiteford valley north ,18,1
1.42E+17,Owosso Country Club,42000 N Chipman Rd,Owosso,MI,USA,48867,1728404331,1.21E+19,Owosso,18,1
1.42E+17,Copper Hills Golf Club,2125 Lakeville Rd,Oxford,MI,USA,48370,1681579485,1.11E+17,Hills + Hills,18,1
1.42E+17,Copper Hills Golf Club,2125 Lakeville Rd,Oxford,MI,USA,48370,1681579485,1.21E+17,Hills + Marsh,18,1
1.42E+17,Copper Hills Golf Club,2125 Lakeville Rd,Oxford,MI,USA,48370,1681579485,1.31E+17,Hills + Jungle,18,1
1.42E+17,Copper Hills Golf Club,2125 Lakeville Rd,Oxford,MI,USA,48370,1681579485,2.11E+17,Marsh + Hills,18,1
1.42E+17,Copper Hills Golf Club,2125 Lakeville Rd,Oxford,MI,USA,48370,1681579485,2.21E+17,Marsh + Marsh,18,1
1.42E+17,Copper Hills Golf Club,2125 Lakeville Rd,Oxford,MI,USA,48370,1681579485,2.31E+17,Marsh + Jungle,18,1
1.42E+17,Copper Hills Golf Club,2125 Lakeville Rd,Oxford,MI,USA,48370,1681579485,3.11E+17,Jungle + Hills,18,1
1.42E+17,Copper Hills Golf Club,2125 Lakeville Rd,Oxford,MI,USA,48370,1681579485,3.21E+17,Jungle + Marsh,18,1
1.42E+17,Copper Hills Golf Club,2125 Lakeville Rd,Oxford,MI,USA,48370,1681579485,3.31E+17,Jungle + Jungle,18,1
1.42E+17,Mulberry Hills Golf Course,3530 Noble Rd,Oxford,MI,USA,48370,1618417179,1.21E+19,Mulberry Hills,18,0
1.42E+17,Boulder Pointe Golf Club,1 Champions Circle,Oxford,MI,USA,48371,1668063474,1.11E+19,Peaks + Peaks,18,0
1.42E+17,Boulder Pointe Golf Club,1 Champions Circle,Oxford,MI,USA,48371,1668063474,1.21E+19,Peaks + Dunes,18,0
1.42E+17,Boulder Pointe Golf Club,1 Champions Circle,Oxford,MI,USA,48371,1668063474,1.31E+19,Peaks + Bluffs,18,0
1.42E+17,Boulder Pointe Golf Club,1 Champions Circle,Oxford,MI,USA,48371,1668063474,2.11E+19,Dunes + Peaks,18,0
1.42E+17,Boulder Pointe Golf Club,1 Champions Circle,Oxford,MI,USA,48371,1668063474,2.21E+19,Dunes + Dunes,18,0
1.42E+17,Boulder Pointe Golf Club,1 Champions Circle,Oxford,MI,USA,48371,1668063474,2.31E+19,Dunes + Bluffs,18,0
1.42E+17,Boulder Pointe Golf Club,1 Champions Circle,Oxford,MI,USA,48371,1668063474,3.11E+19,Bluffs + Peaks,18,0
1.42E+17,Boulder Pointe Golf Club,1 Champions Circle,Oxford,MI,USA,48371,1668063474,3.21E+19,Bluffs + Dunes,18,0
1.42E+17,Boulder Pointe Golf Club,1 Champions Circle,Oxford,MI,USA,48371,1668063474,3.31E+19,Bluffs + Bluffs,18,0
1.42E+17,Devils Ridge Golf Club,3700 Metamora Rd,Oxford,MI,USA,48371,1681196276,1.21E+14,18-hole course,18,1
1.42E+17,Oxford Hills Golf & Country Club,300 E Drahner Rd,Oxford,MI,USA,48371,1618417141,1.21E+14,Oxford Hills Golf Club,18,0
1.42E+17,Oxford Hills Golf & Country Club,300 E Drahner Rd,Oxford,MI,USA,48371,1728409462,1.21E+19,Oxford Hills,18,1
1.42E+17,Burr Oak Golf Course,3491 N Parma Rd,Parma,MI,USA,49269,1666009562,1.21E+19,Burr Oak,18,1
1.42E+17,Heritage Glen Golf Club,29795 Heritage Ln,Paw Paw,MI,USA,49079,1717971255,1.21E+19,Heritage Glen,18,1
1.42E+17,Lake Cora Hills Golf Club,56640 County Rd 671,Paw Paw,MI,USA,49079,1723116525,1.21E+18,Lake Cora Hills,18,1
1.42E+17,Glenbrier Golf Course,4178 Locke Rd,Perry,MI,USA,48872,1692026488,1.21E+18,Glenbrier,18,1
1.42E+17,Deme Acres Golf Course,17655 Albain Rd,Petersburg,MI,USA,49270,1681372517,1.21E+19,Deme Acres,18,1
1.42E+17,Crooked Tree Golf Club,600 Crooked Tree Dr,Petoskey,MI,USA,49770,1680941872,1.21E+19,18-hole course,18,1
1.42E+17,Petoskey Bay View Country Club,2282 Country Club Rd,Petoskey,MI,USA,49770,1723125647,1.21E+19,Petoskey Bay View,18,1
1.42E+17,Walloon Lake Country Club,5995 Country Club Rd,Petoskey,MI,USA,49770,1618417180,1.21E+18,Walloon Lake,18,0
1.42E+17,Huckleberry Creek Golf Course,2900 N HubbardSton Rd,Pewamo,MI,USA,48873,1694710320,1.21E+19,Huckleberry Creek,18,1
1.42E+17,Munoscong Golf Club,141 East 22 Mile Rd,Pickford,MI,USA,49774,1618417179,1.21E+19,Munoscong,18,0
1.42E+17,Pilgrims Run Golf Club,11401 Newcosta Ave,Pierson,MI,USA,49339,1632361644,1.21E+19,Pilgrims Run,18,1
1.42E+17,Whitefish Lake Golf Club,2241 Bass Lake Rd,Pierson,MI,USA,49339,1724355608,1.21E+19,Whitefish Lake,18,1
1.42E+17,Scenic Golf & Country Club,8364 Fillion Rd,Pigeon,MI,USA,48755,1618417179,1.21E+19,Scenic,18,0
1.42E+17,Rush Lake Hills Golf Club,3199 Rush Lake Rd,Pinckney,MI,USA,48169,1618417179,1.21E+19,Rush Lake Hills,18,0
1.42E+17,Timber Trace Golf Club,One Champion Circle,Pinckney,MI,USA,48169,1618417139,1.21E+14,18-hole course,18,0
1.42E+17,Timber Trace Golf Club,One Champion Circle,Pinckney,MI,USA,48169,1618417180,1.21E+19,Timber Trace,18,0
1.42E+17,Whispering Pines Golf Club,2500 Whispering Pines Dr,Pinckney,MI,USA,48169,1618417139,1.21E+14,18-hole course,18,0
1.42E+17,Green Hills Golf Course,1699 M-13,Pinconning,MI,USA,48650,1688141357,1.21E+19,Green Hills,18,1
1.42E+17,Lake Doster Golf Club,136 Country Club Blvd,Plainwell,MI,USA,49080,1618417179,1.21E+19,Lake Doster,18,0
1.42E+17,Hankerd Hills Golf Club,10251 Resort Rd,Pleasant Lake,MI,USA,49272,1707236221,1.11E+19,Front + Front,18,1
1.42E+17,Hankerd Hills Golf Club,10251 Resort Rd,Pleasant Lake,MI,USA,49272,1707236221,1.21E+19,Front + Back,18,1
1.42E+17,Hankerd Hills Golf Club,10251 Resort Rd,Pleasant Lake,MI,USA,49272,1707236221,1.31E+19,Front + Original,18,1
1.42E+17,Hankerd Hills Golf Club,10251 Resort Rd,Pleasant Lake,MI,USA,49272,1707236221,2.11E+19,Back + Front,18,1
1.42E+17,Hankerd Hills Golf Club,10251 Resort Rd,Pleasant Lake,MI,USA,49272,1707236221,2.21E+19,Back + Back,18,1
1.42E+17,Hankerd Hills Golf Club,10251 Resort Rd,Pleasant Lake,MI,USA,49272,1707236221,2.31E+19,Back + Original,18,1
1.42E+17,Hankerd Hills Golf Club,10251 Resort Rd,Pleasant Lake,MI,USA,49272,1707236221,3.11E+19,Original + Front,18,1
1.42E+17,Hankerd Hills Golf Club,10251 Resort Rd,Pleasant Lake,MI,USA,49272,1707236221,3.21E+19,Original + Back,18,1
1.42E+17,Hankerd Hills Golf Club,10251 Resort Rd,Pleasant Lake,MI,USA,49272,1707236221,3.31E+19,Original + Original,18,1
1.42E+17,Brae Burn Golf Club,10860 W Five Mile Rd,Plymouth,MI,USA,48168,1663938895,1.21E+19,Brae Burn,18,1
1.42E+17,Fox Hills Golf and Banquet Center,8768 North Territorial Road,Plymouth,MI,USA,48170,1690005771,1.11E+14,Hills + Hills,18,1
1.42E+17,Fox Hills Golf and Banquet Center,8768 North Territorial Road,Plymouth,MI,USA,48170,1690005771,1.21E+14,Hills + Woodlands,18,1
1.42E+17,Fox Hills Golf and Banquet Center,8768 North Territorial Road,Plymouth,MI,USA,48170,1690005771,1.31E+14,Hills + Lakes,18,1
1.42E+17,Fox Hills Golf and Banquet Center,8768 North Territorial Road,Plymouth,MI,USA,48170,1690005771,2.11E+14,Woodlands + Hills,18,1
1.42E+17,Fox Hills Golf and Banquet Center,8768 North Territorial Road,Plymouth,MI,USA,48170,1690005771,2.21E+14,Woodlands + Woodlands,18,1
1.42E+17,Fox Hills Golf and Banquet Center,8768 North Territorial Road,Plymouth,MI,USA,48170,1690005771,2.31E+14,Woodlands + Lakes,18,1
1.42E+17,Fox Hills Golf and Banquet Center,8768 North Territorial Road,Plymouth,MI,USA,48170,1690005771,3.11E+14,Lakes + Hills,18,1
1.42E+17,Fox Hills Golf and Banquet Center,8768 North Territorial Road,Plymouth,MI,USA,48170,1690005771,3.21E+14,Lakes + Woodlands,18,1
1.42E+17,Fox Hills Golf and Banquet Center,8768 North Territorial Road,Plymouth,MI,USA,48170,1690005771,3.31E+14,Lakes + Lakes,18,1
1.42E+17,Fox Hills Golf and Banquet Center,8768 North Territorial Road,Plymouth,MI,USA,48170,1688814713,1.21E+17,Strategic Fox ,18,1
1.42E+17,Fox Hills Golf and Banquet Center,8768 North Territorial Road,Plymouth,MI,USA,48170,1682183932,1.21E+19,Golden Fox,18,1
1.42E+17,Hilltop Golf Course,47000 Powell Rd,Plymouth,MI,USA,48170,1694419251,1.21E+19,Hilltop,18,1
1.42E+17,St Johns Golf & Conference Center,44115 Five Mile Rd,Plymouth,MI,USA,48170,1691704827,1.11E+19,Luke + Luke,18,0
1.42E+17,St Johns Golf & Conference Center,44115 Five Mile Rd,Plymouth,MI,USA,48170,1691704827,1.21E+19,Luke + Matthew,18,0
1.42E+17,St Johns Golf & Conference Center,44115 Five Mile Rd,Plymouth,MI,USA,48170,1691704827,1.31E+19,Luke + Mark,18,0
1.42E+17,St Johns Golf & Conference Center,44115 Five Mile Rd,Plymouth,MI,USA,48170,1691704827,2.11E+19,Matthew + Luke,18,0
1.42E+17,St Johns Golf & Conference Center,44115 Five Mile Rd,Plymouth,MI,USA,48170,1691704827,2.21E+19,Matthew + Matthew,18,0
1.42E+17,St Johns Golf & Conference Center,44115 Five Mile Rd,Plymouth,MI,USA,48170,1691704827,2.31E+19,Matthew + Mark,18,0
1.42E+17,St Johns Golf & Conference Center,44115 Five Mile Rd,Plymouth,MI,USA,48170,1691704827,3.11E+19,Mark + Luke,18,0
1.42E+17,St Johns Golf & Conference Center,44115 Five Mile Rd,Plymouth,MI,USA,48170,1691704827,3.21E+19,Mark + Matthew,18,0
1.42E+17,St Johns Golf & Conference Center,44115 Five Mile Rd,Plymouth,MI,USA,48170,1691704827,3.31E+19,Mark + Mark,18,0
1.42E+17,The Links at Crystal Lake,800 Golf Dr,Pontiac,MI,USA,48341,1618417179,1.21E+19,Pontiac Municipal,18,0
1.53E+15,The Links at Cyrstal Lake,800 Golf drive,Pontiac,MI,USA,48341,1618417205,1.22E+17,The Links at Cyrstal Lake,18,0
1.65E+15,Bird Creek GC,7850 N Van Dyke Rd,Port Austin,MI,USA,48467,1662114527,1.22E+17,18-hole course,18,1
1.22E+12,Willow Ridge Golf Course,3311 N River Rd,Port huron,Mi,USA,48059,1618417141,1.11E+14,9-hole course,9,1
1.23E+12,Black River Country Club,3300 Country Club Drive ,Port Huron,MI,USA,48060,1662531962,1.21E+14,Black River GC,18,1
1.42E+17,Port Huron Elks Golf Club,3292 Beach Rd,Port Huron,MI,USA,48060,1733160375,1.21E+19,Port Huron Elks,18,1
1.42E+17,Huron Shores Golf Course,1441 N Lakeshore Rd,Port Sanilac,MI,USA,48469,1695373214,1.21E+19,Huron Shores,18,1
1.42E+17,The Moors Golf Club,7877 Moors Bridge Rd,Portage,MI,USA,49024,1618417180,1.21E+19,The Moors,18,0
1.42E+17,Portland Country Club,4901 Divine Hwy,Portland,MI,USA,48875,1733583877,1.21E+19,Portland,18,1
1.51E+15,Willow Wood Golf Club,12227 Sandborn Rd,Portland,MI,USA,48875,1724349189,1.22E+17,18-hole course,18,1
1.42E+17,White Deer Country Club,1309 Bright Angel Drive,Prudenville,MI,USA,48651,1716623876,1.21E+19,18-hole course,18,1
1.42E+17,Moss Ridge Golf Club,13545 Apple Ave,Ravenna,MI,USA,49451,1733473798,1.21E+19,Moss Ridge,18,1
1.42E+17,Ravenna Golf Course,11566 Ravenna Heights Rd,Ravenna,MI,USA,49451,1618417204,1.21E+18,Ravenna Creeks,18,0
1.15E+12,Timberwood Golf Club,23700 31 Mile Road,Ray,MI,USA,48096,1618417131,1.21E+14,18-hole course,18,0
1.42E+17,Wolcott Mill Golf Course,21690 27 Mile Road,Ray,MI,USA,48096,1735295678,1.21E+19,Wolcott Mill Metropark,18,1
1.42E+17,Pine Valley Golf Club,16801 31 Mile Rd,Ray Township,MI,USA,48096,1618417143,1.11E+14,Pine Valley Golf Course - Red Course,9,0
1.42E+17,Pine Valley Golf Club,16801 31 Mile Rd,Ray Township,MI,USA,48096,1618417143,1.11E+14,Pine Valley Golf Course - Gold Course,9,0
1.42E+17,Pine Valley Golf Club,16801 31 Mile Rd,Ray Township,MI,USA,48096,1618417179,1.21E+19,Blue/Gold,18,0
1.42E+17,Pine Valley Golf Club,16801 31 Mile Rd,Ray Township,MI,USA,48096,1618417179,1.21E+19,Gold/Red,18,0
1.42E+17,Pine Valley Golf Club,16801 31 Mile Rd,Ray Township,MI,USA,48096,1618417179,1.21E+19,Red/Blue,18,0
1.42E+17,Western Country Club,14600 Kinloch Rd,Redford,MI,USA,48239,1618417212,1.21E+19,Western,18,1
1.42E+17,Glenhurst Golf Course,25345 W 6 Mile Rd,Redford,MI,USA,48240,1692260416,1.21E+19,Glenhurst,18,1
1.68E+15,County Line Golf Course and Driving Range,2278 South Reese Road,Reese,MI,USA,48757,1678777454,1.12E+17,County Line,9,0
1.42E+17,Gull Lake Country Club,9725 W Gull Lake Dr,Richland,MI,USA,49083,1687854828,1.21E+19,Gull Lake,18,1
1.42E+17,Richmond Forest Golf Course,32 Mile Rd,Richmond,MI,USA,48062,1632874723,1.21E+14,18-hole course,18,0
1.42E+17,Riverview Highlands Golf Club,15015 Sibley Rd,Riverview,MI,USA,48193,1618417179,1.21E+18,Red/Blue,18,0
1.42E+17,Riverview Highlands Golf Club,15015 Sibley Rd,Riverview,MI,USA,48193,1618417179,1.21E+19,Blue/Gold,18,0
1.42E+17,Riverview Highlands Golf Club,15015 Sibley Rd,Riverview,MI,USA,48193,1618417179,1.21E+19,Gold/Red,18,0
1.42E+17,Katke Cousins Golf Course,Oakland University,Rochester,MI,USA,48306,1721216274,1.21E+18,Katke-Cousins,18,1
1.42E+17,Katke Cousins Golf Course,Oakland University,Rochester,MI,USA,48306,1721317756,1.21E+19,R&S Sharf,18,1
1.42E+17,Great Oaks Country Club,777 Great Oaks Blvd,Rochester,MI,USA,48307,1693649259,1.21E+19,Great Oaks,18,1
1.53E+15,R&S Sharf Golf Course,492 Golf View Lane,Rochester,MI,USA,48309,1618417204,1.22E+17,R&S Sharf golf course,18,0
1.42E+17,Blackheath Golf Club,3311 Rochester Rd,Rochester Hills,MI,USA,48306,1662625464,1.21E+19,18-hole course,18,1
1.42E+17,The Wyndgate,1975 W Gunn Rd,Rochester Hills,MI,USA,48306,1618417180,1.21E+18,The Wyndgate,18,0
1.42E+17,Westwynd Golf ,4161 N Adams Rd,Rochester Hills,MI,USA,48306,1618417180,1.21E+19,Westwynd,18,0
1.42E+17,Hampton Golf Club,2600 Club Dr,Rochester Hills,MI,USA,48307,1695389703,1.11E+18,Hampton,9,1
1.42E+17,Rochester Hills Golf Course,655 Michelson Rd,Rochester Hills,MI,USA,48307,1618417179,1.21E+18,18-hole course,18,0
1.42E+17,Brookwood Golf Club,998 Brookwood Ln E,Rochester Hills,MI,USA,48309,1665207794,1.11E+19,9-hole course,9,1
1.42E+17,Brookwood Golf Club,998 Brookwood Ln E,Rochester Hills,MI,USA,48309,1652563404,1.21E+19,Alternate tees,18,0
1.42E+17,Pine Trace Golf Club,3600 Pine Trace Blvd,Rochester Hills,MI,USA,48309,1618417179,1.21E+19,Pine Trace,18,0
1.42E+17,Brae Side Golf Club at Cortland Hills,5460 11 Mile Rd NE,Rockford,MI,USA,49341,1618417178,1.21E+18,Brae Side at Cortland Hills,18,0
1.33E+15,Braeside Golf Club,5460 11 Mile Rd NE,Rockford,MI,USA,49341,1618417146,1.21E+14,Braeside,18,0
1.42E+17,North Kent Golf Course,11029 Stout Ave NE,Rockford,MI,USA,49341,1723567473,1.21E+19,North Kent,18,1
1.42E+17,Silver Lake Country Club,7901 Greenbrier Cir NE,Rockford,MI,USA,49341,1618417179,1.21E+19,Silver Lake,18,0
1.42E+17,Lake Erie Metropark Golf Course,32481 W Jefferson Ave,Rockwood,MI,USA,48173,1618417179,1.21E+19,Lake Erie Metropark,18,0
1.42E+17,Rogers City Country Club,4796 Golf Course Rd,Rogers City,MI,USA,49779,1618417179,1.21E+19,Rogers City,18,0
1.42E+17,Bruce Hills Golf Club,6771 Taft Rd,Romeo,MI,USA,48065,1665478402,1.21E+19,Bruce Hills,18,1
1.42E+17,Heather Hills Golf Club,3100 McKail Rd,Romeo,MI,USA,48065,1689769794,1.21E+19,18-hole course,18,1
1.42E+17,Greystone Golf Club,67500 Mound Rd,Romeo,MI,USA,48095,1687494089,1.21E+19,Greystone,18,1
1.42E+17,Gateway Golf Club,33290 Gateway Dr,Romulus,MI,USA,48174,1691207799,1.21E+19,Gateway,18,1
1.42E+17,Burning Oak Country Club,"4345 Redwood Dr, ",Roscommon,MI,USA,48653,1665982266,1.21E+19,Redwood,18,1
1.42E+17,Forest Dunes Golf Club,6376 Forest Dunes Drive,Roscommon,MI,USA,48653,1694593304,1.21E+17,Forest Dunes,18,1
1.42E+17,Forest Dunes Golf Club,6376 Forest Dunes Drive,Roscommon,MI,USA,48653,1713256037,1.22E+17,Loop - Red,18,1
1.42E+17,Forest Dunes Golf Club,6376 Forest Dunes Drive,Roscommon,MI,USA,48653,1713255555,1.22E+17,Loop - Black,18,1
1.45E+15,Redwood golf course,4345 Redwood Rd.,Roscommon,MI,USA,48653,1618417198,1.21E+17,18-hole course,18,0
1.42E+17,Thoroughbred Golf Club at Double JJ Resort,6886 Water Rd,Rothbury,MI,USA,49437,1618417153,1.21E+17,18-hole course,18,0
1.42E+17,Thoroughbred Golf Club at Double JJ Resort,6886 Water Rd,Rothbury,MI,USA,49437,1618417180,1.21E+19,Thoroughbred at Double JJ,18,0
1.42E+17,Red Run Golf Club,2036 Rochester Rd,Royal Oak,MI,USA,48073,1618417179,1.21E+19,Red Run,18,0
1.42E+17,Royal Oak Golf Club,3417 Don Soper Dr,Royal Oak,MI,USA,48073,1618417179,1.11E+17,Royal Oak,9,0
1.42E+17,Germania Town & Country Club,1 Germania Platz,Saginaw,MI,USA,48602,1692540698,1.21E+14,18-hole course,18,0
1.42E+17,The Sawmill Golf Club,19 Sawmill Creek,Saginaw,MI,USA,48603,1618417180,1.21E+19,The Sawmill,18,1
1.42E+17,Swan Valley Golf Course,9521 Highland Green Dr,Saginaw,MI,USA,48609,1618417179,1.21E+19,Swan Valley,18,0
1.42E+17,Saginaw Country Club,4465 Gratiot Rd,Saginaw,MI,USA,48638,1618417179,1.21E+19,Saginaw,18,0
1.54E+15,St. Clair Golf Club,1714 River Road,Saint Clair,MI,USA,48079,1618417205,1.22E+17,St. Clair Golf Club,18,0
1.42E+17,Brookside Golf Course,6451 Ann Arbor-Saline Rd,Saline,MI,USA,48176,1665131383,1.21E+19,18-hole course,18,1
1.42E+17,Rustic Glen Golf Course,12090 W Michigan Ave,Saline,MI,USA,48176,1618417205,1.21E+19,Rustic Glen,18,1
1.68E+14,Woodland Hills Golf Club,320 North Gates Road,Sandusky,MI,USA,48471,1678693839,1.22E+17,Woodland Hills,18,0
1.42E+17,Morrison Lake Country Club,6425 Portland Rd,Saranac,MI,USA,48881,1734073019,1.21E+19,Morrison Lake,18,1
1.42E+17,Clearbrook Golf Club,6494 Clearbrook Dr,Saugatuck,MI,USA,49453,1671433528,1.21E+19,Clearbrook,18,1
1.42E+17,Ravines Golf Club,3520 Palmer Drive,Saugatuck,MI,USA,49453,1618417179,1.21E+19,Ravines,18,0
1.42E+17,The Ravines,3520 Palmer Dr,Saugatuck,MI,USA,49453,1618417180,1.21E+19,The Ravines,18,0
1.42E+17,Sault Ste Marie Country Club,1520 Riverside Dr,Sault Ste Marie,MI,USA,49084,1618417147,1.21E+14,18-hole course,18,0
1.34E+15,Tanglewood Golf Course,2600 W. 16th Avenue,Sault Ste. Marie,MI,USA,49084,1618417147,1.21E+17,18-hole course,18,0
1.68E+15,Old Mill Golf Club,6101 W XY AVE,Schoolcraft,MI,USA,49087,1682478834,1.22E+16,18-hole course,18,1
1.68E+14,Olde Mill Golf Club,6101 West X Y Avenue,Schoolcraft,MI,USA,49087,1726164926,1.22E+17,18-hole course,18,1
1.42E+17,Olde Mill Golf Course,6101 W XY Ave,Schoolcraft,MI,USA,49087,1618417179,1.21E+19,Olde Mill,18,0
1.42E+17,Indian Run Golf Course,6359 E RS Ave,Scotts,MI,USA,49088,1734602142,1.21E+17,18-hole course,18,1
1.72E+15,Benona Shores, 3410 Scenic Dr,Shelby,MI,USA,49455,1719854907,1.22E+17,Benona Shores,18,0
1.42E+17,Oceana Country Club,3333 W Weaver Rd,Shelby,MI,USA,49455,1724954775,1.21E+19,Oceana,18,1
1.42E+17,Cherry Creek Golf Club,52000 Cherry Creek Dr,Shelby Township,MI,USA,49455,1669793453,1.21E+19,18-hole course,18,1
1.42E+17,Stony Creek Golf Course,5140 Main Park Way,Shelby Township,MI,USA,49455,1618417179,1.21E+19,Stony Creek,18,0
1.42E+17,Orchard Hills Golf Club,714 -125th Ave,Shelbyville,MI,USA,49344,1726847145,1.11E+19,Front + Front,18,1
1.42E+17,Orchard Hills Golf Club,714 -125th Ave,Shelbyville,MI,USA,49344,1726847145,1.21E+19,Front + Back,18,1
1.42E+17,Orchard Hills Golf Club,714 -125th Ave,Shelbyville,MI,USA,49344,1726847145,1.31E+19,Front + East,18,1
1.42E+17,Orchard Hills Golf Club,714 -125th Ave,Shelbyville,MI,USA,49344,1726847145,2.11E+19,Back + Front,18,1
1.42E+17,Orchard Hills Golf Club,714 -125th Ave,Shelbyville,MI,USA,49344,1726847145,2.21E+19,Back + Back,18,1
1.42E+17,Orchard Hills Golf Club,714 -125th Ave,Shelbyville,MI,USA,49344,1726847145,2.31E+19,Back + East,18,1
1.42E+17,Orchard Hills Golf Club,714 -125th Ave,Shelbyville,MI,USA,49344,1726847145,3.11E+19,East + Front,18,1
1.42E+17,Orchard Hills Golf Club,714 -125th Ave,Shelbyville,MI,USA,49344,1726847145,3.21E+19,East + Back,18,1
1.42E+17,Orchard Hills Golf Club,714 -125th Ave,Shelbyville,MI,USA,49344,1726847145,3.31E+19,East + East,18,1
1.42E+17,Winding Brook Golf Club,8240 S Genuine Rd,Shepherd,MI,USA,48883,1618417180,1.21E+19,Winding Brook,18,0
1.42E+17,Hawks Head Golf Club,523 HawksNest Drive,South Haven,MI,USA,49090,1618417144,1.21E+14,18-hole course,18,0
1.42E+17,South Haven Country Club,397 Adams Rd,South Haven,MI,USA,49090,1618417179,1.21E+19,South Haven,18,0
1.32E+12,The Beeches Golf Club,09601 68th Street,South Haven,MI,USA,49090,1618417148,1.21E+14,Beeches Golf Club,18,1
1.42E+17,River Bank Golf Club,20495 Currie Rd,South Lyon,MI,USA,48167,1618417179,1.21E+19,River Bank,18,0
1.42E+17,Cattails Golf Club,57737 W 9 Mile Rd,South Lyon,MI,USA,48178,1667964474,1.21E+19,Cattails,18,1
1.42E+17,Moose Ridge Golf Course,11801  Doane Rd.,South Lyon,MI,USA,48178,1733745078,1.21E+19,Moose Ridge,18,1
1.42E+17,Tanglewood The Lion,53503 W Ten Mile Rd,South Lyon,MI,USA,48178,1618417139,1.21E+14,North/SoutH,18,0
1.42E+17,Tanglewood The Lion,53503 W Ten Mile Rd,South Lyon,MI,USA,48178,1618417139,1.21E+14,South/West,18,0
1.42E+17,Tanglewood The Lion,53503 W Ten Mile Rd,South Lyon,MI,USA,48178,1618417147,1.21E+14,West/North,18,0
1.42E+17,Tanglewood The Lion,53503 W Ten Mile Rd,South Lyon,MI,USA,48178,1618417179,1.11E+19,North,9,0
1.42E+17,Tanglewood The Lion,53503 W Ten Mile Rd,South Lyon,MI,USA,48178,1618417179,1.11E+19,South,9,0
1.42E+17,Tanglewood The Lion,53503 W Ten Mile Rd,South Lyon,MI,USA,48178,1618417179,1.11E+19,West,9,0
1.42E+17,Walnut Creek Country Club,25501 Johns Rd,South Lyon,MI,USA,48178,1618417180,1.21E+19,South/West,18,0
1.42E+17,Walnut Creek Country Club,25501 Johns Rd,South Lyon,MI,USA,48178,1618417180,1.21E+19,West/North,18,0
1.42E+17,Walnut Creek Country Club,25501 Johns Rd,South Lyon,MI,USA,48178,1618417180,1.21E+19,North/South,18,0
1.42E+17,Wesburn Golf & Country Club,5617 S Huron River Dr,South Rockwood,MI,USA,48179,1677663083,1.21E+19,Wesburn,18,0
1.42E+17,Plum Hollow Country Club,21631 Lahser Rd,Southfield,MI,USA,48033,1728056172,1.21E+19,Plum Hollow,18,1
1.42E+17,Evergreen Hills Golf Club,26000 Evergreen Rd,Southfield,MI,USA,48076,1685781581,1.11E+19,9-hole course,9,1
1.42E+17,Southgate Municipal Golf Club,14600 Reaume Pkwy,Southgate,MI,USA,48195,1618417179,1.21E+19,Southgate Municipal,18,0
1.42E+17,Grand Rapids/Sparta Moose Family Center and Privat,11510 N Division ,Sparta,MI,USA,49345,1687329735,1.11E+19,Grand Rapids Sparta Moose,9,1
1.42E+17,Rogue River Golf Course,12994 Paine Ave,Sparta,MI,USA,49345,1618417179,1.21E+18,Rogue River,18,0
1.42E+17,Spring Lake Country Club,17496 Fruitport Rd,Spring Lake,MI,USA,49456,1618417179,1.21E+19,Spring Lake,18,1
1.19E+12,Begg Park Disc Golf Course,53 Military Street,Springfield,MI,USA,49037,1618417137,1.21E+14,18-hole course,18,0
1.42E+17,St Clair River Country Club,1714 N River Rd,St. Clair,MI,USA,48079,1618417179,1.21E+19,St Clair River,18,0
1.42E+17,St Clair Shores Country Club,22185 Masonic Blvd,St. Clair Shores,MI,USA,48082,1618417179,1.21E+14,18-hole course,18,0
1.42E+17,St Ignace Golf & Country Club,West US 2,St. Ignace,MI,USA,49781,1618417179,1.11E+19,St Ignace,9,0
1.42E+17,The Emerald at Maple Creek,8103 N US Hwy 27,St. Johns,MI,USA,48879,1618417179,1.21E+19,18-hole course,18,0
1.42E+17,Twin Oaks Golf Course,6345 N US Hwy 27,St. Johns,MI,USA,48879,1618417180,1.11E+19,Twin Oaks,9,0
1.42E+17,Hidden Oaks Golf Course,1270 W Monroe Rd,St. Louis,MI,USA,48880,1705760761,1.21E+19,Hidden Oaks,18,1
1.42E+17,Pine River Golf Course,2244 Pine River Rd,Standish,MI,USA,48658,1726588549,1.21E+19,Pine River,18,1
1.42E+17,Tullymore Golf Club at St Ives Resort,11969 Tullymore Dr,Stanwood,MI,USA,49346,1661031896,1.21E+14,TULLYMORE,18,1
1.42E+17,Tullymore Golf Club at St Ives Resort,11969 Tullymore Dr,Stanwood,MI,USA,49346,1618417147,1.21E+17,St Ives,18,0
1.42E+17,Tullymore Golf Club at St Ives Resort,11969 Tullymore Dr,Stanwood,MI,USA,49346,1618417180,1.21E+19,Tullymore at St Ives,18,0
1.42E+17,Maple Lane Golf Club,33203 Maple Ln Rd,Sterling Heights,MI,USA,48312,1618417130,1.21E+14,North Course,18,0
1.42E+17,Maple Lane Golf Club,33203 Maple Ln Rd,Sterling Heights,MI,USA,48312,1618417132,1.21E+14,Red,18,0
1.42E+17,Maple Lane Golf Club,33203 Maple Ln Rd,Sterling Heights,MI,USA,48312,1618417132,1.21E+14,Blue,18,0
1.42E+17,Maple Lane Golf Club,33203 Maple Ln Rd,Sterling Heights,MI,USA,48312,1618417132,1.21E+14,White,18,0
1.42E+17,Maple Lane Golf Club,33203 Maple Ln Rd,Sterling Heights,MI,USA,48312,1722879601,1.21E+19,East,18,1
1.42E+17,Maple Lane Golf Club,33203 Maple Ln Rd,Sterling Heights,MI,USA,48312,1722880769,1.21E+19,North,18,1
1.42E+17,Maple Lane Golf Club,33203 Maple Ln Rd,Sterling Heights,MI,USA,48312,1722959115,1.21E+19,West,18,1
1.42E+17,Plum Brook Golf Club,13390 Plumbrook Dr,Sterling Heights,MI,USA,48312,1728051519,1.21E+19,Plum Brook,18,1
1.14E+12,Plumbrook Golf Club,13390 Plumbrook Drive,Sterling Heights,MI,USA,48312,1729873828,1.21E+14,18-hole course,18,1
1.42E+17,Rammler Golf Club,38180 Utica Rd,Sterling Heights,MI,USA,48312,1618417179,1.11E+18,Par 3,9,0
1.42E+17,Rammler Golf Club,38180 Utica Rd,Sterling Heights,MI,USA,48312,1618417179,1.21E+19,Regulation,18,0
1.42E+17,Sunnybrook Golf Club,7191 17 Mile Rd,Sterling Heights,MI,USA,48313,1618417179,1.11E+19,Orange,9,0
1.42E+17,Sunnybrook Golf Club,7191 17 Mile Rd,Sterling Heights,MI,USA,48313,1618417179,1.11E+19,Red,9,0
1.42E+17,Sunnybrook Golf Club,7191 17 Mile Rd,Sterling Heights,MI,USA,48313,1618417179,1.11E+19,Green,9,0
1.42E+17,Green Valley Golf Course,25379 Fawn River Rd,Sturgis,MI,USA,49091,1686995666,1.21E+19,Green Valley,18,1
1.42E+17,St Joe Valley Golf Club,24953 M-86,Sturgis,MI,USA,49091,1618417179,1.21E+19,St Joe Valley,18,1
1.42E+17,Centennial Acres Golf Club,12485 Dow Rd,Sunfield,MI,USA,48890,1674212609,1.11E+18,Sunrise + Sunrise,18,1
1.42E+17,Centennial Acres Golf Club,12485 Dow Rd,Sunfield,MI,USA,48890,1674212609,1.21E+18,Sunrise + Midday,18,1
1.42E+17,Centennial Acres Golf Club,12485 Dow Rd,Sunfield,MI,USA,48890,1674212609,1.31E+18,Sunrise + Sunset,18,1
1.42E+17,Centennial Acres Golf Club,12485 Dow Rd,Sunfield,MI,USA,48890,1674212609,2.11E+18,Midday + Sunrise,18,1
1.42E+17,Centennial Acres Golf Club,12485 Dow Rd,Sunfield,MI,USA,48890,1674212609,2.21E+18,Midday + Midday,18,1
1.42E+17,Centennial Acres Golf Club,12485 Dow Rd,Sunfield,MI,USA,48890,1674212609,2.31E+18,Midday + Sunset,18,1
1.42E+17,Centennial Acres Golf Club,12485 Dow Rd,Sunfield,MI,USA,48890,1674212609,3.11E+18,Sunset + Sunrise,18,1
1.42E+17,Centennial Acres Golf Club,12485 Dow Rd,Sunfield,MI,USA,48890,1674212609,3.21E+18,Sunset + Midday,18,1
1.42E+17,Centennial Acres Golf Club,12485 Dow Rd,Sunfield,MI,USA,48890,1674212609,3.31E+18,Sunset + Sunset,18,1
1.42E+17,Hickory Creek Golf Club,3625 Napier Rd,Superior Township,MI,USA,48198,1705051503,1.21E+19,Hickory Creek,18,1
1.42E+17,Leelanau Club at Bahle Farms,9505 Otto Rd,Suttons Bay,MI,USA,49682,1714589242,1.21E+19,Leelanau at Bahle Farms,18,1
1.42E+17,Genesee Valley Meadows,5499 Miller Rd,Swartz Creek,MI,USA,48473,1691605031,1.21E+19,Genesee Valley Meadows,18,1
1.42E+17,Singing Bridge Golf Course,1920 Noble Rd,Tawas City,MI,USA,48763,1618417179,1.21E+19,Singing Bridge,18,0
1.42E+17,Tawas Creek Golf Club,1022 Monument Rd,Tawas City,MI,USA,48763,1618417179,1.21E+19,Tawas Creek,18,0
1.42E+17,Lakes of Taylor Golf Club,25505 Northline Rd,Taylor,MI,USA,48180,1701876695,1.21E+14,18-hole course,18,1
1.42E+17,Taylor Meadows Golf Club,25360 Ecorse Rd,Taylor,MI,USA,48180,1618417179,1.21E+19,Taylor Meadows,18,0
1.42E+17,Raisin Valley Golf Club ,4057 Comfort Rd,Tecumseh,MI,USA,49286,1627955554,1.21E+19,Raisin Valley ,18,1
1.42E+17,Tecumseh Country Club,5200 Milwaukee Rd,Tecumseh,MI,USA,49286,1618417179,1.21E+19,Hantz,18,0
1.42E+17,Bedford Hills Golf Club,6400 Jackman Rd,Temperance,MI,USA,48182,1665218071,1.11E+19,Buckeye + Buckeye,18,1
1.42E+17,Bedford Hills Golf Club,6400 Jackman Rd,Temperance,MI,USA,48182,1665218071,1.21E+19,Buckeye + Wolverine,18,1
1.42E+17,Bedford Hills Golf Club,6400 Jackman Rd,Temperance,MI,USA,48182,1665218071,1.31E+19,Buckeye + Irish,18,1
1.42E+17,Bedford Hills Golf Club,6400 Jackman Rd,Temperance,MI,USA,48182,1665218071,2.11E+19,Wolverine + Buckeye,18,1
1.42E+17,Bedford Hills Golf Club,6400 Jackman Rd,Temperance,MI,USA,48182,1665218071,2.21E+19,Wolverine + Wolverine,18,1
1.42E+17,Bedford Hills Golf Club,6400 Jackman Rd,Temperance,MI,USA,48182,1665218071,2.31E+19,Wolverine + Irish,18,1
1.42E+17,Bedford Hills Golf Club,6400 Jackman Rd,Temperance,MI,USA,48182,1665218071,3.11E+19,Irish + Buckeye,18,1
1.42E+17,Bedford Hills Golf Club,6400 Jackman Rd,Temperance,MI,USA,48182,1665218071,3.21E+19,Irish + Wolverine,18,1
1.42E+17,Bedford Hills Golf Club,6400 Jackman Rd,Temperance,MI,USA,48182,1665218071,3.31E+19,Irish + Irish,18,1
1.42E+17,Giant Oaks Golf Club,1024 Valetta Dr,Temperance,MI,USA,48182,1685116272,1.21E+18,Giant Oaks,18,1
1.42E+17,Crystal Mountain Resort,12500 Crystal Mountain Dr,Thompsonville,MI,USA,49683,1680687289,1.21E+19,Mountain Ridge,18,1
1.42E+17,Crystal Mountain Resort,12500 Crystal Mountain Dr,Thompsonville,MI,USA,49683,1680687093,1.21E+19,Betsie Valley,18,1
1.42E+17,Pine View Golf Club,52065 Pulver Rd,Three Rivers,MI,USA,49093,1618417180,1.21E+19,Hemlock,18,0
1.42E+17,Pine View Golf Club,52065 Pulver Rd,Three Rivers,MI,USA,49093,1618417180,1.21E+19,Spruce,18,0
1.42E+17,Sauganash Country Club,616270 Lutz Rd,Three Rivers,MI,USA,49093,1618417179,1.21E+19,Sauganash,18,1
1.42E+17,Wyandotte Hills Golf Club,5755 Poyhonen Rd,Toivola,MI,USA,49965,1618417180,1.11E+19,Wyandotte Hills,9,0
1.21E+12,Hickory Hills Disc Golf,2000 Randolph Street,Traverse City,MI,USA,49684,1618417134,1.21E+14,18-hole course,18,0
1.42E+17,Traverse City Golf & Country Club,1725 S Union St,Traverse City,MI,USA,49684,1618417180,1.21E+19,Traverse City,18,0
1.42E+17,Crown Golf Course,2430 W Crown Dr,Traverse City,MI,USA,49685,1677233666,1.21E+19,Crown,18,1
1.62E+15,The Crown Golf Club,2430 West Crown Dr.,Traverse City,MI,USA,49685,1633816496,1.22E+17,18-hole course,18,1
1.42E+17,Elmbrook Golf Course,1750 Townline Rd.,Traverse City,MI,USA,49696,1684973314,1.21E+19,Elmbrook,18,1
1.42E+17,Sanctuary Lake Golf Course,1450 East South Boulevard,Troy,MI,USA,48085,1618417179,1.21E+19,Sanctuary Lake,18,0
1.42E+17,Sylvan Glen Municipal Golf Club,5725 Rochester Rd,Troy,MI,USA,48085,1618417179,1.21E+19,Sylvan Glen,18,0
1.42E+17,Stonegate Golf Club,4100 Sweeter Rd,Twin Lake,MI,USA,49457,1618417179,1.21E+18,Stonegate,18,0
1.42E+17,Ubly Heights Golf and Country Club,2409 E Atwater Rd,Ubly,MI,USA,48475,1618417180,1.21E+19,Ubly Heights,18,0
1.42E+17,Black Bear Golf Resort,1500 W Alexander Rd,Vanderbilt,MI,USA,49795,1662435521,1.21E+19,18-hole course,18,1
1.42E+17,The Timbers Golf Club,7300 Bray Rd,Vassar,MI,USA,48768,1618417180,1.21E+19,The Timbers,18,1
1.42E+17,Vassar Golf & Country Club,3509 S Kirk Rd,Vassar,MI,USA,48768,1618417180,1.21E+19,Vassar,18,1
1.56E+15,Willow Springs ,7335 Oak Rd,Vassar,MI,USA,48768,1618417207,1.22E+17,Willow Springs Golf & Country,18,1
1.42E+17,Angels Crossing Golf Club,3600 East W Avenue,Vicksburg,MI,USA,49097,1656562044,1.21E+19,East,18,1
1.42E+17,States Golf Course,20 E W Ave,Vicksburg,MI,USA,49097,1618417179,1.21E+19,States,18,0
1.42E+17,Leaning Tree Golf Club,7860 Smith Creek Rd,Wales,MI,USA,48027,1714543320,1.21E+18,Leaning Tree,18,1
1.42E+17,El Dorado Country Club,2869 N Pontiac Trl,Walled Lake,MI,USA,48390,1618417179,1.21E+19,El Dorado,18,0
1.59E+15,Springbrook Golf Club,6151 Springvale Rd.,Walloon Lake ,MI,USA,49796,1618417210,1.22E+17,18-hole course,18,1
1.26E+12,Glacier Club,8000 Glacier Club Drive,Washington,MI,USA,48094,1618417139,1.21E+14,18-hole course,18,0
1.42E+17,Glacier Club,8000 Glacier Club Dr,Washington,MI,USA,48094,1692561945,1.21E+19,18-hole course,18,1
1.42E+17,The Orchards Golf Club,62900 Campground Rd,Washington,MI,USA,48094,1618417180,1.21E+14,18-hole course,18,0
1.42E+17,Romeo Golf & Country Club,14600 E 32 Mile Rd,Washington,MI,USA,48095,1618417179,1.21E+19,North,18,0
1.42E+17,Romeo Golf & Country Club,14600 E 32 Mile Rd,Washington,MI,USA,48095,1618417179,1.21E+19,South,18,0
1.42E+17,Pontiac Country Club,4335 Elizabeth Lake Rd,Waterford,MI,USA,48328,1732882228,1.21E+17,pontiac country club,18,1
1.42E+17,Pontiac Country Club,4335 Elizabeth Lake Rd,Waterford,MI,USA,48328,1618417179,1.21E+19,Pontiac,18,0
1.47E+15,Silver Lake Golf Club,2602 West Walton Boulevard,Waterford Township,MI,USA,48329,1618417199,1.11E+17,silver lake,9,0
1.42E+17,New Paw Paw Lake Golf Club,4548 Forest Beach Rd,Watervliet,MI,USA,49098,1658185255,1.22E+17,18-hole course,18,0
1.42E+17,New Paw Paw Lake Golf Club,4548 Forest Beach Rd,Watervliet,MI,USA,49098,1723299743,1.21E+19,New Paw Paw Lake,18,1
1.46E+15,Yankee Springs Golf Course,12300 Bowens Mill Road,Wayland,MI,USA,49348,1723978216,1.11E+17,Red + Red,18,1
1.46E+15,Yankee Springs Golf Course,12300 Bowens Mill Road,Wayland,MI,USA,49348,1723978216,1.21E+17,Red + Gold,18,1
1.46E+15,Yankee Springs Golf Course,12300 Bowens Mill Road,Wayland,MI,USA,49348,1723978216,1.31E+17,Red + White,18,1
1.46E+15,Yankee Springs Golf Course,12300 Bowens Mill Road,Wayland,MI,USA,49348,1723978216,2.11E+17,Gold + Red,18,1
1.46E+15,Yankee Springs Golf Course,12300 Bowens Mill Road,Wayland,MI,USA,49348,1723978216,2.21E+17,Gold + Gold,18,1
1.46E+15,Yankee Springs Golf Course,12300 Bowens Mill Road,Wayland,MI,USA,49348,1723978216,2.31E+17,Gold + White,18,1
1.46E+15,Yankee Springs Golf Course,12300 Bowens Mill Road,Wayland,MI,USA,49348,1723978216,3.11E+17,White + Red,18,1
1.46E+15,Yankee Springs Golf Course,12300 Bowens Mill Road,Wayland,MI,USA,49348,1723978216,3.21E+17,White + Gold,18,1
1.46E+15,Yankee Springs Golf Course,12300 Bowens Mill Road,Wayland,MI,USA,49348,1723978216,3.31E+17,White + White,18,1
1.42E+17,The Woodlands of Van Buren,39670 Ecorse Rd,Wayne,MI,USA,48184,1618417180,1.21E+19,Woodlands,18,0
1.42E+17,Oak Lane Golf Course,800 N Main,Webberville,MI,USA,48892,1724175522,1.21E+19,Oak Lane,18,1
1.32E+12,Fawn Crest Golf Course,553 Seaman Rd,Wellston,MI,USA,49689,1686886321,1.11E+14,Fawn Crest Golf Course,9,1
1.42E+17,Knollwood Country Club,5050 W Maple Rd,West Bloomfield,MI,USA,48322,1698075768,1.21E+19,Knollwood,18,1
1.42E+17,Shenandoah Golf Course,5600 Walnut Lake Rd,West Bloomfield,MI,USA,48323,1618417179,1.21E+19,Shenandoah,18,0
1.42E+17,Tam O Shanter Country Club,5051 Orchard Lake Rd,West Bloomfield,MI,USA,48323,1618417179,1.21E+19,Tam-O-Shanter,18,0
1.42E+17,Twin Beach Country Club,7625 Glascott Rd,West Bloomfield,MI,USA,48323,1676531387,1.21E+14,18-hole course,18,0
1.42E+17,Twin Beach Country Club,7625 Glascott Rd,West Bloomfield,MI,USA,48323,1618417180,1.21E+19,Twin Beach,18,0
1.34E+15,Bay Pointe GC,4001 Haggerty Road,West Bloomfield Twp,MI,USA,48323,1659013886,1.21E+17,18-hole course,18,1
1.42E+17,The Dream Golf Course,5266 Old 76 Hwy,West Branch,MI,USA,48661,1618417179,1.21E+19,The Dream,18,0
1.42E+17,The Nightmare Golf Course,5745 Old 76 Hwy,West Branch,MI,USA,48661,1618417180,1.21E+19,The Nightmare,18,0
1.59E+14,West Branch Country Club,1905 Fairview Road,West Branch,MI,USA,48661,1618417211,1.22E+16,18-hole course,18,0
1.42E+17,Pigeon Creek Golf Club,10195 120th Ave,West Olive,MI,USA,49460,1724683522,1.21E+18,18-hole course,18,0
1.18E+12,Pigeon Creek Golf Course,10195 120th Avenue,West Olive,MI,USA,49460,1618417132,1.21E+14,18-hole course,18,0
1.42E+17,Wuskowhan Players Club,16111 Blair Street,West Olive,MI,USA,49460,1723664967,1.21E+14,18-hole course,18,1
1.25E+12,Mack Mayfield Municipal Golf Course,500 South Merriman,Westland,MI,USA,48186,1722017374,1.11E+14,9-hole course,9,1
1.42E+17,Westland Municipal Golf Club,500 S Merriman Rd,Westland,MI,USA,48186,1618417180,1.11E+19,Westland Municipal,9,0
1.42E+17,Brentwood Golf & Country Club,2450 Havenwood,White Lake,MI,USA,48383,1664287573,1.21E+19,Brentwood,18,1
1.42E+17,Indian Springs Metropark Golf Club,5100 Indian Trl,White Lake,MI,USA,48386,1696421426,1.21E+19,Indian Springs Metropark,18,1
1.43E+15,White Lake Oaks Golf Course and Event Center,991 North Williams Lake Road,White Lake charter Township,MI,USA,48386,1724356308,1.21E+16,White Lake Oaks,18,1
1.42E+17,Bent Pine Golf Club,2480 Duck Lake Rd,Whitehall,MI,USA,49461,1661406736,1.21E+19,Bent Pine,18,1
1.42E+17,Hickory Knoll Golf Course,3065 Alice Street,Whitehall,MI,USA,49461,1729067087,1.21E+19,White/Blue,18,1
1.42E+17,Hickory Knoll Golf Course,3065 Alice Street,Whitehall,MI,USA,49461,1729066779,1.21E+19,Gold/Red,18,1
1.31E+12,White Lake Golf Club,6777 South Shore Drive,Whitehall,MI,USA,49461,1618417143,1.21E+14,18-hole course,18,1
1.42E+17,Rolling Meadows Country Club,6484 Sutton Rd,Whitmore Lake,MI,USA,48189,1618417179,1.21E+19,Rolling Meadows,18,0
1.42E+17,The Links at Whitmore Lake,1111 6 Mile Rd,Whitmore Lake,MI,USA,48189,1618417180,1.21E+18,Whitmore Lake,18,0
1.42E+17,The Club at Lochenheath ,7951 Turnberry Cr,Williamsburg,MI,USA,49690,1618417179,1.21E+19,Lochenheath ,18,0
1.42E+17,Brookshire Inn & Golf Club,205 W Church St,Williamston,MI,USA,48895,1665122059,1.21E+19,Brookshire Inn,18,1
1.42E+17,Wheatfield Valley Golf Club,1600 Linn Rd,Williamston,MI,USA,48895,1618417180,1.21E+19,Wheatfield Valley,18,0
1.42E+17,Hickory Hill Golf Club,2307 Orland,Wixom,MI,USA,48393,1705056496,1.11E+19,Hickory Hill,9,1
1.42E+17,Lyon Oaks Golf Course,52251 Pontiac Trl,Wixom,MI,USA,48393,1732018285,1.21E+14,18-hole course,18,1
1.42E+17,Wildwood Lakes Golf Course,3914 Second Rd,Wolverine,MI,USA,49799,1618417180,1.11E+19,Wildwood Lakes,9,0
1.42E+17,Wyandotte Shores Golf Club,3625 Biddle Ave,Wyandotte,MI,USA,48192,1723664896,1.11E+19,Wyandotte Shores,9,1
1.42E+17,L E Kaufman Golf Course,4807 Clyde Park Sw,Wyoming,MI,USA,49509,1618417131,1.21E+14,18-hole course,18,0
1.42E+17,The Pines Golf Course,5050 Byron Center Ave SW,Wyoming,MI,USA,49519,1618417131,1.21E+14,18-hole course,18,0
1.42E+17,The Pines Golf Course,5050 Byron Center Ave SW,Wyoming,MI,USA,49519,1618417180,1.21E+19,The Pines,18,0
1.42E+17,Eagle Crest Golf Club,1275 S Huron St,Ypsilanti,MI,USA,48197,1656015525,1.21E+19,18-hole course,18,1
1.42E+17,Pine View Golf Club,5820 Stony Creek Rd,Ypsilanti,MI,USA,48197,1618417179,1.21E+19,Championship,18,0
1.42E+17,Pine View Golf Club,5820 Stony Creek Rd,Ypsilanti,MI,USA,48197,1618417179,1.11E+19,Little Pine Nine,9,0
1.42E+17,Washtenaw Golf Club,2955 Packard Rd,Ypsilanti,MI,USA,48197,1618417208,1.21E+19,Washtenaw,18,1
1.42E+17,Green Oaks Golf Course,1775 E Clark Rd,Ypsilanti,MI,USA,48198,1686979700,1.21E+19,Green Oaks,18,1
1.42E+17,Crestview Golf Course,6279 96th Ave,Zeeland,MI,USA,49464,1679306802,1.21E+19,Crestview,18,1
