address,city,state,zip_code
2120 Traver Road,Ann Arbor,MI,48105
627 Ag A Ming Drive,Kewadin,MI,49648
1135 Golf Course Road,Alpena,MI,49707
6320 Alpine NW,Comstock Park,MI,49321
1225 S Kalamazoo Ave,Marshall,MI,49068
3600 East W Avenue,Vicksburg,MI,49097
5441 W. M-115,Mesick,MI,49649
1426 Arbor Hills Rd,Jackson,MI,49201
14710 Northwood Hwy,Arcadia,MI,49613
2170 Alden Nash NE,Lowell,MI,49331
3350 Kern Rd,Lake Orion,MI,48360
318 Country Club Dr,Battle Creek,MI,49015
5800 Coastal Ridge Drive,Bay Harbor,MI,48435
4001 Haggerty Road,West Bloomfield Twp,MI,48323
2470 Old Bridge Road,Bay City,Mi,48706
4600 N River Rd,Freeland,MI,48623
6011 Majestic Oaks Dr,Commerce Township,MI,48382
850 Stoney Creek Rd,Oakland,MI,48363
6400 Jackman Rd,Temperance,MI,48182
23161 Waubascon Road,Battle Creek,MI,49017
7494 Hospital Rd,Freeland,MI,48623
53 Military Street,Springfield,MI,49037
608 One Straight Drive,Coldwater,MI,49036
3388 West Eddy School Road,Bellaire,MI,49615
12564 Belle River Road  ,Memphis,MI,48041
23650 23 Mile Rd,Macomb,MI,48042
5731 Marion Center Road,Charlevoix,MI,49665
 3410 Scenic Dr,Shelby,MI,49455
2480 Duck Lake Rd,Whitehall,MI,49461
690 W Napier Ave,Benton Harbor,MI,49022
7255 B Drive South,Battle Creek,MI,49014
600 Birchwood Dr,Harbor Springs,MI,49740
7850 N Van Dyke Rd,Port Austin,MI,48467
1750 Saxon Dr,Birmingham,MI,48009
1500 W Alexander Rd,Vanderbilt,MI,49795
6500 Nicklaus Dr,Gaylord,MI,49735
2800 Maxon Road,Onaway,MI,49765
3300 Country Club Drive ,Port Huron,MI,48060
3311 Rochester Rd,Rochester Hills,MI,48306
350 W Long Lake Rd,Bloomfield Hills,MI,48304
1565 Britain Ave,Benton Harbor,MI,49022
5801 Northland Dr,Belmont,MI,49306
5750 Brewer Ave NE,Belmont,MI,49306
52100 Fairchild Rd,Chesterfield,MI,48616
1 Champions Circle,Oxford,MI,48371
600 Highlands Dr,Harbor Springs,MI,49740
1 Boyne Mountain Rd,Boyne Falls,MI,49713
10860 W Five Mile Rd,Plymouth,MI,48168
5460 11 Mile Rd NE,Rockford,MI,49341
2154 Bramblewood Dr,Holly,MI,48442
215 Branson Bay Dr,Mason,MI,48854
2450 Havenwood,White Lake,MI,48383
399 84th Street Southeast,Byron Center,MI,49315
950 W 40th St,Fremont,MI,49412
11099 W Dodge Rd,Montrose,MI,48457
2900 92nd St SE,Caledonia,MI,49316
12559 Bagley Ave,Grant,MI,49327
7725 Kraft Ave SE,Caledonia,MI,49316
205 W Church St,Williamston,MI,48895
6451 Ann Arbor-Saline Rd,Saline,MI,48176
6045 Davison Rd,Burton,MI,48509
998 Brookwood Ln E,Rochester Hills,MI,48309
1339 Rynearson Rd,Buchanan,MI,49107
6771 Taft Rd,Romeo,MI,48065
1559 S Chipewa Rd,Mt. Pleasant,MI,48858
"4345 Redwood Dr, ",Roscommon,MI,48653
22871 21 Mile Rd,Macomb,MI,48044
3491 N Parma Rd,Parma,MI,49269
5510 M-55,Cadillac,MI,49601
4490 WIllis Rd,Grass Lake,MI,49240
54270 Golf Course Rd,Calumet,MI,49913
10690 Pierce Road,Canadian Lakes,MI,48187
8100 N Storey Rd,Belding,MI,48809
1000 Woodfield Dr,Grand Blanc,MI,48439
13470 Grafton Rd,Carleton,MI,48117
911 St James Park Ave,Monroe,MI,48161
3725 Cascade Rd SE,Grand Rapids,MI,49546
1992 Warren Ave,Jackson,MI,49203
5191 Lum Rd,Lum,MI,48412
57737 W 9 Mile Rd,South Lyon,MI,48178
7551 - 17 Mile Rd NE,Cedar Springs,MI,49318
14000 Renton Rd,Battle Creek,MI,49015
12111 S Helmer Rd,Battle Creek,MI,49015
36860 Twenty Five Mile Rd,New Baltimore,MI,48047
3757 N Weaver Rd,Comins,MI,48619
12485 Dow Rd,Sunfield,MI,48890
5640 N Adrian Hwy,Adrian,MI,49221
501 N Marshall Rd,Beulah,MI,49617
12801 Chandler Park Dr,Detroit,MI,48213
4646 E Howe Rd,Bath,MI,48808
9600 Clubhouse Dr,Charlevoix,MI,49720
400 Fairway Drive,Charlevoix,MI,49720
2454 Putnam Rd,Muskegon,MI,49445
1431 Old Mackinaw Rd,Cheboygan,MI,49721
3125 Golf Club Rd,Howell,MI,48843
52000 Cherry Creek Dr,Shelby Township,MI,49455
7910 Whiteford Center Rd,Ottawa Lake,MI,49267
3829 102nd Ave,Allegan,MI,49010
7700 Glovers Lake Road,Bear Lake,MI,49614
1875 Clubhouse Dr,Harbor Springs,MI,49740
15029 Lakeside Rd,Lakeside,MI,49116
2395 S Washington Rd,Lansing,MI,48911
125 Chocolay Downs Dr,Marquette,MI,49855
14777 150th Ave,Big Rapids,MI,49307
6494 Clearbrook Dr,Saugatuck,MI,49453
13141 N Linden Rd,Clio,MI,48420
7331 Pulaski Rd,Concord,MI,49237
27925 Golf Pointe Blvd,Farmington Hills,MI,48331
2125 Lakeville Rd,Oxford,MI,48370
8475 Atherton Rd,Davison,MI,48423
1840 Cornell Road,Corunna,MI,48867
220 Country Club Dr,Grosse Pointe Farms,MI,48236
3135 Horton Rd,Jackson,MI,49203
2200 Moores River Dr,Lansing,MI,48911
11903 Chippewa Hwy,Bear Lake,MI,49614
2278 South Reese Road,Reese,MI,48757
28700 Milford Rd,New Hudson,MI,48165
9218 Preserve Dr,Fenton,MI,48430
18215 24 Mile Rd,Macomb,MI,48042
900 D Avenue West,Kalamazoo,MI,49009
6279 96th Ave,Zeeland,MI,49464
5123 St Anthony Rd,Ottawa Lake,MI,49267
600 Crooked Tree Dr,Petoskey,MI,49770
2430 W Crown Dr,Traverse City,MI,49685
8493 Fairway Dr,Beulah,MI,49617
12500 Crystal Mountain Dr,Thompsonville,MI,49683
7177 Kalamazoo Ave SE,Caledonia,MI,49316
1006 Currie Pkwy,Midland,MI,48640
9512 Lippincott,Davison,MI,48423
800 N Military St,Dearborn,MI,48124
1300 S Telegraph Rd,Dearborn,MI,48124
13955 Cascade SE,Lowell,MI,49331
17655 Albain Rd,Petersburg,MI,49270
17911 Hamilton Rd,Detroit,MI,48203
14600 US 223,Manitou Beach,MI,49253
3700 Metamora Rd,Oxford,MI,48371
M-60 East,Cassopolis,MI,49031
3400 34th Street,Hamilton,MI,49419
8145 W 7 Mile Rd,Northville,MI,48167
6489 W Empire Hwy,Empire,MI,49630
13561 Dunham Rd,Hartland,MI,48353
9031 Boyne City Rd,Charlevoix,MI,49712
8500 E Lansing Rd,Durand,MI,48429
1275 S Huron St,Ypsilanti,MI,48197
1550 Chandler Road,Bath,Mi,48808
1251 Clubhouse Dr,Farwell,MI,48622
800 S Milliron Rd,Muskegon,MI,49442
3501 State Road,Glennie,MI,48737
6075 E G Ave,Kalamazoo,MI,49004
8399 Commerce Rd,Commerce Township,MI,48382
7333 Knapp St NE,Ada,MI,49301
2869 N Pontiac Trl,Walled Lake,MI,48390
7839 E 46 1/2 Rd,Cadillac,MI,49601
3750 W Howell Rd,Mason,MI,48854
3750 West Howell Road,Mason,MI,48854
724 Ames St,Elk Rapids,MI,49629
9400 Rouse Rd,Atlanta,MI,49709
1750 Townline Rd.,Traverse City,MI,49696
6867 E M-42,Manton,MI,49663
1800 10th Ave S,Escanaba,MI,49829
10125 Osborn St,Grand Haven,MI,49417
26000 Evergreen Rd,Southfield,MI,48076
13120 Northland Dr,Big Rapids,MI,49307
37777 Eleven mile court ,Farmington Hills ,Mi,48331
300 S Hughes Rd,Howell,MI,48843
553 Seaman Rd,Wellston,MI,49689
2936 Lotz Rd,Canton,MI,48188
12312 S Torrey Rd,Fenton,MI,48430
17600 Clinton River Rd,Clinton Township,MI,48038
1984 Taylor Rd,Auburn Hills,MI,48326
7795 S Clare Ave,Clare,MI,48617
7177 E Maple Ave,Grand Blanc,MI,48439
3100 Lakewood Dr,Flint,MI,48507
1124 E Main St,Flushing,MI,48433
2231 South Harrison Road,East Lansing,MI,48823
3535 Forest Rd Lansing,East Lansing,MI,48823
6376 Forest Dunes Drive,Roscommon,MI,48653
1401 Club Dr,Bloomfield Hills,MI,48302
6060 Maybee Rd,Clarkston,MI,48346
22786 US Hwy 12 E,Edwardsburg,MI,49112
36000 Seven Mile Rd,Livonia,MI,48152
8768 North Territorial Road,Plymouth,MI,48170
5825 W 4 Mile Rd,Grayling,MI,49756
31675 Inkster Rd,Franklin,MI,48025
6334 S Harvey St,Muskegon,MI,49444
4700 N Red Oak Rd,Lewiston,MI,49756
33290 Gateway Dr,Romulus,MI,48174
M 32 W,Gaylord,MI,49735
5499 Miller Rd,Swartz Creek,MI,48473
Counry Rd 424 - 159 Youngs Ln,Gaastra,MI,49935
1 Germania Platz,Saginaw,MI,48602
1024 Valetta Dr,Temperance,MI,48182
8000 Glacier Club Drive,Washington,MI,48094
8000 Glacier Club Dr,Washington,MI,48094
6514 Days River 24 1/2 Rd,Gladstone,MI,49837
3551 W M 61,Gladwin,MI,48624
30500 W 13 Mile Rd,Farmington Hills,MI,48334
4178 Locke Rd,Perry,MI,48872
6150 14th Ave,Hudsonville,MI,49426
25345 W 6 Mile Rd,Redford,MI,48240
1413 E Kent,Greenville,MI,48838
200 Country Club Rd,Ironwood,MI,49938
9861 Meisner Ln,Casco Township,MI,48064
4519 N River Rd,Freeland,MI,48623
7211 48th St. SE,Grand Rapids,MI,49512
270 Narrows Rd,Coldwater,MI,49036
10080 Hegel Rd,Goodrich,MI,48438
24770 S River Rd,Mount Clemens,MI,48045
2597 4 Mile Rd NW,Grand Rapids,MI,49544
48200 Perkins Blvd,New Buffalo,MI,49117
17000 Lincoln St,Grand Haven,MI,49417
1 Grand Dr,Mackinac Island,MI,49836
5811 E Saint Joseph Hwy,Grand Ledge,MI,48837
4300 Leonard St N,Grand Rapids,MI,49525
11510 N Division ,Sparta,MI,49345
100 Grand Traverse Village Blvd,Acme,MI,49610
5464 68th Ave,New Era,MI,49446
3003 Hagni Rd,Kalkaska,MI,49646
1508 N State Rd,Ithaca,MI,48847
100 Charles St,Grayling,MI,49738
777 Great Oaks Blvd,Rochester,MI,48307
7323 Dixie Hwy,Bridgeport,MI,48722
3379 Sage Lake Rd,Lupton,MI,48635
1699 M-13,Pinconning,MI,48650
1555 Strasburg Rd,Monroe,MI,48161
1775 E Clark Rd,Ypsilanti,MI,48198
262 N Townline Rd,Gaylord,MI,49735
25379 Fawn River Rd,Sturgis,MI,49091
14820 Wellwood Rd,Brooklyn,MI,49230
9350 N Lapeer Rd,Mayville,MI,48423
67500 Mound Rd,Romeo,MI,48095
1600 Ormond St,Lansing,MI,48906
9339 Bellevue Rd,Grosse Ile,MI,48138
9725 W Gull Lake Dr,Richland,MI,49083
7417 N 38th St,Augusta,MI,49012
3797 S Hadley Rd,Hadley,MI,48462
29592 Pokagon Hwy,Dowagiac,MI,49047
2600 Club Dr,Rochester Hills,MI,48307
10251 Resort Rd,Pleasant Lake,MI,49272
Lakeshore Dr,Harbor Springs,MI,49740
201 Graham Avenue,Benton Harbor,MI,49022
12400 Highland Road,Hartland,MI,48353
1550 N Broadway St,Hastings,MI,49058
15101 Chandler Road,Bath Township,MI,48808
410 E Marr Rd,Howell,MI,48855
523 HawksNest Drive,South Haven,MI,49090
11450 E Holly Rd,Holly,MI,48442
3100 McKail Rd,Romeo,MI,48065
6444 Farr Rd,Onekama,MI,49675
5105 W Decker Rd,Ludington,MI,49431
29795 Heritage Ln,Paw Paw,MI,49079
2061 N. Three Mile Rd.,Hessel,MI,49745
3625 Napier Rd,Superior Township,MI,48198
2307 Orland,Wixom,MI,48393
2000 Randolph Street,Traverse City,MI,49684
2537 Parview Drive,Jackson,MI,49201
49001 N Ave,Macomb,MI,48042
3065 Alice Street,Whitehall,MI,49461
65 N 30th St,Galesburg,MI,49053
1270 W Monroe Rd,St. Louis,MI,48880
7688 Maple River Rd,Brutus,MI,49716
US Hwy 2 & 41,Escanaba,MI,49829
2075 Oakland Dr,Highland,MI,48356
500 Case Rd,Brooklyn,MI,49230
47000 Powell Rd,Plymouth,MI,48170
4855 Capac Rd,Capac,MI,48014
2900 N HubbardSton Rd,Pewamo,MI,48873
4800 Dexter Pinckney Rd,Dexter,MI,48130
8101 Byron Rd,Howell,MI,48855
9595 Estancia Rd,Brighton,MI,48114
5200 Huron Breeze Dr,Au Gres,MI,48703
3465 Huron River Dr,Ann Arbor,MI,48104
8765 Hammel Rd,Brighton,MI,48116
1441 N Lakeshore Rd,Port Sanilac,MI,48469
35780 Five Mile Rd,Livonia,MI,48154
Route 1,Manistique,MI,49854
55321 Brush Lake Road,Eau Claire,MI,49111
3301 Cippewa Beach Rd,Indian River,MI,49749
6359 E RS Ave,Scotts,MI,49088
5100 Indian Trl,White Lake,MI,48386
2776 Kalamazoo Ave SE,Grand Rapids,MI,49507
1081 Indianwood Rd,Lake Orion,MI,48362
2150 Middlebelt Rd,Inkster,MI,48141
10586 US Hwy 31 S,Interlochen,MI,49643
12893 N Territorial Rd,Chelsea,MI,48130
6902 Highland Rd,Howell,MI,48843
3750 64th St,Byron Center,MI,49315
742 N Eifert Rd,Mason,MI,48854
23510 Island Hills Dr,Centreville,MI,49032
13004 Iyopawa Island Rd,Coldwater,MI,49036
1609 Whites Rd,Kalamazoo,MI,49008
Oakland University,Rochester,MI,48306
1003 Perry Avenue,Big Rapids,MI,49307
4266 E Pierson Rd,Flint,MI,48506
2240 W Buno Rd,Milford,MI,48380
1600 College Ave NE,Grand Rapids,MI,49505
50 Woodside Dr,Kincheloe,MI,49788
4600 CLUB DRIVE,Cedar,MI,49621
600 Niblick Trail,Kingsley,MI,49649
5050 W Maple Rd,West Bloomfield,MI,48322
4807 Clyde Park Sw,Wyoming,MI,49509
56640 County Rd 671,Paw Paw,MI,49079
136 Country Club Blvd,Plainwell,MI,49080
32481 W Jefferson Ave,Rockwood,MI,48173
3110 W Ellsworth Rd,Ann Arbor,MI,48103
10339 Fairway Drive,Jerome,MI,49249
2520 Kerlikowski Rd,Benton Harbor,MI,49022
2808 Fairway Dr,Dorr,MI,49323
5119 Page Ave,Jackson,MI,49201
8760 Chilson Rd,Brighton,MI,48116
25505 Northline Rd,Taylor,MI,48180
8151 Pineview Dr,Mancelona,MI,49659
5369 West Chauvez Road,Ludington,MI,49431
6560 Peck Rd,Lexington,MI,48450
128 Lakewood Dr.,Cadillac,MI,49601
7751 Cedar Lake Rd,Oscoda,MI,48750
3786 Hunt Rd,Lapeer,MI,48446
7860 Smith Creek Rd,Wales,MI,48027
1801 Grand Ledge Hwy,Grand Ledge,MI,48837
9505 Otto Rd,Suttons Bay,MI,49682
184 N 5th St,Leland,MI,49654
4110 Country Club Rd,Adrian,MI,49221
4907 Whitehall Rd,Muskegon,MI,49445
1527 N Lakeshore Dr,Ludington,MI,49431
2666 West 14 Mile Road,Birmingham,MI,48009
14727 La Pleisance Rd,Monroe,MI,48162
50395 West 10 Mile Road,Novi,MI,48374
1018 Sunningdale Dr,Grosse Pointe Woods,MI,48236
5184 E Springport Rd,Harrisville,MI,48740
9300 Red Arrow Hwy,Bridgman,MI,49106
2855 Fox Rd,Lincoln,MI,48742
900 Lincoln Road,Otsego,MI,49078
52251 Pontiac Trl,Wixom,MI,48393
4600 Macatawa Legends Boulevard,Holland,MI,49424
500 South Merriman,Westland,MI,48186
9569 Bailey Road,East Jordan,MI,49727
500 Cherry St,Manistee,MI,49660
4797 US 31 S,Manistee,MI,49660
681 Lansing Street,Charlotte,MI,48813
6360 Secor Rd,Lambertville,MI,48144
5555 Ivanrest Avenue Southwest,Grandville,MI,49418
5555 Ivanrest Ave SW,Grandville,MI,49418
33203 Maple Ln Rd,Sterling Heights,MI,48312
158 North Mackinaw Road,Linwood,MI,48634
1075 W Grove St,Marquette,MI,49855
6409 West 76th St,Baldwin,MI,49304
4815 Old 27 S Rd,Gaylord,MI,49735
151 Lyon Lake Rd,Marshall,MI,49068
2080 River Rd,Marysville,MI,48040
21310 N Ave,Battle Creek,MI,49014
7880 Mackinaw Trl,Cadillac,MI,49601
40941 W 8 Mile Rd,Northville,MI,48167
1018 Haslett Rd,Haslett,MI,48840
1600 Club Dr,Metamora,MI,48455
31300 Metropolitan Pkwy,Mount Clemens,MI,48045
1535 Opal Lake Rd,Gaylord,MI,49735
4575 County Line Rd,Casco,MI,48064
46789 US 41,Houghton,MI,49931
1120 W Saint Andrews Rd,Midland,MI,48640
4200 Lovers Ln,Kalamazoo,MI,49001
330 Covell Avenue Southwest,Grand Rapids,MI,49504
5300 S Morey Rd,Lake City,MI,49651
7568 Sweet Lake Rd,Lake Ann,MI,49650
611 Cole Rd,Monroe,MI,48162
11801  Doane Rd.,South Lyon,MI,48178
6425 Portland Rd,Saranac,MI,48881
13545 Apple Ave,Ravenna,MI,49451
3686 E River Rd,Mt. Pleasant,MI,48858
1233 Opal Lake Rd,Gaylord,MI,49735
955 N Main,Nashville,MI,49073
3530 Noble Rd,Oxford,MI,48370
9810 Mullen Rd,Delton,MI,49046
7475 Mullett Lake Road,Mullett Lake,MI,49761
141 East 22 Mile Rd,Pickford,MI,49774
2801 Lakeshore Dr,Muskegon,MI,49441
1 Champions Circle,Milford,MI,48381
850 Stoney Creek Road,Oakland charter Township,MI,48363
4548 Forest Beach Rd,Watervliet,MI,49098
M123 & M28 S,Newberry,MI,49728
11029 Stout Ave NE,Rockford,MI,49341
N3215 St Hwy M35,Menominee,MI,49858
4550 S Bagley Rd,Ithaca,MI,48847
4550 South Bagley Road,Ithaca,MI,48847
15565 Bay Hill Dr,Northville,MI,48168
2888 S ComStock Ave,Fremont,MI,49412
N1475 US Hwy 8,Norway,MI,49870
800 N Main,Webberville,MI,48892
4500 Club Dr,Brighton,MI,48116
513 W Pontaluna Rd,Muskegon,MI,49444
35035 26 Mile Rd,New Haven,MI,48048
7000 Oakhurst Lane,City of the Village of Clarkst,MI,48348
7000 Oakhurst Ln,Clarkston,MI,48348
3951 W Maple,Bloomfield Hills,MI,48301
3333 W Weaver Rd,Shelby,MI,49455
8325 N Old Channel Trl,Montague,MI,49437
6101 W XY AVE,Schoolcraft,MI,49087
6101 West X Y Avenue,Schoolcraft,MI,49087
2841 Niles Buchanan Rd,Buchanan,MI,49107
714 -125th Ave,Shelbyville,MI,49344
5000 W Shore Dr,Orchard Lake,MI,48632
696 M-32,Gaylord,MI,49735
6234 Grant Road,Middleton,MI,48856
42000 N Chipman Rd,Owosso,MI,48867
300 E Drahner Rd,Oxford,MI,48371
2375 Stanton Rd,Lake Orion,MI,48362
19013 Woodward Ave,Detroit,MI,48203
610 Park Shore Dr,Cassopolis,MI,49031
9794 Jericho Rd,Bridgman,MI,49106
2282 Country Club Rd,Petoskey,MI,49770
46500 Summit Pkwy,Canton,MI,48188
Hwy 58 E,Munising,MI,49862
1175 S Main,Chelsea,MI,48118
2302 Brookside Dr,Flint,MI,48503
10195 120th Ave,West Olive,MI,49460
10195 120th Avenue,West Olive,MI,49460
11401 Newcosta Ave,Pierson,MI,49339
1520 Hughitt St,Iron Mountain,MI,49801
6603 N Woodbury Rd,Laingsburg,MI,48848
5400 Trailer Park Dr,Jackson,MI,49201
5580 Waldon Rd,Clarkston,MI,48348
3300 Pine Lake Rd,Orchard Lake,MI,49677
1400 W Superior St,Alma,MI,48801
2244 Pine River Rd,Standish,MI,48658
3600 Pine Trace Blvd,Rochester Hills,MI,48309
16801 31 Mile Rd,Ray Township,MI,48096
52065 Pulver Rd,Three Rivers,MI,49093
5820 Stony Creek Rd,Ypsilanti,MI,48197
4761 Houghton Lake Dr,Houghton Lake,MI,48629
8260 Henry Rd,Benzonia,MI,49617
6768 Naomi Rd,Eau Claire,MI,49111
4452 E Millbrook Rd,Mt. Pleasant,MI,48858
13390 Plumbrook Dr,Sterling Heights,MI,48312
21631 Lahser Rd,Southfield,MI,48033
13390 Plumbrook Drive,Sterling Heights,MI,48312
1516 Roslin Rd,Benton Harbor,MI,49022
5200 Polo Fields Dr,Ann Arbor,MI,48103
4335 Elizabeth Lake Rd,Waterford,MI,48328
3292 Beach Rd,Port Huron,MI,48060
4101 Fairway Dr,Fort Gratiot,MI,48059
4901 Divine Hwy,Portland,MI,48875
800 E Webb Rd,DeWitt,MI,48820
5303 W Main St,Kalamazoo,MI,49009
315 Prairiewood Dr,Otsego,MI,49078
1015 Brink Rd,Bronson,MI,49028
136 Inverness,Highland,MI,48357
8375 36th St SE,Ada,MI,49301
492 Golf View Lane,Rochester,MI,48309
10100 W. 10 Mile Road,Huntington Woods,Mi,48070
4875 Geddes Rd,Ann Arbor,MI,48105
2500 76th St SW,Byron Center,MI,49315
1500 N Dixie Hwy,Monroe,MI,48162
4057 Comfort Rd,Tecumseh,MI,49286
38180 Utica Rd,Sterling Heights,MI,48312
1100 Ramshorn Dr,Fremont,MI,49412
7163 Saint Clair Hwy,East China,MI,48054
11566 Ravenna Heights Rd,Ravenna,MI,49451
3520 Palmer Drive,Saugatuck,MI,49453
1041 King Highway,Kalamazoo,MI,49001
217 5th St,Gwinn,MI,49841
350 W Davison Rd,East Tawas,MI,48730
2036 Rochester Rd,Royal Oak,MI,48073
555 S Dancer Rd,Chelsea,MI,48118
4345 Redwood Rd.,Roscommon,MI,48653
32 Mile Rd,Richmond,MI,48062
10360 W Main St,Kalamazoo,MI,49009
10360 West Main Street,Kalamazoo,MI,49009
20495 Currie Rd,South Lyon,MI,48167
245 E Columbia,Battle Creek,MI,49015
3001 14th Ave,Menominee,MI,49858
15015 Sibley Rd,Riverview,MI,48193
1313 E Broomfield Rd,Mt. Pleasant,MI,48858
655 Michelson Rd,Rochester Hills,MI,48307
18601 Berg Rd,Detroit,MI,48219
4796 Golf Course Rd,Rogers City,MI,49779
12994 Paine Ave,Sparta,MI,49345
6586 Milligan Road,Cass City,MI,48726
3274 Davison Rd,Lapeer,MI,48446
1431 Kelsey Highway,Ionia,MI,48846
6484 Sutton Rd,Whitmore Lake,MI,48189
14600 E 32 Mile Rd,Washington,MI,48095
11701 Burt Rd,Detroit,MI,48228
3417 Don Soper Dr,Royal Oak,MI,48073
4722 W Grand River Ave,Lansing,MI,48906
3199 Rush Lake Rd,Pinckney,MI,48169
12090 W Michigan Ave,Saline,MI,48176
W1824 County Road 400,Bark River,MI,49807
4465 Gratiot Rd,Saginaw,MI,48638
7255 3 Mile Road,Bay City,MI,48706
8810 W 6 Mile Rd,Northville,MI,48168
33633 23 Mile Rd,New Baltimore,MI,48047
1450 East South Boulevard,Troy,MI,48085
1831 Johnson Street,Marne,MI,49435
3177 Heiss Rd,Monroe,MI,48162
2750 W Lauria Rd,Midland,MI,48642
9038 92nd St,Alto,MI,49302
616270 Lutz Rd,Three Rivers,MI,49093
1520 Riverside Dr,Sault Ste Marie,MI,49084
8364 Fillion Rd,Pigeon,MI,48755
911 Hayes Rd NE,Comstock Park,MI,49321
Bldg 599 Selfridge ANG Base,Harrison Township,MI,48625
31071 County Rd 390,Gobles,MI,49055
*One Shanty Creek Rd,Bellaire,MI,49615
2800 4th St,Jackson,MI,49203
5600 Walnut Lake Rd,West Bloomfield,MI,48323
9085 Big Lake Rd,Clarkston,MI,48346
1475 West River Road,Niles,MI,49120
7901 Greenbrier Cir NE,Rockford,MI,49341
2602 West Walton Boulevard,Waterford Township,MI,48329
1920 Noble Rd,Tawas City,MI,48763
3407 E Mansiding Rd,Harrison,MI,48625
5810 Flinchbaugh Rd,Kimball,MI,48074
397 Adams Rd,South Haven,MI,49090
14600 Reaume Pkwy,Southgate,MI,48195
G-4312 S Dort Hwy,Burton,MI,48529
17496 Fruitport Rd,Spring Lake,MI,49456
1129 Ripley Rd,Linden,MI,48451
18396 W US 10,Hersey,MI,49639
2635 E Beaver Rd,Kawkawlin,MI,48631
6151 Springvale Rd.,Walloon Lake ,MI,49796
6151 Springvale Road,Boyne Falls,MI,49713
316 Strathmore Road,Bloomfield Hills,MI,48304
12450 Andersonville Rd,Davisburg,MI,48350
26831 Dutch Settlement Rd,Dowagiac,MI,49047
12111 Helmer Road South,Battle Creek,MI,49015
1714 N River Rd,St. Clair,MI,48079
22185 Masonic Blvd,St. Clair Shores,MI,48082
West US 2,St. Ignace,MI,49781
24953 M-86,Sturgis,MI,49091
44115 Five Mile Rd,Plymouth,MI,48170
1714 River Road,Saint Clair,MI,48079
20 E W Ave,Vicksburg,MI,49097
15579 East Augusta Drive,Augusta,MI,49012
1955 Stonebridge Dr S,Ann Arbor,MI,48108
4100 Sweeter Rd,Twin Lake,MI,49457
15530 East M-89,Augusta,MI,49012
19011 E M-68 Hwy,Onaway,MI,49765
5140 Main Park Way,Shelby Township,MI,49455
4512 S Townline Rd,Cedar,MI,49621
1930 W Sugar River Rd,Gladwin,MI,48624
One Sugarbush Dr,Davison,MI,48423
624 Port Sheldon Rd SW,Grandville,MI,49418
7191 17 Mile Rd,Sterling Heights,MI,48313
9521 Highland Green Dr,Saginaw,MI,48609
1902 Hammerberg Rd,Flint,MI,48507
W399 Hwy 2,Harris,MI,49845
48787 N Ave,Macomb,MI,48042
5725 Rochester Rd,Troy,MI,48085
5051 Orchard Lake Rd,West Bloomfield,MI,48323
2600 W. 16th Avenue,Sault Ste. Marie,MI,49084
53503 W Ten Mile Rd,South Lyon,MI,48178
1022 Monument Rd,Tawas City,MI,48763
25360 Ecorse Rd,Taylor,MI,48180
5200 Milwaukee Rd,Tecumseh,MI,49286
11741 W Leonard Rd,Nunica,MI,49448
7527 Lake Bluff Rd,Gladstone,MI,49655
09601 68th Street,South Haven,MI,49090
5085 Shanty Creek Rd.,Bellaire,MI,49615
7951 Turnberry Cr,Williamsburg,MI,49690
2763 N 72nd Ave,Hart,MI,49420
2430 West Crown Dr.,Traverse City,MI,49685
5266 Old 76 Hwy,West Branch,MI,48661
8103 N US Hwy 27,St. Johns,MI,48879
16030 Barber Creek,Kent City,MI,49330
3388 Eddy School Rd,Bellaire,MI,49615
950 Flint St,Frankenmuth,MI,48734
1579 Floyd Ave,Jackson,MI,49201
2715 Leonard St NW,Grand Rapids,MI,49504
4141 Bauer Rd,Brighton,MI,48116
5270 Perry Rd,Grand Blanc,MI,48439
7677 US 223,Ottawa Lake,MI,49267
12990 Bradshaw Rd,Gowen,MI,49326
800 Golf Dr,Pontiac,MI,48341
800 Golf drive,Pontiac,MI,48341
50395 W 10 Mile Rd,Novi,MI,48374
380 W 48th street ,Holland,MI,49423
1111 6 Mile Rd,Whitmore Lake,MI,48189
4400 Championship Dr,Gaylord,MI,49735
900 Lincoln Rd,Otsego,MI,49078
8700 Mackinaw Club Dr,Carp Lake,MI,49718
9600 Crouse Road,Hartland,MI,48855
4645 W Campus Dr,Allendale,MI,49401
15701 N Dr N,Marshall,MI,49068
7877 Moors Bridge Rd,Portage,MI,49024
5004 W Otsego Lake Dr,Gaylord,MI,49735
5745 Old 76 Hwy,West Branch,MI,48661
62900 Campground Rd,Washington,MI,48094
1022 Clubhouse Dr,"Lake Isabella, Michigan",MI,48893
5050 Byron Center Ave SW,Wyoming,MI,49519
5665 Pickard Rd,Mt. Pleasant,MI,48858
116 Quest View Dr,Houghton Lake,MI,48629
3520 Palmer Dr,Saugatuck,MI,49453
26 Maxton Rd,Drummond Island,MI,49726
61264 18 Mile Rd,Leroy,MI,49655
19 Sawmill Creek,Saginaw,MI,48603
8900 N Clare Ave,Harrison,MI,48625
7300 Bray Rd,Vassar,MI,48768
39670 Ecorse Rd,Wayne,MI,48184
1975 W Gunn Rd,Rochester Hills,MI,48306
6415 W F Ave,Kalamazoo,MI,49009
9090 Armstrong Road,Newport,MI,48166
12915 Sumpter Rd,Carleton,MI,48117
6886 Water Rd,Rothbury,MI,49437
4100 Thousand Oaks Dr,Grand Rapids,MI,49525
6045 136th Avenue,Holland,MI,49424
27800 M 32 E,Hillman,MI,49746
16339 Park Lake Rd,East Lansing,MI,48823
One Champion Circle,Pinckney,MI,48169
5646 M-72 SE,Kalkaska,MI,49738
1 TimberStone Dr,Iron Mountain,MI,49801
23700 31 Mile Road,Ray,MI,48096
14827 26 1/2 Mile Rd,Albion,MI,49224
1 Nicklaus Dr,Dearborn,MI,48120
1725 S Union St,Traverse City,MI,49684
2829 Travis Pointe Rd,Ann Arbor,MI,48108
3962 Wilkinson Rd,Gaylord,MI,49735
2500 True North Dr.,Harbor Springs,MI,49740
11969 Tullymore Dr,Stanwood,MI,49346
9044 R Dr S,Burlington,MI,49029
7625 Glascott Rd,West Bloomfield,MI,48323
1030 Hwy 612,Kalkaska,MI,49646
3260 S Fenmore Rd,Merrill,MI,48637
1005 N McKeighan Rd,Chesaning,MI,48616
455 Twin Lakes Dr,Oakland,MI,48363
6710 W Freeland Rd,Freeland,MI,48623
6345 N US Hwy 27,St. Johns,MI,48879
13495 92nd St SE,Alto,MI,49302
8449 US Hwy 23,Fenton,MI,48430
2409 E Atwater Rd,Ubly,MI,48475
500 E Stadium Blvd,Ann Arbor,MI,48104
3509 S Kirk Rd,Vassar,MI,48768
3175 Sand Beach Rd,Bad Axe,MI,48413
1184 E Tobias Rd,Clio,MI,48420
5665 East Pickard Street,Mount Pleasant,MI,48858
4000 Clubgate Dr,Bloomfield Hills,MI,48302
8152 Weather Wax Dr,Jenison,MI,49428
5995 Country Club Rd,Petoskey,MI,49770
25501 Johns Rd,South Lyon,MI,48178
2874 Lake Lansing Rd,East Lansing,MI,48823
34255 Utica Road,Fraser,MI,48026
26116 W Warren St,Dearborn,MI,48127
G-9057 S Saginaw Rd,Grand Blanc,MI,48439
3461 Burnside Rd,North Branch,MI,48461
2955 Packard Rd,Ypsilanti,MI,48197
11800 Trist Rd,Grass Lake,MI,49240
1600 Galbraith Ave SE,Grand Rapids,MI,49546
British Landing Rd,Mackinac Island,MI,49757
5543 M-119,Harbor Springs,MI,49740
5617 S Huron River Dr,South Rockwood,MI,48179
1905 Fairview Road,West Branch,MI,48661
22843 West River Road,Grosse Ile Township,MI,48138
14600 Kinloch Rd,Redford,MI,48239
2475 Johnson Street,Marne,MI,49435
500 S Merriman Rd,Westland,MI,48186
4161 N Adams Rd,Rochester Hills,MI,48306
1600 Linn Rd,Williamston,MI,48895
15730 Homer Road,Concord,MI,49237
2500 Whispering Pines Dr,Pinckney,MI,48169
20500 Newburgh Rd,Livonia,MI,48152
1309 Bright Angel Drive,Prudenville,MI,48651
6777 South Shore Drive,Whitehall,MI,49461
991 North Williams Lake Road,White Lake charter Township,MI,48386
8480 Sparling Rd,Goodells,MI,48027
2241 Bass Lake Rd,Pierson,MI,49339
7980 Beck Road,Ottawa Lake,MI,49267
7980 beck rd.,ottawa lake,MI,49267
12578 Wilson Roaf,New Buffalo,MI,49117
7287 Wickert Rd,Hale,MI,48739
11386 West Lakeshore Drive,Brimley,MI,49715
3914 Second Rd,Wolverine,MI,49799
311 W Maple Rd,Byron,MI,48418
22900 huron river drive,new boston,mi,48164
3311 N River Rd,Port huron,Mi,48059
7335 Oak Rd,Vassar,MI,48768
12227 Sandborn Rd,Portland,MI,48875
8240 S Genuine Rd,Shepherd,MI,48883
4514 E Ottogan St,Holland,MI,49423
21690 27 Mile Road,Ray,MI,48096
6363 Burton Road,Adrian,MI,49221
320 North Gates Road,Sandusky,MI,48471
14400 Wood Road,Lansing,MI,48906
4004 18th Rd,Escanaba,MI,49829
16111 Blair Street,West Olive,MI,49460
5755 Poyhonen Rd,Toivola,MI,49965
3625 Biddle Ave,Wyandotte,MI,48192
12300 Bowens Mill Road,Wayland,MI,49348
10499 N 48th St,Augusta,MI,49012
6386 Ferry Rd.,East Jordan,MI,49727
